HIERARCHY
ROOT Hips
{
	OFFSET 0.00000 0.00000 0.00000
	CHANNELS 6 Xposition Yposition Zposition Zrotation Yrotation Xrotation 
	JOINT LHipJoint
	{
		OFFSET 0 0 0
		CHANNELS 3 Zrotation Yrotation Xrotation
		JOINT LeftUpLeg
		{
			OFFSET 1.62329 -1.80800 0.67318
			CHANNELS 3 Zrotation Yrotation Xrotation
			JOINT LeftLeg
			{
				OFFSET 2.57139 -7.06484 0.00000
				CHANNELS 3 Zrotation Yrotation Xrotation
				JOINT LeftFoot
				{
					OFFSET 2.52017 -6.92413 0.00000
					CHANNELS 3 Zrotation Yrotation Xrotation
					JOINT LeftToeBase
					{
						OFFSET 0.23295 -0.64001 2.10214
						CHANNELS 3 Zrotation Yrotation Xrotation
						End Site
						{
							OFFSET 0.00000 -0.00000 1.10139
						}
					}
				}
			}
		}
	}
	JOINT RHipJoint
	{
		OFFSET 0 0 0
		CHANNELS 3 Zrotation Yrotation Xrotation
		JOINT RightUpLeg
		{
			OFFSET -1.48061 -1.80800 0.67318
			CHANNELS 3 Zrotation Yrotation Xrotation
			JOINT RightLeg
			{
				OFFSET -2.63258 -7.23296 0.00000
				CHANNELS 3 Zrotation Yrotation Xrotation
				JOINT RightFoot
				{
					OFFSET -2.54779 -7.00000 0.00000
					CHANNELS 3 Zrotation Yrotation Xrotation
					JOINT RightToeBase
					{
						OFFSET -0.23067 -0.63376 2.12161
						CHANNELS 3 Zrotation Yrotation Xrotation
						End Site
						{
							OFFSET -0.00000 -0.00000 1.11000
						}
					}
				}
			}
		}
	}
	JOINT LowerBack
	{
		OFFSET 0 0 0
		CHANNELS 3 Zrotation Yrotation Xrotation
		JOINT Spine
		{
			OFFSET -0.02108 2.07573 -0.16981
			CHANNELS 3 Zrotation Yrotation Xrotation
			JOINT Spine1
			{
				OFFSET 0.05070 2.08439 -0.03141
				CHANNELS 3 Zrotation Yrotation Xrotation
				JOINT Neck
				{
					OFFSET 0 0 0
					CHANNELS 3 Zrotation Yrotation Xrotation
					JOINT Neck1
					{
						OFFSET -0.10731 1.60408 0.31370
						CHANNELS 3 Zrotation Yrotation Xrotation
						JOINT Head
						{
							OFFSET 0.08411 1.65679 -0.30822
							CHANNELS 3 Zrotation Yrotation Xrotation
							End Site
							{
								OFFSET 0.03911 1.69149 -0.14146
							}
						}
					}
				}
				JOINT LeftShoulder
				{
					OFFSET 0 0 0
					CHANNELS 3 Zrotation Yrotation Xrotation
					JOINT LeftArm
					{
						OFFSET 3.52315 0.73219 -0.54694
						CHANNELS 3 Zrotation Yrotation Xrotation
						JOINT LeftForeArm
						{
							OFFSET 5.32462 -0.00000 -0.00000
							CHANNELS 3 Zrotation Yrotation Xrotation
							JOINT LeftHand
							{
								OFFSET 3.48402 -0.00000 -0.00000
								CHANNELS 3 Zrotation Yrotation Xrotation
								JOINT LeftFingerBase
								{
									OFFSET 0 0 0
									CHANNELS 3 Zrotation Yrotation Xrotation
									JOINT LeftHandIndex1
									{
										OFFSET 0.57248 -0.00000 -0.00000
										CHANNELS 3 Zrotation Yrotation Xrotation
										End Site
										{
											OFFSET 0.46154 -0.00000 -0.00000
										}
									}
								}
								JOINT LThumb
								{
									OFFSET 0 0 0
									CHANNELS 3 Zrotation Yrotation Xrotation
									End Site
									{
										OFFSET 0.46859 -0.00000 0.46859
									}
								}
							}
						}
					}
				}
				JOINT RightShoulder
				{
					OFFSET 0 0 0
					CHANNELS 3 Zrotation Yrotation Xrotation
					JOINT RightArm
					{
						OFFSET -3.41766 0.93592 -0.10019
						CHANNELS 3 Zrotation Yrotation Xrotation
						JOINT RightForeArm
						{
							OFFSET -5.33589 -0.00000 -0.00000
							CHANNELS 3 Zrotation Yrotation Xrotation
							JOINT RightHand
							{
								OFFSET -3.64134 -0.00000 -0.00000
								CHANNELS 3 Zrotation Yrotation Xrotation
								JOINT RightFingerBase
								{
									OFFSET 0 0 0
									CHANNELS 3 Zrotation Yrotation Xrotation
									JOINT RightHandIndex1
									{
										OFFSET -0.73481 -0.00000 -0.00000
										CHANNELS 3 Zrotation Yrotation Xrotation
										End Site
										{
											OFFSET -0.59242 -0.00000 -0.00000
										}
									}
								}
								JOINT RThumb
								{
									OFFSET 0 0 0
									CHANNELS 3 Zrotation Yrotation Xrotation
									End Site
									{
										OFFSET -0.60147 -0.00000 0.60147
									}
								}
							}
						}
					}
				}
			}
		}
	}
}
MOTION
Frames: 46
Frame Time: 0.0333333

1.3241 17.6376 12.3966 0 0 0 0 0 0 -21 0 0 0 0 0 0 0 0 0 0 0 0 0 0 21 0 0 0 0 0 0 0 0 0 0 0 0 0 0 0 0 0 0 0 0 0 0 -16 0 0 21 0 0 11 0 0 0 -8 0 0 0 0 0 0 0 0 0 0 0 0 0 0 0 0 0 0 0 0 8 0 0 0 0 0 0 0 0 0 0 0 0 0 0 0 0 0
1.7903 33.3851 -4.5437 180.9510 -22.3959 -166.5700 0.0000 0.0000 0.0000 -23.4917 -0.7516 -29.2726 3.2327 11.0625 32.4910 0.5098 -4.6282 -12.7058 0.2985 -3.5133 -9.7112 0.0000 0.0000 0.0000 20.7478 11.6200 -23.5548 -5.7489 -14.1805 43.9654 -1.9003 7.4550 -24.7480 -0.2027 2.8989 -7.9973 -5.7788 -4.2061 6.2312 1.1574 -6.0274 -1.4761 4.9934 -2.8242 -4.3069 -13.6144 -3.4544 -25.6678 6.9193 -1.9610 26.3228 4.6238 -1.4455 13.3718 0.0000 -0.0000 0.0000 -86.5892 -12.3158 44.1462 40.6076 -48.4258 -18.8925 -0.0000 0.0000 -5.3312 21.1244 14.4789 5.5176 -7.1250 0.0000 -0.0000 -5.9701 45.3686 -0.0545 0.0000 -0.0000 0.0000 77.7098 -15.6189 38.0606 -109.7861 58.4678 -77.0471 0.0000 0.0000 52.7733 27.7879 -2.7733 -1.4606 7.1250 -0.0000 -0.0000 39.7188 -29.7615 19.4042
1.7839 33.4782 -4.6219 180.3810 -21.2248 -166.9650 0.0000 0.0000 0.0000 -24.0226 -1.0878 -26.9696 2.8776 10.4943 30.5927 0.4671 -2.3498 -12.3147 0.3954 -4.0376 -11.1823 0.0000 0.0000 0.0000 20.4679 10.7499 -23.4745 -4.8696 -13.2355 40.2564 -1.8302 8.1203 -24.2551 -0.1665 2.6291 -7.2479 -5.9917 -4.2219 6.3369 0.9449 -6.0853 -1.5064 4.9062 -2.8461 -4.3935 -13.9561 -2.9618 -25.5418 6.9320 -1.2097 26.8988 4.8407 -1.2025 13.4914 0.0000 -0.0000 0.0000 -86.2761 -11.0192 42.6842 39.7840 -47.9414 -18.2787 -0.0000 0.0000 -4.3913 21.7431 14.7213 5.7870 -7.1250 0.0000 -0.0000 -5.4467 45.7031 -0.0948 0.0000 -0.0000 0.0000 76.5842 -14.4345 42.8284 -117.4606 56.9495 -83.5380 0.0000 0.0000 53.5987 34.5108 -5.4971 -3.7683 7.1250 -0.0000 -0.0000 43.9667 -30.7376 21.7964
1.8041 33.5243 -4.7323 180.3990 -19.4492 -167.8510 0.0000 0.0000 0.0000 -23.9370 -0.4642 -25.1854 2.7194 10.2263 29.7126 0.4551 -0.6278 -12.5407 0.4683 -4.3894 -12.1749 0.0000 0.0000 0.0000 21.1996 9.7948 -22.3858 -4.1580 -12.3677 37.0454 -1.5517 6.3735 -22.3398 -0.0314 1.1430 -3.1423 -6.3039 -3.9463 5.9145 0.9646 -5.7053 -1.2692 5.0205 -2.6748 -3.9222 -14.2916 -2.5357 -25.5112 6.8515 -0.5099 27.5071 5.0108 -0.9999 13.6497 -0.0000 -0.0000 0.0000 -85.8959 -9.4217 41.2448 40.1742 -48.1727 -18.5689 -0.0000 0.0000 -3.7004 21.2078 14.9251 5.7072 -7.1250 0.0000 -0.0000 -5.9858 45.8493 -0.1259 -0.0000 -0.0000 0.0000 75.5174 -11.8558 46.7092 -123.1618 55.4068 -88.2761 0.0000 0.0000 54.4865 42.7941 -7.0396 -6.4733 7.1250 -0.0000 -0.0000 46.9396 -29.2592 28.2075
1.8174 33.5558 -4.8080 180.1650 -18.1132 -167.9040 0.0000 0.0000 0.0000 -24.0429 -0.9101 -24.0769 2.5880 9.9961 28.9641 0.4069 1.3003 -12.5925 0.6394 -5.1158 -14.2390 0.0000 0.0000 0.0000 21.4729 8.7992 -22.4781 -3.7668 -11.8435 35.1805 -1.1506 2.1429 -19.6769 -0.6032 -4.9714 13.8270 -5.9281 -3.7851 5.2309 0.7409 -5.4384 -1.5060 4.5171 -2.5522 -3.8737 -14.5033 -2.1498 -25.3181 6.7962 0.0166 28.2722 5.1420 -0.8786 13.8632 0.0000 -0.0000 0.0000 -85.1276 -8.5373 40.5958 39.3658 -47.6896 -17.9688 -0.0000 0.0000 -3.1444 21.7406 14.5528 5.7219 -7.1250 0.0000 -0.0000 -5.4152 45.5244 -0.0703 0.0000 -0.0000 0.0000 75.1898 -8.9058 50.3845 -127.4495 53.9738 -91.7758 0.0000 0.0000 55.9092 52.3199 -7.6582 -9.7898 7.1250 -0.0000 -0.0000 46.5550 -22.9464 41.6632
1.8550 33.5526 -4.8784 179.7410 -16.8053 -168.2260 0.0000 0.0000 0.0000 -24.3392 -0.6476 -23.1782 2.5173 9.8693 28.5546 0.3310 2.9434 -12.3551 0.9864 -6.3215 -17.7202 0.0000 0.0000 0.0000 21.7227 7.8137 -21.8360 -3.7085 -11.7621 34.8954 -1.0711 2.7240 -18.8413 -0.8425 -5.8546 16.3632 -6.1448 -3.4676 4.6599 0.7075 -4.9949 -1.5157 4.5314 -2.3384 -3.5993 -14.7324 -1.9056 -25.1375 6.4905 0.4399 28.9203 5.1477 -0.8360 14.0508 -0.0000 0.0000 0.0000 -84.6664 -7.9234 40.1302 39.2462 -47.6169 -17.8804 -0.0000 0.0000 -2.6208 21.3433 14.9715 5.7643 -7.1250 0.0000 -0.0000 -5.8697 45.9157 -0.1331 -0.0000 0.0000 0.0000 74.9489 -5.0308 52.8506 -129.7226 53.1068 -93.6041 0.0000 0.0000 57.1467 62.0399 -6.8790 -12.7152 7.1250 -0.0000 -0.0000 43.2999 -5.6699 63.7002
1.9030 33.5492 -4.9268 179.2000 -15.4005 -168.7590 0.0000 0.0000 0.0000 -24.6078 -0.1915 -22.0031 2.4833 9.8074 28.3554 0.4034 2.7264 -13.3090 0.6944 -5.3270 -14.8436 0.0000 0.0000 0.0000 21.3333 8.6040 -20.4962 -3.6237 -11.6420 34.4770 -1.0585 2.9348 -18.6862 -1.2324 -7.0403 19.8349 -6.3408 -3.0996 4.6421 0.5780 -4.5264 -1.6069 4.4826 -2.0956 -3.7374 -14.9301 -1.6096 -24.7665 6.2099 0.8664 29.5698 5.1532 -0.7967 14.2005 0.0000 -0.0000 0.0000 -84.1422 -6.7599 39.5771 39.7759 -47.9366 -18.2727 -0.0000 0.0000 -1.5670 22.3669 15.4125 6.2411 -7.1250 0.0000 -0.0000 -5.0055 46.5182 -0.1880 0.0000 -0.0000 0.0000 75.2295 -1.0138 54.8755 -129.8736 53.0464 -93.7249 0.0000 0.0000 58.1518 70.3337 -5.4536 -14.8918 7.1250 -0.0000 -0.0000 44.8556 15.7110 82.7205
1.9441 33.5363 -4.9797 179.2930 -14.4230 -169.2090 0.0000 0.0000 0.0000 -24.3117 0.1034 -21.7585 2.5336 9.8987 28.6492 0.3915 2.9254 -13.2583 0.9007 -6.0483 -16.9247 0.0000 0.0000 0.0000 21.3780 9.4800 -19.3735 -3.5099 -11.4780 33.9095 -0.9966 1.9181 -18.3213 -0.2432 -3.1736 8.7624 -5.5852 -2.9429 4.2275 0.6889 -4.2321 -1.4949 4.1274 -1.9766 -3.4641 -15.2995 -1.3774 -24.8682 5.9385 1.3965 30.1367 5.2162 -0.7173 14.4050 -0.0000 -0.0000 0.0000 -83.9814 -5.7013 38.5689 41.1273 -48.7238 -19.2822 -0.0000 0.0000 -1.1311 24.0697 16.8614 7.3824 -7.1250 0.0000 -0.0000 -3.6874 48.3086 -0.3014 -0.0000 -0.0000 0.0000 75.7218 3.3202 56.8164 -127.0448 54.1200 -91.4482 0.0000 0.0000 58.5550 74.3653 -4.7487 -16.4789 7.1250 -0.0000 -0.0000 47.4798 24.2386 89.2930
1.9772 33.5452 -5.0163 179.0060 -13.4345 -169.4870 0.0000 0.0000 0.0000 -24.5520 0.0079 -21.0847 2.5609 9.9477 28.8077 0.3657 4.0316 -13.6262 0.5854 -4.8988 -13.6202 0.0000 0.0000 0.0000 20.9705 9.9118 -18.5021 -3.4260 -11.3547 33.4855 -0.9324 2.4700 -17.5839 -0.1996 -2.8765 7.9352 -5.2233 -2.6379 3.9678 0.6870 -3.7887 -1.4879 3.8832 -1.7666 -3.3808 -15.4236 -1.2193 -24.7620 5.5194 1.7157 30.6768 5.1309 -0.7276 14.5901 0.0000 0.0000 0.0000 -84.1794 -3.9162 38.1202 43.5130 -50.0188 -21.0930 -0.0000 0.0000 -1.2882 28.8646 17.3846 9.3525 -7.1250 0.0000 -0.0000 0.9141 49.6496 0.1048 0.0000 0.0000 0.0000 76.2604 6.8441 58.0937 -123.3492 55.3493 -88.4303 0.0000 0.0000 58.5538 76.2494 -4.4701 -17.6663 7.1250 -0.0000 -0.0000 48.7199 27.3107 91.3580
2.0025 33.5734 -5.0578 178.8940 -12.4819 -169.8200 0.0000 0.0000 0.0000 -24.6662 -0.1321 -20.3250 2.5265 9.8860 28.6083 0.3287 5.2963 -14.0772 0.4174 -4.1469 -11.4903 0.0000 0.0000 0.0000 20.9114 9.9266 -17.7511 -3.3156 -11.1893 32.9209 -0.8505 2.7821 -16.7081 -0.1657 -2.6222 7.2286 -4.6766 -2.2728 3.7355 0.7760 -3.2514 -1.3685 3.6241 -1.5163 -3.2041 -15.6345 -1.1394 -24.5052 5.0792 1.9456 31.0046 5.0217 -0.7729 14.6647 0.0000 0.0000 0.0000 -84.6676 -1.9005 38.4773 46.8366 -51.6372 -23.6702 -0.0000 0.0000 -0.4303 36.7135 18.7645 13.4897 -7.1250 0.0000 -0.0000 8.9275 52.7288 1.7089 0.0000 0.0000 0.0000 76.4903 9.6388 59.7124 -118.0384 56.8104 -84.0220 0.0000 0.0000 58.0789 74.2861 -5.6200 -19.1916 7.1250 -0.0000 -0.0000 46.3378 21.5664 86.4803
2.0302 33.6039 -5.0867 179.0490 -11.6602 -169.9020 0.0000 0.0000 0.0000 -24.5106 -0.1311 -20.2768 2.5362 9.9035 28.6647 0.1756 7.2042 -13.5808 0.6866 -5.2977 -14.7595 0.0000 0.0000 0.0000 21.1623 9.7022 -17.3288 -3.1758 -10.9744 32.1935 -0.7762 3.2405 -15.8647 -0.1719 -2.6708 7.3635 -3.9394 -1.7334 3.5928 0.7635 -2.4885 -1.3960 3.1509 -1.1497 -3.2542 -15.4867 -1.2193 -24.2054 4.6727 1.7726 31.3672 4.7964 -0.9396 14.8008 -0.0000 -0.0000 0.0000 -84.9742 0.5083 39.3366 52.6640 -54.0150 -28.3160 -0.0000 -0.0000 2.3909 45.9653 21.8164 21.0254 -7.1250 0.0000 -0.0000 20.3289 58.7442 7.0140 -0.0000 -0.0000 0.0000 77.1552 10.7353 60.3120 -112.9991 57.9038 -79.7776 0.0000 0.0000 57.8065 70.2358 -7.4404 -19.8189 7.1250 -0.0000 -0.0000 43.6812 10.1647 77.5278
2.0657 33.6339 -5.1268 179.0840 -10.9973 -170.0950 0.0000 0.0000 0.0000 -24.2623 -0.3680 -19.6094 2.4912 9.8218 28.4016 0.1742 7.3198 -13.6845 0.5506 -4.7534 -13.2066 0.0000 0.0000 0.0000 21.2691 9.8942 -16.6419 -3.0699 -10.8073 31.6327 -0.7237 3.4607 -15.2719 -0.1743 -2.6891 7.4143 -3.6470 -1.2745 3.4706 0.7531 -1.8521 -1.1973 2.9321 -0.8458 -3.0406 -15.1731 -1.2867 -23.9443 4.2403 1.5953 31.5304 4.5261 -1.0657 14.8546 0.0000 0.0000 0.0000 -85.2080 2.4981 40.4344 60.4300 -56.4234 -34.6991 -0.0000 -0.0000 7.9312 54.1751 24.7979 30.1568 -7.1250 0.0000 -0.0000 35.0174 64.9610 17.9091 0.0000 0.0000 0.0000 77.7800 11.3425 60.7175 -108.0144 58.7376 -75.5348 0.0000 0.0000 57.4515 64.9463 -9.6863 -19.7958 7.1250 -0.0000 -0.0000 43.3611 -5.9103 63.6640
2.1029 33.6726 -5.1479 178.7900 -11.2771 -169.7180 0.0000 0.0000 0.0000 -24.3644 -0.9719 -19.5918 2.4130 9.6780 27.9403 0.0561 7.9478 -12.4241 1.0092 -6.3921 -17.9265 0.0000 0.0000 0.0000 20.8902 9.9866 -16.9082 -3.0125 -10.7153 31.3255 -0.6737 3.4650 -14.7166 -0.2237 -3.0447 8.4032 -3.4570 -1.0290 3.4376 0.6745 -1.5213 -1.3741 2.7276 -0.6796 -3.2369 -14.9391 -1.4283 -23.4376 3.8794 1.2448 31.7528 4.2645 -1.2748 14.8992 -0.0000 0.0000 0.0000 -85.2019 4.5914 42.0025 70.7214 -58.5480 -43.3857 -0.0000 -0.0000 17.4427 60.7890 25.9152 38.0126 -7.1250 0.0000 -0.0000 51.4429 68.2032 31.6918 -0.0000 0.0000 0.0000 78.1181 10.6153 60.3310 -104.2450 59.2192 -72.3042 0.0000 0.0000 57.1819 59.0904 -11.8625 -18.9495 7.1250 -0.0000 -0.0000 46.5637 -20.8067 47.0060
2.1363 33.7017 -5.1884 178.4270 -11.5666 -169.6120 0.0000 0.0000 0.0000 -24.5018 -1.2276 -19.1257 2.3183 9.4997 27.3713 0.0435 7.8565 -12.0690 0.9138 -6.0910 -17.0488 0.0000 0.0000 0.0000 20.5939 9.5985 -16.7155 -2.9445 -10.6046 30.9576 -0.5645 3.7108 -13.4144 -0.3187 -3.6289 10.0350 -3.6112 -0.8832 3.1473 0.6947 -1.3241 -1.4112 2.8180 -0.5803 -3.1222 -14.7298 -1.4639 -22.9444 3.4687 1.0688 32.0353 4.0181 -1.4303 14.9510 0.0000 -0.0000 0.0000 -84.7371 5.8800 44.6249 81.8772 -59.7492 -52.9714 -0.0000 -0.0000 25.9342 61.3998 23.8701 36.5828 -7.1250 0.0000 -0.0000 49.6757 66.1421 28.2210 0.0000 -0.0000 0.0000 78.4113 9.6195 60.1662 -102.4312 59.4080 -70.7443 0.0000 0.0000 57.4240 55.0752 -13.2693 -18.1966 7.1250 -0.0000 -0.0000 49.4516 -27.9017 36.3166
2.1595 33.7171 -5.2492 178.7080 -11.6464 -169.2990 0.0000 0.0000 0.0000 -24.0279 -1.2387 -19.1454 2.2780 9.4226 27.1265 0.0515 7.7383 -12.0660 0.7516 -5.5373 -15.4475 0.0000 0.0000 0.0000 20.9282 9.5715 -16.5750 -2.8447 -10.4393 30.4112 -0.5341 4.1812 -13.0143 -0.4087 -4.1039 11.3693 -3.1716 -0.7785 1.9829 1.0336 -1.1181 -1.2412 2.8857 -0.5019 -2.3069 -14.8990 -1.5128 -22.7627 3.0976 1.1044 32.2017 3.8920 -1.5210 14.9964 -0.0000 -0.0000 0.0000 -84.2936 5.7291 47.2269 91.7484 -59.9884 -61.5141 -0.0000 -0.0000 32.0412 56.7833 17.7426 24.9571 -7.1250 0.0000 -0.0000 33.6103 56.9131 10.6307 -0.0000 -0.0000 0.0000 78.5465 9.5305 59.9988 -101.3103 59.5111 -69.7790 0.0000 0.0000 57.8574 52.6578 -13.9488 -17.5337 7.1250 -0.0000 -0.0000 50.8596 -30.8868 30.8677
2.2091 33.7289 -5.2455 178.4760 -13.3629 -169.7480 0.0000 0.0000 0.0000 -24.0303 -1.7551 -18.4880 2.2554 9.3789 26.9879 0.0225 7.4660 -11.1291 1.1350 -6.7660 -19.0240 0.0000 0.0000 0.0000 21.0690 8.9470 -15.8933 -2.7897 -10.3466 30.1065 -0.5857 3.6426 -13.6763 -0.3520 -3.8119 10.5481 -3.0285 -1.0328 2.8056 1.0821 -1.4741 -1.2385 2.8877 -0.6725 -2.7432 -14.5467 -1.5898 -22.4269 2.7302 0.8332 32.5629 3.6265 -1.6935 15.1271 -0.0000 -0.0000 0.0000 -82.9940 4.5853 50.9536 100.3768 -59.5892 -68.9742 -0.0000 -0.0000 35.5863 57.7175 19.0724 27.3497 -7.1250 0.0000 -0.0000 36.2520 59.0157 13.5173 -0.0000 -0.0000 0.0000 79.2618 9.1209 59.2570 -100.9950 59.5382 -69.5072 0.0000 0.0000 58.5948 51.2574 -14.1410 -16.9346 7.1250 -0.0000 -0.0000 51.3765 -32.1025 28.3511
2.2489 33.7419 -5.2648 178.3760 -14.6800 -169.7310 0.0000 0.0000 0.0000 -23.9023 -2.0852 -18.1462 2.1861 9.2435 26.5599 0.0136 7.2906 -10.7002 1.0269 -6.4460 -18.0842 0.0000 0.0000 0.0000 21.2127 8.4290 -15.8088 -2.7479 -10.2754 29.8731 -0.6129 3.3541 -14.0272 -0.4062 -4.0915 11.3343 -3.1257 -1.3801 2.6539 1.4775 -1.9311 -1.2780 3.3686 -0.8983 -2.6497 -14.7250 -1.5158 -22.1194 2.3626 0.9897 32.8763 3.5234 -1.7590 15.1987 -0.0000 0.0000 0.0000 -82.6938 2.1787 53.2979 105.2520 -59.1025 -73.1688 -0.0000 -0.0000 37.7753 54.5169 19.3657 24.9465 -7.1250 0.0000 -0.0000 31.3880 58.2934 10.8967 -0.0000 0.0000 0.0000 79.2964 8.6526 59.0030 -100.8364 59.5516 -69.3705 0.0000 0.0000 59.0991 49.4850 -14.3500 -16.1740 7.1250 -0.0000 -0.0000 51.8549 -33.4095 25.4593
2.2843 33.7497 -5.2780 178.6500 -16.0415 -169.9560 0.0000 0.0000 0.0000 -23.3175 -2.5830 -17.8613 2.2063 9.2832 26.6853 0.0850 6.2913 -10.9289 0.8347 -5.8284 -16.2873 0.0000 0.0000 0.0000 21.8518 7.5874 -15.4323 -2.6462 -10.0990 29.2979 -0.6173 3.1868 -14.0984 -0.5472 -4.7391 13.1659 -2.7681 -1.6524 2.4376 1.8865 -2.2728 -1.2046 3.5954 -1.0804 -2.4218 -14.8091 -1.5180 -21.8153 2.0096 0.9971 33.1714 3.3832 -1.8681 15.2795 0.0000 0.0000 0.0000 -82.6988 -1.8482 54.8136 102.8296 -59.3688 -71.0872 -0.0000 -0.0000 41.4051 51.9347 20.7012 24.2939 -7.1250 0.0000 -0.0000 28.3372 59.1688 10.3225 0.0000 0.0000 0.0000 79.3070 8.4533 58.6529 -100.5371 59.5763 -69.1124 0.0000 0.0000 59.4445 47.9005 -14.6056 -15.5933 7.1250 -0.0000 -0.0000 52.1986 -34.4996 22.9601
2.3134 33.7418 -5.2747 178.0180 -16.6885 -170.0090 0.0000 0.0000 0.0000 -23.8004 -2.8327 -17.2920 2.1600 9.1917 26.3968 0.0905 6.1065 -10.8242 0.7540 -5.5458 -15.4721 0.0000 0.0000 0.0000 21.3995 7.3668 -15.2271 -2.6703 -10.1413 29.4354 -0.6789 2.8699 -14.8547 -0.5406 -4.7106 13.0850 -3.1896 -1.7103 2.5609 1.8331 -2.3661 -1.1579 3.7845 -1.1199 -2.4214 -14.5441 -1.5119 -21.5697 1.6424 0.9073 33.4935 3.1624 -1.9724 15.3932 -0.0000 -0.0000 0.0000 -82.4254 -5.8249 56.4806 100.9408 -59.5428 -69.4604 -0.0000 -0.0000 39.4976 53.3359 25.0354 29.6174 -7.1250 0.0000 -0.0000 33.6108 64.9738 17.1215 -0.0000 -0.0000 0.0000 79.5113 8.3094 58.1495 -100.2156 59.6020 -68.8351 0.0000 0.0000 59.6770 46.2827 -14.7933 -14.9508 7.1250 -0.0000 -0.0000 52.3540 -35.4103 20.7373
2.3443 33.7337 -5.2909 177.9490 -17.5663 -169.9740 0.0000 0.0000 0.0000 -23.5845 -2.9564 -17.1934 2.1523 9.1763 26.3484 0.1658 4.7184 -10.8715 0.5818 -4.8840 -13.5780 0.0000 0.0000 0.0000 21.6092 6.8122 -15.2519 -2.6603 -10.1237 29.3783 -0.7264 2.7229 -15.4079 -0.5273 -4.6533 12.9222 -3.0785 -1.8698 2.0306 1.8859 -2.5621 -1.1363 3.7618 -1.2278 -2.0859 -14.3749 -1.4568 -21.1221 1.4321 0.8219 33.7743 3.0229 -2.0633 15.4358 -0.0000 0.0000 0.0000 -81.9218 -9.5230 58.4303 96.3057 -59.8492 -65.4581 -0.0000 -0.0000 37.4308 55.6841 32.1508 37.9413 -7.1250 0.0000 -0.0000 47.4029 73.5201 33.8742 -0.0000 0.0000 0.0000 79.8985 8.1916 57.7392 -99.7425 59.6383 -68.4270 0.0000 0.0000 59.9036 44.6889 -14.9405 -14.3072 7.1250 -0.0000 -0.0000 52.3506 -36.1723 18.7890
2.3585 33.7246 -5.3047 178.0420 -18.2300 -169.9720 0.0000 0.0000 0.0000 -23.3406 -2.9064 -17.3884 2.1754 9.2223 26.4931 0.1735 4.0612 -10.4298 0.8703 -5.9483 -16.6344 0.0000 0.0000 0.0000 21.9028 6.0921 -15.2931 -2.6183 -10.0500 29.1387 -0.7519 2.7323 -15.6838 -0.5423 -4.7181 13.1063 -2.8894 -2.1253 1.6233 2.0560 -2.8918 -1.2863 3.8271 -1.3971 -1.9833 -14.4205 -1.2340 -20.9936 1.2763 1.0869 34.3516 3.0080 -2.0658 15.6594 -0.0000 0.0000 0.0000 -81.9191 -12.3552 59.4937 90.3850 -59.9994 -60.3334 -0.0000 -0.0000 35.8347 45.9948 33.2373 29.5740 -7.1250 0.0000 -0.0000 23.6800 72.0884 15.5003 -0.0000 0.0000 0.0000 80.0257 8.0909 57.9108 -99.2756 59.6724 -68.0241 0.0000 0.0000 59.9033 43.2834 -15.0562 -13.7473 7.1250 -0.0000 -0.0000 52.2391 -36.7655 17.2272
2.3949 33.7178 -5.2820 177.7550 -17.9902 -170.3220 0.0000 0.0000 0.0000 -23.5625 -2.5692 -17.1816 2.1601 9.1919 26.3976 0.1577 4.1136 -10.1586 1.1765 -6.8843 -19.3730 0.0000 0.0000 0.0000 21.8009 6.6417 -14.8530 -2.6456 -10.0979 29.2944 -0.8049 2.2169 -16.3457 -0.5570 -4.7806 13.2837 -3.3539 -2.0252 2.2123 2.1501 -2.7829 -1.2599 4.2089 -1.3282 -2.2712 -14.3437 -1.0522 -20.5468 0.9705 1.2542 34.5610 2.8855 -2.0776 15.6469 0.0000 0.0000 0.0000 -82.0924 -15.2404 60.5360 84.1350 -59.8696 -54.9230 -0.0000 -0.0000 34.4149 34.3649 35.6304 21.7203 -7.1250 0.0000 -0.0000 1.5561 70.9415 0.9628 0.0000 0.0000 0.0000 79.8943 8.2309 57.9604 -98.9573 59.6946 -67.7493 0.0000 0.0000 59.7927 41.8052 -15.2237 -13.2150 7.1250 -0.0000 -0.0000 52.0647 -37.3757 15.6370
2.4008 33.7112 -5.2756 177.8550 -17.8606 -170.4830 0.0000 0.0000 0.0000 -23.4353 -2.4913 -17.0721 2.1615 9.1947 26.4063 0.1518 4.2306 -10.1435 1.2298 -7.0331 -19.8134 0.0000 0.0000 0.0000 21.9712 6.4928 -14.7657 -2.6433 -10.0940 29.2815 -0.8072 2.1690 -16.3797 -0.5663 -4.8196 13.3948 -3.0979 -2.0247 2.1202 2.0778 -2.7741 -1.3391 3.9876 -1.3263 -2.3169 -14.3813 -0.8345 -20.4543 1.0422 1.4518 35.0992 2.9556 -2.0659 15.8634 0.0000 -0.0000 0.0000 -81.8610 -16.9316 61.0842 79.0943 -59.5458 -50.5698 -0.0000 -0.0000 33.5073 28.0719 37.4940 17.9844 -7.1250 0.0000 -0.0000 -9.6613 70.7723 -5.9586 0.0000 -0.0000 0.0000 80.3181 8.1055 58.1570 -98.3176 59.7370 -67.1968 0.0000 0.0000 59.7450 40.0263 -15.3907 -12.5661 7.1250 -0.0000 -0.0000 51.7120 -38.0150 13.9351
2.4002 33.7079 -5.2632 177.8100 -17.4167 -170.4960 0.0000 0.0000 0.0000 -23.4728 -2.5516 -17.1027 2.1847 9.2406 26.5510 0.1510 4.4638 -10.3412 1.0668 -6.5664 -18.4370 0.0000 0.0000 0.0000 21.8968 6.4263 -14.8481 -2.6364 -10.0818 29.2420 -0.7873 2.1932 -16.1643 -0.5327 -4.6768 12.9889 -2.9647 -2.0082 2.1289 2.0767 -2.7496 -1.4088 3.9132 -1.3140 -2.4020 -14.4925 -0.5582 -20.3592 0.9848 1.8208 35.4849 3.0119 -2.0007 15.9942 0.0000 -0.0000 0.0000 -81.8852 -17.9500 60.8158 75.5649 -59.1978 -47.5325 -0.0000 -0.0000 33.1400 32.2391 38.0828 21.2565 -7.1250 0.0000 -0.0000 -4.0056 72.7593 -2.6396 0.0000 -0.0000 0.0000 80.4613 8.3871 58.5816 -97.5594 59.7830 -66.5418 0.0000 0.0000 59.5802 38.3907 -15.5059 -11.9595 7.1250 -0.0000 -0.0000 51.2580 -38.5201 12.5620
2.3880 33.7087 -5.2605 177.8130 -16.7679 -170.5130 0.0000 0.0000 0.0000 -23.5729 -2.3683 -17.0064 2.1656 9.2028 26.4319 0.1570 4.6277 -10.6152 1.0357 -6.4728 -18.1625 0.0000 0.0000 0.0000 21.8099 6.4490 -14.8915 -2.6558 -10.1159 29.3528 -0.7736 2.3933 -15.9781 -0.4301 -4.2087 11.6646 -2.8780 -1.9941 1.7255 2.0615 -2.7189 -1.2861 3.8266 -1.3094 -2.0558 -14.5115 -0.2410 -20.2144 0.9088 2.2365 35.6863 3.0527 -1.8840 16.0170 -0.0000 -0.0000 0.0000 -82.0367 -17.7504 59.5879 74.1435 -59.0283 -46.3127 -0.0000 -0.0000 33.8140 33.3640 34.4985 20.4531 -7.1250 0.0000 -0.0000 0.7517 69.4278 0.4396 -0.0000 -0.0000 0.0000 80.5494 8.8629 59.1343 -96.9592 59.8162 -66.0232 0.0000 0.0000 59.2987 36.7656 -15.6012 -11.3618 7.1250 -0.0000 -0.0000 50.7064 -38.9683 11.3380
2.3758 33.7094 -5.2496 177.7260 -16.0941 -170.5220 0.0000 0.0000 0.0000 -23.7743 -2.1751 -16.9185 2.1523 9.1763 26.3483 0.1756 4.6321 -10.9799 0.9369 -6.1655 -17.2653 0.0000 0.0000 0.0000 21.5925 6.7611 -14.8440 -2.6493 -10.1044 29.3156 -0.7544 2.4186 -15.7671 -0.4046 -4.0836 11.3120 -2.8694 -1.8788 1.6137 2.0034 -2.5609 -1.1522 3.7491 -1.2357 -1.8716 -14.4293 -0.0311 -20.1636 0.7781 2.5092 35.8762 3.0285 -1.8131 16.0751 0.0000 -0.0000 0.0000 -82.7132 -17.2392 57.8417 73.0488 -58.8859 -45.3747 -0.0000 -0.0000 35.2525 35.7893 31.6968 20.7466 -7.1250 0.0000 -0.0000 5.7727 67.1775 3.0859 0.0000 -0.0000 0.0000 80.6307 9.3880 59.2586 -96.2135 59.8536 -65.3784 0.0000 0.0000 58.9976 34.9505 -15.5753 -10.6287 7.1250 -0.0000 -0.0000 49.9080 -39.3239 10.2649
2.3550 33.7110 -5.2354 177.9290 -15.5718 -170.6120 0.0000 0.0000 0.0000 -23.6876 -2.0390 -16.9605 2.1587 9.1890 26.3884 0.1432 5.2645 -10.9654 0.9387 -6.1713 -17.2821 0.0000 0.0000 0.0000 21.7023 6.7960 -14.8174 -2.6362 -10.0814 29.2407 -0.7380 2.6487 -15.5471 -0.4679 -4.3872 12.1685 -2.6532 -1.7847 1.8125 1.9948 -2.4372 -1.3730 3.6290 -1.1680 -2.2305 -14.4818 0.2802 -19.8277 0.8222 2.7912 36.3154 3.0980 -1.7755 16.1804 0.0000 -0.0000 0.0000 -83.4516 -16.2939 56.3345 72.1205 -58.7570 -44.5805 -0.0000 -0.0000 36.7212 38.3311 28.9999 20.9722 -7.1250 0.0000 -0.0000 10.1722 64.9539 4.9331 0.0000 -0.0000 0.0000 80.9362 9.9294 59.7872 -94.5747 59.9208 -63.9607 0.0000 0.0000 58.5484 33.4440 -15.7576 -10.1688 7.1250 -0.0000 -0.0000 49.3167 -39.7632 9.1899
2.3338 33.7096 -5.2237 177.9190 -15.2275 -170.4560 0.0000 0.0000 0.0000 -23.7703 -2.0938 -17.1325 2.1646 9.2008 26.4255 0.1627 4.9691 -11.0496 1.0496 -6.5147 -18.2853 0.0000 0.0000 0.0000 21.5618 6.7514 -14.9757 -2.6319 -10.0738 29.2161 -0.7331 3.0755 -15.4258 -0.5991 -4.9548 13.7798 -2.4735 -1.5916 1.7131 1.8875 -2.1752 -1.4719 3.4076 -1.0383 -2.3081 -14.2418 0.3915 -19.4764 0.6911 2.7570 36.5977 2.9858 -1.8236 16.2460 -0.0000 -0.0000 0.0000 -84.5909 -16.3092 55.3637 70.1008 -58.4496 -42.8565 -0.0000 -0.0000 38.2335 39.7861 25.6088 19.7957 -7.1250 0.0000 -0.0000 12.4748 61.5046 5.0559 -0.0000 -0.0000 0.0000 81.4250 8.6698 58.6053 -95.9132 59.8675 -65.1187 0.0000 0.0000 59.2069 31.4108 -14.9228 -8.9369 7.1250 -0.0000 -0.0000 47.7379 -39.4482 9.1788
2.3184 33.7058 -5.2238 177.6270 -14.5471 -170.5180 0.0000 0.0000 0.0000 -24.1950 -1.8887 -17.0199 2.1490 9.1698 26.3281 0.1465 5.2818 -11.0471 1.0838 -6.6169 -18.5851 0.0000 0.0000 0.0000 21.1293 7.3566 -14.7835 -2.6564 -10.1169 29.3562 -0.8180 2.7780 -16.3753 -0.3997 -4.0590 11.2428 -2.9703 -1.3230 1.5201 1.6449 -1.8239 -1.3726 3.4177 -0.8589 -2.1171 -13.9850 0.4983 -19.2879 0.7100 2.7078 36.9194 2.9381 -1.8507 16.3658 0.0000 -0.0000 0.0000 -85.4650 -16.4389 54.5957 68.1789 -58.1221 -41.2215 -0.0000 -0.0000 39.6980 41.1610 23.1071 18.9368 -7.1250 0.0000 -0.0000 14.2207 58.9542 4.9121 0.0000 -0.0000 0.0000 81.6692 8.6325 58.3599 -95.7781 59.8735 -65.0018 0.0000 0.0000 58.9386 29.6617 -14.8941 -8.3279 7.1250 -0.0000 -0.0000 46.7631 -39.7196 8.3758
2.2931 33.7064 -5.2019 177.6380 -14.4279 -170.5490 0.0000 0.0000 0.0000 -24.3028 -1.7716 -17.1389 2.1752 9.2219 26.4920 0.1550 5.2665 -11.1945 1.0475 -6.5084 -18.2668 0.0000 0.0000 0.0000 21.0108 7.3141 -14.8458 -2.6595 -10.1223 29.3737 -0.7972 2.8860 -16.1405 -0.4224 -4.1713 11.5591 -2.8766 -1.2427 1.4328 1.5996 -1.7083 -1.1246 3.3078 -0.8104 -1.8258 -13.7467 0.5714 -18.8561 0.5281 2.6808 36.7982 2.8062 -1.8464 16.2081 -0.0000 0.0000 0.0000 -86.3170 -16.9439 53.9895 66.7536 -57.8563 -40.0129 -0.0000 -0.0000 40.9480 43.1198 21.4744 18.9225 -7.1250 0.0000 -0.0000 16.5432 57.5280 5.1694 -0.0000 0.0000 0.0000 81.3215 9.0029 58.1293 -96.1169 59.8581 -65.2949 0.0000 0.0000 58.4233 27.9542 -14.8900 -7.7653 7.1250 -0.0000 -0.0000 45.7705 -39.9872 7.6306
2.2695 33.6967 -5.1790 177.7980 -14.2895 -170.5240 0.0000 0.0000 0.0000 -24.3037 -1.5318 -17.4780 2.1986 9.2680 26.6375 0.1718 5.2107 -11.4542 0.9970 -6.3544 -17.8161 0.0000 0.0000 0.0000 21.0349 7.5946 -14.9989 -2.6849 -10.1666 29.5179 -0.8003 2.8416 -16.1800 -0.4366 -4.2400 11.7530 -2.8992 -1.2988 1.5101 1.5813 -1.7874 -1.2356 3.3080 -0.8457 -1.9772 -13.9038 0.8317 -18.8162 0.7364 2.9635 37.2017 2.9707 -1.7848 16.3636 -0.0000 0.0000 0.0000 -86.9636 -16.6051 53.2855 66.1924 -57.7461 -39.5380 -0.0000 -0.0000 42.2334 43.6839 20.6429 18.6087 -7.1250 0.0000 -0.0000 17.1194 56.6664 4.9970 -0.0000 0.0000 0.0000 81.1317 9.0218 58.5049 -96.5331 59.8381 -65.6547 0.0000 0.0000 57.8119 26.5258 -14.9217 -7.3240 7.1250 -0.0000 -0.0000 44.9224 -40.2285 7.0157
2.2388 33.6924 -5.1591 178.1570 -14.2898 -170.5880 0.0000 0.0000 0.0000 -24.0666 -1.5562 -17.6771 2.2503 9.3691 26.9568 0.1553 5.6567 -11.5942 0.7821 -5.6461 -15.7609 0.0000 0.0000 0.0000 21.2513 7.5605 -15.0849 -2.6818 -10.1612 29.5005 -0.7918 2.9737 -16.0697 -0.4529 -4.3173 11.9712 -2.5173 -1.0908 1.6845 1.5963 -1.5052 -1.2600 3.1053 -0.7075 -2.1312 -13.4353 0.8513 -18.2288 0.4904 2.7168 37.3044 2.7277 -1.8791 16.3070 -0.0000 -0.0000 0.0000 -87.5134 -16.7088 53.9918 65.9601 -57.6996 -39.3416 -0.0000 -0.0000 42.9135 42.2952 19.2009 16.6577 -7.1250 0.0000 -0.0000 15.2291 54.5403 3.6330 -0.0000 -0.0000 0.0000 80.7981 8.9099 57.8433 -97.3204 59.7965 -66.3353 0.0000 0.0000 57.3414 25.1720 -14.8140 -6.8519 7.1250 -0.0000 -0.0000 44.0090 -40.3373 6.6160
2.1989 33.6935 -5.1373 178.1640 -14.2062 -170.5190 0.0000 0.0000 0.0000 -24.2838 -1.5841 -17.8644 2.2774 9.4215 27.1229 0.1478 5.9037 -11.7120 0.8700 -5.9470 -16.6307 0.0000 0.0000 0.0000 21.0348 7.3184 -15.3312 -2.6841 -10.1653 29.5137 -0.7687 3.1617 -15.7968 -0.3879 -3.9995 11.0754 -2.6657 -1.2206 1.5510 1.5462 -1.6786 -1.2106 3.1380 -0.7948 -1.9903 -13.6784 1.0940 -18.4169 0.7301 3.0699 37.6482 2.9380 -1.7829 16.4820 0.0000 0.0000 0.0000 -87.9547 -16.8663 53.6426 65.6474 -57.6361 -39.0774 -0.0000 -0.0000 43.7444 42.1549 19.6359 16.9210 -7.1250 0.0000 -0.0000 15.1182 55.0374 3.7904 0.0000 0.0000 0.0000 80.2979 9.2697 58.3623 -97.6077 59.7802 -66.5836 0.0000 0.0000 56.3949 23.5716 -14.9380 -6.4169 7.1250 -0.0000 -0.0000 43.0389 -40.6612 5.9207
2.1675 33.6891 -5.1140 178.2570 -14.0507 -170.4800 0.0000 0.0000 0.0000 -24.3557 -1.6285 -17.8758 2.2706 9.4083 27.0810 0.1584 5.9825 -11.9871 0.6964 -5.3346 -14.8654 0.0000 0.0000 0.0000 20.9561 7.5571 -15.5032 -2.7152 -10.2191 29.6890 -0.7701 3.2598 -15.7976 -0.4261 -4.1895 11.6105 -2.7939 -1.0413 1.6036 1.4420 -1.4425 -1.1257 3.0957 -0.6763 -1.9494 -13.3039 1.1274 -18.0011 0.6672 2.8824 37.6851 2.8069 -1.8224 16.4187 -0.0000 0.0000 0.0000 -87.9782 -17.1328 54.3560 65.2793 -57.5600 -38.7666 -0.0000 -0.0000 44.1733 42.5998 19.0945 16.7416 -7.1250 0.0000 -0.0000 15.5720 54.4853 3.6967 -0.0000 0.0000 0.0000 80.1456 9.1483 57.7098 -98.9330 59.6963 -67.7283 0.0000 0.0000 56.0004 22.3651 -14.6613 -5.9455 7.1250 -0.0000 -0.0000 42.0786 -40.5980 5.7974
2.1271 33.6815 -5.0962 178.5000 -13.8982 -170.3220 0.0000 0.0000 0.0000 -24.3625 -1.3337 -18.3519 2.2830 9.4322 27.1569 0.1460 6.0882 -11.8743 0.8352 -5.8299 -16.2917 0.0000 0.0000 0.0000 20.9887 7.9153 -15.7920 -2.7448 -10.2701 29.8559 -0.7635 3.2239 -15.7325 -0.4453 -4.2814 11.8698 -2.7882 -0.9215 1.4330 1.4795 -1.2785 -1.1134 3.1228 -0.5965 -1.8524 -13.0689 1.2129 -17.7131 0.5636 2.8512 37.8221 2.7090 -1.8409 16.4254 0.0000 0.0000 0.0000 -88.2766 -17.5922 54.8669 64.9066 -57.4816 -38.4522 -0.0000 -0.0000 44.5312 42.8927 19.0556 16.8731 -7.1250 0.0000 -0.0000 15.9102 54.5106 3.7900 0.0000 0.0000 0.0000 79.3949 9.1501 57.4307 -99.4399 59.6606 -68.1659 0.0000 0.0000 55.0627 20.4889 -14.6403 -5.3952 7.1250 -0.0000 -0.0000 40.7791 -40.8244 5.2308
2.0838 33.6744 -5.0769 178.6710 -13.7397 -170.2850 0.0000 0.0000 0.0000 -24.4401 -1.1122 -18.6441 2.2915 9.4485 27.2085 0.1397 6.2040 -11.8832 1.0342 -6.4684 -18.1497 0.0000 0.0000 0.0000 20.9573 8.1708 -15.8946 -2.7693 -10.3119 29.9927 -0.7648 3.2315 -15.7447 -0.4508 -4.3074 11.9431 -2.9141 -0.8662 1.4561 1.4373 -1.2069 -1.0443 3.1477 -0.5606 -1.7981 -12.8698 1.3516 -17.4969 0.5822 2.8978 37.9347 2.6872 -1.8089 16.4230 0.0000 0.0000 0.0000 -88.2235 -18.0336 55.2348 65.0840 -57.5191 -38.6018 -0.0000 -0.0000 44.7324 41.8671 17.6181 15.1767 -7.1250 0.0000 -0.0000 14.5427 52.4907 2.7279 0.0000 0.0000 0.0000 78.9736 9.2589 57.4034 -100.6190 59.5696 -69.1830 0.0000 0.0000 54.3348 19.2768 -14.6295 -5.0480 7.1250 -0.0000 -0.0000 39.9199 -40.9679 4.8875
2.0376 33.6691 -5.0546 179.0720 -13.6615 -170.1850 0.0000 0.0000 0.0000 -24.1980 -1.0598 -19.0986 2.3500 9.5599 27.5629 0.1746 6.0388 -12.3309 1.0278 -6.4488 -18.0922 0.0000 0.0000 0.0000 21.1400 8.2026 -16.1116 -2.7493 -10.2777 29.8807 -0.7515 3.3556 -15.5861 -0.4114 -4.1171 11.4065 -2.8506 -0.8467 1.5526 1.4595 -1.1831 -1.1293 3.1372 -0.5461 -1.9423 -12.8368 1.5260 -17.3750 0.7329 3.0065 38.1926 2.7631 -1.7765 16.5070 0.0000 0.0000 0.0000 -88.1559 -18.2359 55.6097 64.8136 -57.4618 -38.3738 -0.0000 -0.0000 45.0444 42.1163 17.0356 14.8351 -7.1250 0.0000 -0.0000 14.7459 51.8268 2.5244 0.0000 0.0000 0.0000 78.5437 8.5289 57.2658 -103.4632 59.3039 -71.6322 0.0000 0.0000 53.9044 18.4154 -14.4078 -4.7359 7.1250 -0.0000 -0.0000 39.1891 -40.8908 4.8489
1.9888 33.6638 -5.0391 179.6590 -13.5212 -170.0580 0.0000 0.0000 0.0000 -23.7264 -1.2297 -19.5998 2.4561 9.7576 28.1953 0.2279 5.8984 -13.0804 0.8418 -5.8523 -16.3566 0.0000 0.0000 0.0000 21.5111 8.5193 -16.1247 -2.6777 -10.1541 29.4773 -0.7316 3.0163 -15.4178 -0.3547 -3.8262 10.5881 -2.6905 -0.6893 1.4668 1.5107 -0.9669 -1.0769 3.0915 -0.4425 -1.8580 -12.4380 1.5784 -17.0554 0.6757 2.8764 38.2121 2.6424 -1.7829 16.4520 0.0000 -0.0000 0.0000 -88.0534 -18.8855 56.3773 64.0206 -57.2894 -37.7059 -0.0000 -0.0000 45.2355 44.1749 16.6462 15.5533 -7.1250 0.0000 -0.0000 16.9711 51.8145 2.9176 0.0000 -0.0000 0.0000 78.0684 6.6824 56.6134 -107.7187 58.7799 -75.2819 0.0000 0.0000 53.9119 16.9992 -13.9623 -4.2187 7.1250 -0.0000 -0.0000 37.9387 -40.6904 4.8571
1.9404 33.6533 -5.0173 179.8650 -13.4718 -169.8180 0.0000 0.0000 0.0000 -23.7850 -0.9131 -20.3316 2.5144 9.8640 28.5374 0.2633 5.5214 -13.2914 0.8069 -5.7328 -16.0110 0.0000 0.0000 0.0000 21.4312 8.9224 -16.4488 -2.6707 -10.1418 29.4372 -0.7431 2.7648 -15.5832 -0.2171 -2.9995 8.2773 -3.0051 -0.7790 1.6389 1.6361 -1.0957 -1.0128 3.4043 -0.5024 -1.8717 -12.5844 1.7497 -17.1852 0.7540 3.1747 38.2831 2.7562 -1.6793 16.4879 0.0000 -0.0000 0.0000 -87.8674 -19.6310 58.0576 65.0384 -57.5095 -38.5634 -0.0000 -0.0000 44.8417 44.9580 22.6967 21.0711 -7.1250 0.0000 -0.0000 19.1767 59.5275 6.9594 0.0000 -0.0000 0.0000 76.9636 3.3470 57.1247 -112.8254 57.9368 -79.6304 0.0000 0.0000 54.2294 13.9535 -13.8739 -3.4096 7.1250 -0.0000 -0.0000 35.6346 -40.9654 4.1614
1.8910 33.6335 -5.0052 179.8260 -13.5133 -169.4200 0.0000 0.0000 0.0000 -24.0914 -0.5147 -21.2330 2.6187 10.0507 29.1410 0.3500 4.5630 -13.7956 0.3805 -3.9617 -10.9688 0.0000 0.0000 0.0000 21.1167 9.1004 -16.8284 -2.6907 -10.1767 29.5508 -0.7744 2.8128 -15.9109 -0.1975 -2.8620 7.8949 -3.5493 -0.7449 1.4707 1.6165 -1.0541 -0.8351 3.6849 -0.4825 -1.5891 -12.4629 1.7511 -17.0266 0.7636 3.1192 38.1402 2.7304 -1.6584 16.3785 -0.0000 0.0000 0.0000 -87.7696 -20.8787 59.2458 65.0765 -57.5176 -38.5955 -0.0000 -0.0000 44.6246 45.3226 22.2297 20.9372 -7.1250 0.0000 -0.0000 19.5646 59.0645 6.8885 -0.0000 0.0000 0.0000 75.0854 0.9563 58.4470 -115.8887 57.3095 -82.2177 0.0000 0.0000 53.6015 10.0282 -15.1899 -2.6528 7.1250 -0.0000 -0.0000 33.2166 -42.5237 2.3137
1.8476 33.5935 -4.9833 180.2380 -13.5483 -169.2230 0.0000 0.0000 0.0000 -24.0982 0.5216 -22.8095 2.7721 10.3167 30.0086 0.2496 5.2554 -12.8349 1.0017 -6.3690 -17.8588 0.0000 0.0000 0.0000 21.2833 9.5930 -17.0743 -2.7162 -10.2208 29.6948 -0.8282 4.0717 -16.3061 -0.3000 -3.5220 9.7357 -3.5877 -0.7343 1.4902 1.4958 -1.0372 -0.5180 3.5780 -0.4849 -1.2768 -12.2692 1.7629 -17.1225 1.0007 3.0728 37.9339 2.8027 -1.5686 16.2873 -0.0000 0.0000 0.0000 -87.2771 -21.9532 60.4009 65.3361 -57.5719 -38.8146 -0.0000 -0.0000 44.6845 47.6226 23.7026 23.7775 -7.1250 0.0000 -0.0000 23.2699 61.5463 9.6622 -0.0000 0.0000 0.0000 74.4127 -2.1121 58.8897 -117.2721 56.9941 -83.3800 0.0000 0.0000 53.7098 4.6462 -14.9801 -1.2034 7.1250 -0.0000 -0.0000 28.7645 -42.9387 1.6085
1.8029 33.5725 -4.9563 180.5540 -13.5708 -168.9380 0.0000 0.0000 0.0000 -24.0078 1.0793 -23.9509 2.9328 10.5854 30.8940 0.3831 3.4032 -13.4432 0.7063 -5.3715 -14.9713 0.0000 0.0000 0.0000 21.3481 9.7919 -17.5029 -2.7348 -10.2529 29.7997 -0.8904 4.9555 -16.8561 -0.2118 -2.9627 8.1749 -3.7069 -0.8631 1.7379 1.3994 -1.2192 -0.4530 3.5537 -0.5745 -1.3326 -12.0613 1.9985 -16.9122 1.1664 3.2732 37.7594 2.8724 -1.4087 16.1166 -0.0000 -0.0000 0.0000 -86.3720 -22.4138 61.0322 66.6183 -57.8300 -39.8983 -0.0000 -0.0000 44.5652 49.3014 24.5746 25.8050 -7.1250 0.0000 -0.0000 26.2532 63.1268 11.9724 -0.0000 -0.0000 0.0000 73.6537 -4.6511 59.5227 -116.1249 57.2571 -82.4164 0.0000 0.0000 53.3938 -1.2362 -14.2504 0.3043 7.1250 -0.0000 -0.0000 23.5460 -42.9117 1.2911
1.7590 33.5488 -4.9231 180.9870 -13.5471 -168.7260 0.0000 0.0000 0.0000 -23.7641 2.1565 -25.1414 3.0701 10.8076 31.6339 0.4713 1.4989 -13.5983 0.4291 -4.2037 -11.6505 0.0000 0.0000 0.0000 21.4353 10.2789 -18.0012 -2.8066 -10.3753 30.2007 -1.0498 6.1128 -18.2910 -0.0125 -0.7225 1.9855 -3.8548 -1.1086 1.7223 1.4942 -1.5459 -0.0844 3.7369 -0.7532 -0.9094 -12.2777 2.2326 -17.2801 1.3696 3.7725 37.5370 3.0938 -1.1634 16.0320 0.0000 0.0000 0.0000 -85.6069 -23.6980 61.5099 67.7282 -58.0402 -40.8390 -0.0000 -0.0000 44.2336 51.0917 27.4175 29.7047 -7.1250 0.0000 -0.0000 31.0674 67.0658 17.1773 0.0000 0.0000 0.0000 73.1769 -6.1766 59.8004 -113.0027 57.9031 -79.7806 0.0000 0.0000 53.3245 -7.0187 -12.6924 1.5495 7.1250 -0.0000 -0.0000 18.0745 -42.0373 1.3705
1.7265 33.5187 -4.8833 180.6990 -13.5645 -168.2880 0.0000 0.0000 0.0000 -24.3093 2.9764 -26.3767 3.1614 10.9518 32.1177 0.4805 0.2599 -13.1930 0.5062 -4.5606 -12.6594 0.0000 0.0000 0.0000 20.7726 10.3572 -18.9234 -3.0979 -10.8518 31.7818 -1.2249 9.8397 -19.9388 -0.0245 1.0101 -2.7765 -4.5530 -1.2721 1.6224 1.2411 -1.7709 0.2002 3.8656 -0.8781 -0.5266 -11.9715 2.4101 -17.2448 1.3258 3.9502 37.4544 3.0529 -1.0382 15.9683 0.0000 -0.0000 0.0000 -84.7814 -24.5448 61.9739 68.7218 -58.2181 -41.6828 -0.0000 -0.0000 44.2263 62.7849 34.1254 47.4892 -7.1250 0.0000 -0.0000 77.3092 75.5780 62.4041 0.0000 -0.0000 0.0000 73.8090 -7.1435 59.1549 -107.3147 58.8363 -74.9364 0.0000 0.0000 53.6450 -12.5041 -10.6087 2.3380 7.1250 -0.0000 -0.0000 12.7989 -40.5073 1.4447
1.7078 33.5038 -4.8228 180.8930 -13.7211 -168.0570 0.0000 0.0000 0.0000 -24.2905 3.5594 -27.5747 3.2951 11.1581 32.8149 0.4965 -0.7185 -13.0805 0.5181 -4.6132 -12.8084 0.0000 0.0000 0.0000 20.8419 10.3667 -19.9432 -3.6007 -11.6092 34.3631 -1.3449 11.7754 -21.1138 -0.4115 4.1177 -11.4080 -4.8371 -1.5480 1.8086 1.1861 -2.1523 0.4251 3.9753 -1.0790 -0.3528 -11.6844 2.7160 -17.8069 0.9170 4.4127 38.3053 2.9151 -0.9844 16.5294 0.0000 0.0000 0.0000 -83.5594 -25.4614 62.4047 69.8075 -58.4019 -42.6066 -0.0000 -0.0000 43.7849 55.2316 29.0458 34.9681 -7.1250 0.0000 -0.0000 41.7280 70.1382 26.5659 0.0000 0.0000 0.0000 74.5857 -6.6524 58.9568 -99.6313 59.6466 -68.3310 0.0000 0.0000 53.8045 -17.1849 -8.8969 2.7383 7.1250 -0.0000 -0.0000 8.4397 -39.1523 1.2262
1.6933 33.4877 -4.7439 180.7400 -14.2536 -168.2690 0.0000 0.0000 0.0000 -24.5691 3.4940 -27.8355 3.3556 11.2496 33.1262 0.4815 -0.9757 -12.8057 0.4831 -4.4571 -12.3663 0.0000 0.0000 0.0000 20.7276 9.7270 -21.1669 -4.5615 -12.8722 38.8921 -1.5798 11.3692 -22.7150 -0.4799 4.4427 -12.3255 -5.2510 -1.8052 2.6592 1.0320 -2.5528 0.7366 4.0792 -1.2867 -0.4556 -11.5078 2.9597 -18.1991 0.8382 4.7211 38.9094 2.9137 -0.9240 16.9277 -0.0000 -0.0000 0.0000 -82.3499 -26.7123 62.8805 70.7102 -58.5463 -43.3761 -0.0000 -0.0000 43.1072 55.8272 30.0127 36.3814 -7.1250 0.0000 -0.0000 44.5485 71.3331 29.6806 -0.0000 -0.0000 0.0000 75.4602 -5.0677 58.7754 -89.7510 59.9998 -59.7844 0.0000 0.0000 53.6419 -21.5558 -7.6578 3.0133 7.1250 -0.0000 -0.0000 4.5251 -38.1700 0.7629
