HIERARCHY
ROOT Hips
{
	OFFSET 0.00000 0.00000 0.00000
	CHANNELS 6 Xposition Yposition Zposition Zrotation Yrotation Xrotation 
	JOINT LHipJoint
	{
		OFFSET 0 0 0
		CHANNELS 3 Zrotation Yrotation Xrotation
		JOINT LeftUpLeg
		{
			OFFSET 1.57338 -1.94743 0.52196
			CHANNELS 3 Zrotation Yrotation Xrotation
			JOINT LeftLeg
			{
				OFFSET 2.60333 -7.15259 0.00000
				CHANNELS 3 Zrotation Yrotation Xrotation
				JOINT LeftFoot
				{
					OFFSET 2.77855 -7.63400 0.00000
					CHANNELS 3 Zrotation Yrotation Xrotation
					JOINT LeftToeBase
					{
						OFFSET 0.19847 -0.54529 2.28466
						CHANNELS 3 Zrotation Yrotation Xrotation
						End Site
						{
							OFFSET 0.00000 -0.00000 1.17993
						}
					}
				}
			}
		}
	}
	JOINT RHipJoint
	{
		OFFSET 0 0 0
		CHANNELS 3 Zrotation Yrotation Xrotation
		JOINT RightUpLeg
		{
			OFFSET -1.61527 -1.94743 0.52196
			CHANNELS 3 Zrotation Yrotation Xrotation
			JOINT RightLeg
			{
				OFFSET -2.53829 -6.97390 0.00000
				CHANNELS 3 Zrotation Yrotation Xrotation
				JOINT RightFoot
				{
					OFFSET -2.80762 -7.71387 0.00000
					CHANNELS 3 Zrotation Yrotation Xrotation
					JOINT RightToeBase
					{
						OFFSET -0.30536 -0.83898 2.28801
						CHANNELS 3 Zrotation Yrotation Xrotation
						End Site
						{
							OFFSET -0.00000 -0.00000 1.21323
						}
					}
				}
			}
		}
	}
	JOINT LowerBack
	{
		OFFSET 0 0 0
		CHANNELS 3 Zrotation Yrotation Xrotation
		JOINT Spine
		{
			OFFSET -0.04381 1.99497 -0.19778
			CHANNELS 3 Zrotation Yrotation Xrotation
			JOINT Spine1
			{
				OFFSET -0.01959 2.01295 -0.04372
				CHANNELS 3 Zrotation Yrotation Xrotation
				JOINT Neck
				{
					OFFSET 0 0 0
					CHANNELS 3 Zrotation Yrotation Xrotation
					JOINT Neck1
					{
						OFFSET -0.05459 1.76913 0.09708
						CHANNELS 3 Zrotation Yrotation Xrotation
						JOINT Head
						{
							OFFSET 0.09461 1.77368 -0.11172
							CHANNELS 3 Zrotation Yrotation Xrotation
							End Site
							{
								OFFSET 0.03812 1.78157 -0.04834
							}
						}
					}
				}
				JOINT LeftShoulder
				{
					OFFSET 0 0 0
					CHANNELS 3 Zrotation Yrotation Xrotation
					JOINT LeftArm
					{
						OFFSET 3.50922 1.24034 -0.28866
						CHANNELS 3 Zrotation Yrotation Xrotation
						JOINT LeftForeArm
						{
							OFFSET 5.40188 -0.00000 0.00000
							CHANNELS 3 Zrotation Yrotation Xrotation
							JOINT LeftHand
							{
								OFFSET 3.68559 -0.00000 0.00000
								CHANNELS 3 Zrotation Yrotation Xrotation
								JOINT LeftFingerBase
								{
									OFFSET 0 0 0
									CHANNELS 3 Zrotation Yrotation Xrotation
									JOINT LeftHandIndex1
									{
										OFFSET 0.61753 -0.00000 0.00000
										CHANNELS 3 Zrotation Yrotation Xrotation
										End Site
										{
											OFFSET 0.49787 -0.00000 0.00000
										}
									}
								}
								JOINT LThumb
								{
									OFFSET 0 0 0
									CHANNELS 3 Zrotation Yrotation Xrotation
									End Site
									{
										OFFSET 0.50547 -0.00000 0.50547
									}
								}
							}
						}
					}
				}
				JOINT RightShoulder
				{
					OFFSET 0 0 0
					CHANNELS 3 Zrotation Yrotation Xrotation
					JOINT RightArm
					{
						OFFSET -2.95373 1.39649 -0.27346
						CHANNELS 3 Zrotation Yrotation Xrotation
						JOINT RightForeArm
						{
							OFFSET -6.10670 -0.00000 -0.00000
							CHANNELS 3 Zrotation Yrotation Xrotation
							JOINT RightHand
							{
								OFFSET -3.63052 -0.00000 0.00000
								CHANNELS 3 Zrotation Yrotation Xrotation
								JOINT RightFingerBase
								{
									OFFSET 0 0 0
									CHANNELS 3 Zrotation Yrotation Xrotation
									JOINT RightHandIndex1
									{
										OFFSET -0.58385 -0.00000 0.00000
										CHANNELS 3 Zrotation Yrotation Xrotation
										End Site
										{
											OFFSET -0.47071 -0.00000 0.00000
										}
									}
								}
								JOINT RThumb
								{
									OFFSET 0 0 0
									CHANNELS 3 Zrotation Yrotation Xrotation
									End Site
									{
										OFFSET -0.47790 -0.00000 0.47790
									}
								}
							}
						}
					}
				}
			}
		}
	}
}
MOTION
Frames: 72
Frame Time: 0.0333333

7.6355 18.7436 8.0529 0 0 0 0 0 0 -21 0 0 0 0 0 0 0 0 0 0 0 0 0 0 21 0 0 0 0 0 0 0 0 0 0 0 0 0 0 0 0 0 0 0 0 0 0 -16 0 0 21 0 0 11 0 0 0 -8 0 0 0 0 0 0 0 0 0 0 0 0 0 0 0 0 0 0 0 0 8 0 0 0 0 0 0 0 0 0 0 0 0 0 0 0 0 0
0.6630 21.8647 2.9461 174.7090 -0.5261 -171.7730 0.0000 0.0000 0.0000 -33.9968 8.3228 -52.9974 11.1350 18.0005 63.2192 1.5549 -3.9078 -22.6334 0.0298 1.1153 3.0660 0.0000 0.0000 0.0000 8.1424 24.5580 -28.6939 -10.4153 -17.6369 60.8676 -0.1631 0.6013 7.8699 -0.0007 0.1728 -0.4749 -7.1583 0.5141 21.4111 -2.7620 -2.0420 3.5774 1.6782 -1.1729 -7.9478 -6.5032 -0.4150 -13.1726 4.7529 0.2764 17.9816 2.6987 0.2940 7.6978 0.0000 0.0000 0.0000 -71.7375 -51.9677 23.6458 112.3951 -58.0174 -79.2656 -0.0000 0.0000 -32.6775 25.3497 45.4181 18.6461 -7.1250 0.0000 -0.0000 -28.4133 76.9144 -21.5662 0.0000 0.0000 0.0000 70.6822 27.6218 27.4320 -89.2774 59.9980 -59.3742 0.0000 0.0000 4.3022 -43.8972 2.6741 -2.5705 7.1250 -0.0000 -0.0000 -13.0641 -26.2246 -6.0965
0.5136 22.1309 2.9387 174.7640 0.3934 -172.5520 0.0000 0.0000 0.0000 -33.8816 8.0172 -50.2629 10.2312 17.5378 60.2583 1.3193 -2.3907 -21.0609 0.0000 -0.0449 -0.1234 0.0000 0.0000 0.0000 7.2732 22.6835 -31.6820 -12.5558 -18.6158 67.7399 -0.0422 0.2587 3.9831 -0.0130 0.7367 -2.0245 -7.4091 -0.6491 22.3213 -2.7766 -1.9669 3.7366 1.6916 -0.3977 -8.1618 -6.5819 -0.3374 -13.0699 4.7039 0.4477 18.6290 2.7268 0.3776 7.8838 0.0000 0.0000 0.0000 -73.4837 -50.0124 24.1382 113.2750 -57.8507 -80.0113 -0.0000 0.0000 -31.4355 27.1170 45.2378 19.9817 -7.1250 0.0000 -0.0000 -25.4575 77.4770 -19.5548 0.0000 0.0000 0.0000 71.0114 28.0340 28.8640 -84.9216 59.9023 -55.6034 0.0000 0.0000 4.2248 -43.7083 2.9705 -2.8359 7.1250 -0.0000 -0.0000 -12.8699 -25.8385 -6.1208
0.3480 22.4080 2.9323 174.8870 1.5766 -172.3590 0.0000 0.0000 0.0000 -33.9671 7.4827 -48.5631 9.2731 16.9803 57.0297 1.0821 -1.1494 -19.3146 0.0063 -0.5108 -1.4035 0.0000 0.0000 0.0000 6.0496 20.9096 -35.8960 -14.6641 -19.3032 74.2229 -0.0029 -0.1336 -1.0744 -0.1065 2.1039 -5.7929 -7.1275 -0.6300 22.0720 -2.6631 -1.8634 3.7857 1.6266 -0.3726 -7.9918 -6.5418 -0.3521 -12.9624 4.3801 0.4888 18.7831 2.6186 0.3702 7.9159 -0.0000 0.0000 0.0000 -75.1975 -47.6390 24.8654 113.7312 -57.7613 -80.3973 -0.0000 0.0000 -29.8177 26.0841 43.2992 18.5588 -7.1250 0.0000 -0.0000 -21.9583 75.4573 -15.9071 -0.0000 0.0000 0.0000 71.0868 28.5466 29.5835 -80.5805 59.6621 -51.8517 0.0000 0.0000 4.3847 -43.4082 3.7971 -3.5845 7.1250 -0.0000 -0.0000 -12.4985 -24.7530 -6.2600
0.1835 22.6952 2.9218 174.7350 3.3274 -172.6160 0.0000 0.0000 0.0000 -34.4694 7.6929 -46.1858 8.2001 16.2645 53.2802 0.8638 -0.0393 -17.5574 0.0041 -0.4158 -1.1424 0.0000 0.0000 0.0000 4.6397 19.2723 -39.6385 -16.6129 -19.7227 80.0526 -0.0600 -1.0064 -5.1130 -0.0603 1.5848 -4.3595 -6.9635 -0.4193 22.9516 -2.9529 -1.6921 3.4862 1.1738 -0.2714 -8.8228 -6.1832 -0.3483 -12.5952 4.4706 0.4105 19.0453 2.5845 0.3760 7.9409 -0.0000 -0.0000 0.0000 -75.9347 -44.8748 25.2692 113.8032 -57.7470 -80.4582 -0.0000 0.0000 -28.1983 24.8137 40.7414 16.7914 -7.1250 0.0000 -0.0000 -18.7406 72.7373 -12.4556 -0.0000 -0.0000 0.0000 71.9563 28.4665 30.5518 -74.2173 59.0376 -46.3760 0.0000 0.0000 5.7824 -46.8946 7.3567 -7.7901 7.1250 -0.0000 -0.0000 -14.2207 -19.4396 -8.9552
0.0416 22.9465 2.9409 174.9900 6.1333 -173.1710 0.0000 0.0000 0.0000 -34.5306 8.8961 -44.2625 7.2375 15.5287 49.7671 0.7155 0.5875 -16.2053 0.0002 -0.1000 -0.2748 0.0000 0.0000 0.0000 3.7971 18.7783 -43.4656 -18.5874 -19.9521 85.8666 -0.1329 -1.7982 -7.7933 -0.1182 2.2168 -6.1052 -7.4568 0.3543 23.9381 -2.7936 -0.8262 3.6816 1.3680 0.1811 -9.1671 -6.2828 -0.3612 -13.1270 4.4070 0.4279 19.0697 2.5851 0.3626 8.0442 -0.0000 -0.0000 0.0000 -76.7658 -43.3117 25.1688 113.6292 -57.7814 -80.3111 -0.0000 0.0000 -25.9718 22.6257 39.1098 14.7304 -7.1250 0.0000 -0.0000 -19.0989 70.5127 -11.7736 -0.0000 -0.0000 0.0000 71.8797 29.1306 31.1853 -71.9323 58.7299 -44.4197 0.0000 0.0000 4.9201 -44.1899 5.2353 -5.0690 7.1250 -0.0000 -0.0000 -12.7888 -22.7411 -7.0222
-0.0827 23.1898 2.9855 175.3480 8.8243 -173.6850 0.0000 0.0000 0.0000 -34.4135 9.9792 -42.7184 6.3906 14.7965 46.5300 0.5217 1.9615 -14.4966 0.0897 -1.9312 -5.3156 0.0000 0.0000 0.0000 3.1909 18.6412 -47.9022 -20.5527 -19.9927 91.6161 -0.1934 -2.5143 -9.6280 -0.1329 2.3502 -6.4744 -7.6884 1.1660 25.4913 -2.9479 0.0258 3.5843 1.0286 0.6315 -10.1558 -5.5413 -0.5216 -13.1032 4.1342 0.0808 18.8741 2.3289 0.2178 7.9950 -0.0000 0.0000 0.0000 -77.0715 -41.3834 25.7370 114.3912 -57.6282 -80.9552 -0.0000 0.0000 -24.3365 23.1489 37.2527 14.5102 -7.1250 0.0000 -0.0000 -15.9948 68.9567 -9.2712 -0.0000 0.0000 0.0000 72.2904 29.4331 31.6064 -69.8142 58.4030 -42.6124 0.0000 0.0000 3.6547 -42.7067 4.6392 -4.2693 7.1250 -0.0000 -0.0000 -11.8404 -23.6960 -6.2123
-0.2213 23.4029 3.0613 174.1360 9.9875 -174.0860 0.0000 0.0000 0.0000 -35.7357 9.3173 -40.3803 5.4700 13.8943 42.8155 0.2987 3.3109 -12.0847 0.0490 -1.4284 -3.9284 0.0000 0.0000 0.0000 0.6680 16.5868 -53.5577 -22.4124 -19.8599 97.0692 -0.4142 -0.6241 -12.3998 -0.1845 2.7662 -7.6286 -8.7061 1.1693 27.1144 -3.4200 -0.3713 3.6465 1.1743 0.5471 -10.8853 -5.5409 -0.5308 -13.7646 4.5356 -0.0266 18.7165 2.4514 0.1949 8.0653 0.0000 0.0000 0.0000 -76.6902 -39.9331 24.8592 116.8531 -57.0918 -83.0284 -0.0000 0.0000 -23.4214 23.2380 37.3925 14.6147 -7.1250 0.0000 -0.0000 -16.0488 69.1165 -9.3605 0.0000 0.0000 0.0000 72.6845 30.8697 33.1258 -65.3267 57.5699 -38.8066 0.0000 0.0000 5.6784 -46.0950 3.5513 -3.6822 7.1250 -0.0000 -0.0000 -14.4886 -24.8487 -7.2830
-0.3277 23.6088 3.1427 174.7230 11.4808 -173.8360 0.0000 0.0000 0.0000 -35.2163 9.3846 -39.5709 4.8293 13.1890 40.0801 0.1217 4.5438 -9.8036 0.0802 -1.8268 -5.0272 0.0000 0.0000 0.0000 0.6113 16.1079 -59.6957 -23.9831 -19.6153 101.7178 -0.7370 -0.3784 -16.3645 -0.5641 4.8104 -13.3686 -8.4925 1.1981 28.2013 -3.4125 -0.3712 3.6871 1.0419 0.5634 -11.4048 -5.2872 -0.3420 -14.0255 4.3805 0.1655 18.0027 2.3643 0.2695 7.8640 0.0000 0.0000 0.0000 -76.2935 -38.8531 23.5537 118.8715 -56.6032 -84.7183 -0.0000 0.0000 -22.5686 22.5841 36.2257 13.8097 -7.1250 0.0000 -0.0000 -15.5350 67.8095 -8.5985 0.0000 0.0000 0.0000 73.3008 32.0401 34.0497 -63.8861 57.2596 -37.5928 0.0000 0.0000 5.6370 -44.9515 3.9912 -3.9748 7.1250 -0.0000 -0.0000 -13.5758 -24.3504 -6.9594
-0.4389 23.8304 3.1481 174.2570 12.5800 -174.5280 0.0000 0.0000 0.0000 -36.1834 10.9650 -37.6307 4.0574 12.2364 36.5733 0.0174 4.7010 -7.2915 0.1261 -2.2894 -6.3062 0.0000 0.0000 0.0000 0.0196 14.6185 -64.2859 -25.4647 -19.2684 106.1673 -1.2343 -0.5108 -21.1955 -1.0104 6.3957 -17.9368 -9.0136 1.2301 29.6177 -3.5704 -0.5747 3.4992 1.1406 0.5499 -11.4862 -4.8655 -0.2761 -14.3928 3.8121 0.2732 18.0389 2.1184 0.2888 7.9386 -0.0000 0.0000 0.0000 -76.4567 -37.7991 22.4406 120.6903 -56.1232 -86.2327 -0.0000 0.0000 -21.9274 22.6035 35.8425 13.7007 -7.1250 0.0000 -0.0000 -15.1000 67.4500 -8.2303 -0.0000 0.0000 0.0000 73.6822 32.9405 35.0727 -63.0374 57.0664 -36.8796 0.0000 0.0000 4.8550 -43.0267 3.8232 -3.5613 7.1250 -0.0000 -0.0000 -12.2166 -24.7506 -6.1131
-0.5243 23.9768 3.2135 174.2820 13.1677 -174.7540 0.0000 0.0000 0.0000 -36.1634 10.9925 -36.2367 3.5247 11.4995 33.9837 -0.0724 5.7355 -5.4905 0.1564 -2.5478 -7.0223 0.0000 0.0000 0.0000 0.1577 13.5605 -69.6634 -26.7046 -18.8862 109.9594 -1.7078 -1.1496 -25.1463 -0.6795 5.2707 -14.6823 -9.2685 1.3056 30.8041 -3.3362 -0.5907 3.6929 1.5062 0.5907 -11.7592 -5.0663 -0.3282 -14.4375 3.7272 0.2362 17.5631 2.1109 0.2389 7.7908 0.0000 -0.0000 0.0000 -77.4810 -36.9671 22.0345 122.0937 -55.7257 -87.3951 -0.0000 0.0000 -20.6398 22.8527 34.2798 13.3533 -7.1250 0.0000 -0.0000 -13.2617 66.0159 -6.7783 0.0000 -0.0000 0.0000 72.7890 33.6256 35.1585 -63.2042 57.1050 -37.0197 0.0000 0.0000 3.8212 -41.8199 5.2350 -4.6670 7.1250 -0.0000 -0.0000 -11.1013 -23.0006 -5.9906
-0.5839 24.0907 3.2387 174.5170 13.1886 -174.6350 0.0000 0.0000 0.0000 -35.8613 10.5618 -35.3364 3.1901 10.9967 32.2686 -0.1207 6.3065 -3.8009 0.2297 -3.0847 -8.5146 0.0000 0.0000 0.0000 0.5668 12.6803 -74.3586 -27.4815 -18.6013 112.3769 -2.0397 -0.6863 -27.2817 -0.5561 4.7769 -13.2732 -9.1702 1.1325 31.0603 -3.0744 -0.7382 3.8987 1.7878 0.5225 -11.6211 -5.2205 -0.4585 -14.3307 3.6555 0.0894 17.3166 2.0922 0.1472 7.6979 -0.0000 -0.0000 0.0000 -77.9121 -36.8642 21.6955 121.7475 -55.8260 -87.1089 -0.0000 0.0000 -18.6381 23.8658 32.6031 13.4082 -7.1250 0.0000 -0.0000 -10.6241 64.6505 -5.0798 -0.0000 -0.0000 0.0000 72.3046 34.3638 35.3408 -62.8701 57.0275 -36.7392 0.0000 0.0000 2.6431 -40.5566 7.1090 -6.0457 7.1250 -0.0000 -0.0000 -9.8976 -20.7182 -5.8425
-0.6189 24.2050 3.2409 174.5110 13.2983 -175.1860 0.0000 0.0000 0.0000 -35.5047 10.2793 -33.6446 2.9066 10.5422 30.7511 -0.1622 7.1232 -2.7340 0.1731 -2.6802 -7.3898 0.0000 0.0000 0.0000 0.8752 12.6471 -77.0634 -27.5965 -18.5561 112.7378 -2.1256 2.1923 -26.9999 -0.6571 5.1848 -14.4364 -9.4362 1.2069 31.7946 -2.9541 -0.6872 4.2038 2.0200 0.5866 -11.5687 -5.7930 -0.7585 -14.5220 4.5203 -0.3584 17.3553 2.4282 -0.0207 7.7671 0.0000 -0.0000 0.0000 -78.0359 -36.8298 21.5342 121.1746 -55.9887 -86.6344 -0.0000 0.0000 -17.5873 23.7388 31.1899 12.8303 -7.1250 0.0000 -0.0000 -9.7533 63.2013 -4.3295 0.0000 -0.0000 0.0000 71.6273 34.7450 35.1844 -63.5253 57.1784 -37.2895 0.0000 0.0000 0.3593 -38.8104 7.2849 -5.8235 7.1250 -0.0000 -0.0000 -8.6405 -20.7098 -5.0838
-0.6317 24.2782 3.2334 174.4000 13.4263 -175.5970 0.0000 0.0000 0.0000 -35.0123 9.1367 -32.1222 2.7341 10.2517 29.7958 -0.2214 8.3510 -2.1764 0.2085 -2.9396 -8.1107 0.0000 0.0000 0.0000 1.1947 13.1388 -78.9128 -27.1828 -18.7152 111.4432 -1.9112 6.7335 -24.8613 -0.9344 6.1573 -17.2414 -9.8337 1.2789 32.2033 -2.8726 -0.6702 4.4739 2.2977 0.6288 -11.4093 -5.8918 -0.7356 -14.5507 4.7492 -0.3611 17.0197 2.5147 -0.0114 7.6614 -0.0000 -0.0000 0.0000 -77.7169 -37.0119 21.1095 120.4566 -56.1870 -86.0385 -0.0000 0.0000 -17.1863 23.9990 30.7491 12.8235 -7.1250 0.0000 -0.0000 -9.1520 62.8253 -3.9795 -0.0000 -0.0000 0.0000 71.2263 35.2473 34.4359 -64.3922 57.3711 -38.0188 0.0000 -0.0000 -1.1632 -34.5759 7.4744 -5.1233 7.1250 -0.0000 -0.0000 -5.6053 -20.9452 -3.2465
-0.6266 24.3366 3.1987 174.4510 13.4335 -176.0190 0.0000 0.0000 0.0000 -34.2169 7.7422 -30.4929 2.6363 10.0817 29.2417 -0.2581 9.1046 -1.6384 0.1775 -2.7136 -7.4825 0.0000 0.0000 0.0000 1.9351 13.9294 -79.3584 -26.4060 -18.9863 109.0393 -1.4776 11.5240 -22.0233 -0.8188 5.7739 -16.1298 -9.9121 1.1995 32.5828 -3.0198 -0.7554 4.7316 2.2018 0.6150 -11.2567 -5.5940 -0.6277 -14.6965 5.0238 -0.3382 16.6906 2.5541 0.0413 7.5761 0.0000 0.0000 0.0000 -76.8041 -36.9155 20.5577 120.8382 -56.0824 -86.3554 -0.0000 0.0000 -18.0621 23.4804 29.6703 12.1358 -7.1250 0.0000 -0.0000 -9.0804 61.5993 -3.6854 0.0000 0.0000 0.0000 71.3163 35.4329 33.4603 -65.4135 57.5879 -38.8799 0.0000 0.0000 0.0017 -29.5170 10.2891 -5.7745 7.1250 -0.0000 -0.0000 -1.7479 -18.1995 -1.1150
-0.6080 24.3734 3.1574 173.9580 13.6334 -176.6050 0.0000 0.0000 0.0000 -34.3039 7.2879 -29.1231 2.5104 9.8568 28.5143 -0.2825 9.6132 -1.2547 0.1613 -2.5877 -7.1328 0.0000 0.0000 0.0000 2.3788 14.6865 -79.2546 -25.6891 -19.2056 106.8483 -1.2025 9.8899 -19.7698 -0.5763 4.8613 -13.5134 -10.6418 1.2419 32.9502 -3.3201 -0.9079 4.9621 2.3019 0.6021 -11.0893 -5.0669 -0.5033 -15.0250 4.6830 -0.2275 16.3818 2.3615 0.0895 7.5254 0.0000 0.0000 0.0000 -76.1530 -36.4739 19.8743 122.2166 -55.6898 -87.4966 -0.0000 0.0000 -19.0129 23.2891 29.3346 11.9079 -7.1250 0.0000 -0.0000 -9.0997 61.2107 -3.6096 0.0000 0.0000 0.0000 71.1284 35.6907 32.2728 -67.5674 58.0105 -40.7025 0.0000 0.0000 1.6846 -21.5718 10.5743 -4.1497 7.1250 -0.0000 -0.0000 3.8732 -18.6436 2.4373
-0.5579 24.4044 3.0895 173.7510 13.9741 -176.7530 0.0000 0.0000 0.0000 -34.4676 7.7568 -28.4947 2.3725 9.6024 27.6984 -0.3132 10.1152 -1.3190 0.1139 -2.1756 -5.9913 0.0000 0.0000 0.0000 2.8323 16.0486 -78.5421 -25.0475 -19.3779 104.9063 -1.0693 5.5670 -18.4824 -0.3724 3.9195 -10.8504 -11.2106 1.4089 32.6115 -3.5710 -0.7829 5.1956 2.2823 0.6779 -10.6718 -5.0406 -0.5133 -15.2593 4.9258 -0.2940 16.0784 2.4268 0.0790 7.4702 0.0000 0.0000 0.0000 -76.2217 -36.6055 19.5416 123.3121 -55.3607 -88.3998 -0.0000 0.0000 -20.0628 22.6354 29.3745 11.5597 -7.1250 0.0000 -0.0000 -9.8693 61.0885 -3.8895 0.0000 0.0000 0.0000 70.3700 35.6116 30.5325 -70.9652 58.5857 -43.5937 0.0000 0.0000 3.1155 -14.5364 9.4814 -2.4458 7.1250 -0.0000 -0.0000 8.8715 -20.2458 5.3168
-0.5047 24.4260 3.0313 173.4270 12.5841 -176.1710 0.0000 0.0000 0.0000 -34.7175 6.8132 -28.3304 2.3241 9.5108 27.4067 -0.2888 9.8656 -0.6937 0.1217 -2.2490 -6.1942 0.0000 0.0000 0.0000 2.5087 15.7763 -78.0891 -24.5011 -19.5072 103.2651 -0.8658 4.4082 -16.6533 -0.0617 1.6031 -4.4099 -10.8489 0.8674 32.3795 -3.9036 -1.3704 5.0925 1.9644 0.4006 -10.6647 -4.9526 -0.5899 -15.0862 5.2171 -0.4829 15.4150 2.4771 0.0132 7.2336 0.0000 -0.0000 0.0000 -77.2689 -36.3027 20.0782 124.6187 -54.9480 -89.4721 -0.0000 0.0000 -19.4965 23.0402 29.3719 11.7830 -7.1250 0.0000 -0.0000 -9.4065 61.1864 -3.7270 0.0000 -0.0000 0.0000 69.0768 35.9845 28.0357 -74.2411 59.0405 -46.3964 0.0000 0.0000 1.6933 -2.1673 10.3240 -0.3886 7.1250 -0.0000 -0.0000 17.4779 -19.8540 11.0223
-0.4367 24.4388 2.9631 173.3370 11.0504 -175.6970 0.0000 0.0000 0.0000 -34.6216 6.4063 -28.2852 2.3348 9.5312 27.4716 -0.2020 8.6979 0.6064 0.1592 -2.5707 -7.0858 0.0000 0.0000 0.0000 2.2301 15.9653 -76.6696 -23.8881 -19.6336 101.4350 -0.5963 4.5757 -13.7516 -0.0247 1.0144 -2.7883 -10.6443 0.3775 32.2803 -3.6549 -1.8891 5.1470 2.3209 0.1462 -10.5189 -5.4332 -0.6728 -15.4254 5.0858 -0.4654 14.9657 2.5093 -0.0263 7.1461 -0.0000 -0.0000 0.0000 -79.0863 -36.1376 20.4096 125.6692 -54.5995 -90.3303 -0.0000 0.0000 -18.4646 21.7347 29.3637 11.0606 -7.1250 0.0000 -0.0000 -10.8817 60.8553 -4.2333 -0.0000 -0.0000 0.0000 66.5325 37.0723 25.6373 -78.7174 59.5135 -50.2450 0.0000 -0.0000 -2.7130 6.1113 10.5535 1.1234 7.1250 -0.0000 -0.0000 22.9835 -19.6715 15.1636
-0.3490 24.4099 2.9038 173.0300 9.7084 -175.1760 0.0000 0.0000 0.0000 -34.5970 5.7312 -28.8143 2.4738 9.7902 28.3000 -0.1561 7.9542 1.1469 0.1237 -2.2672 -6.2447 0.0000 0.0000 0.0000 1.5696 16.8930 -75.3216 -23.6443 -19.6786 100.7103 -0.9707 4.8413 -17.6291 -0.0454 1.3749 -3.7811 -10.5393 0.0954 32.2867 -3.6198 -2.2404 5.0225 2.4351 -0.0145 -10.6338 -5.7326 -0.7250 -15.0534 5.3208 -0.5240 14.4489 2.6204 -0.0564 6.9187 0.0000 0.0000 0.0000 -79.7149 -35.8815 20.7918 125.9383 -54.5078 -90.5495 -0.0000 0.0000 -17.7442 21.4605 29.4141 10.9274 -7.1250 0.0000 -0.0000 -11.2212 60.8386 -4.3629 0.0000 0.0000 0.0000 64.2744 38.5021 22.9718 -84.6598 59.8920 -55.3769 0.0000 -0.0000 -10.1285 3.7215 9.7555 0.6314 7.1250 -0.0000 -0.0000 21.5282 -20.4319 13.6409
-0.2726 24.4424 2.8378 172.9540 8.2380 -174.5780 0.0000 0.0000 0.0000 -34.3037 4.8446 -28.9731 2.5586 9.9436 28.7943 -0.1166 7.3947 1.8436 0.1296 -2.3203 -6.3918 0.0000 0.0000 0.0000 1.3845 17.3917 -73.9408 -23.4369 -19.7144 100.0950 -1.2023 6.0050 -19.6074 -0.0246 1.0135 -2.7858 -9.8462 -0.3827 32.1595 -3.6224 -2.6173 5.0031 2.2148 -0.2144 -10.6206 -5.7804 -0.8197 -15.1260 5.2859 -0.6368 14.1116 2.6008 -0.1198 6.8291 0.0000 0.0000 0.0000 -79.8465 -35.1590 21.1343 126.9326 -54.1601 -91.3573 -0.0000 0.0000 -17.4992 21.1938 29.6636 10.8630 -7.1250 0.0000 -0.0000 -11.6785 61.0220 -4.5943 0.0000 0.0000 0.0000 62.6950 41.4997 19.3874 -90.9661 59.9965 -60.8367 0.0000 -0.0000 -15.2724 -3.4409 9.1985 -0.5507 7.1250 -0.0000 -0.0000 16.7164 -20.9079 10.0804
-0.1888 24.4897 2.7897 173.0460 7.2332 -174.2300 0.0000 0.0000 0.0000 -33.6119 3.6704 -28.8393 2.6311 10.0726 29.2120 -0.1250 7.7951 2.1123 0.0828 -1.8564 -5.1089 0.0000 0.0000 0.0000 1.3545 18.5773 -72.3895 -23.0695 -19.7726 99.0075 -1.5647 6.2159 -22.4462 -0.0818 1.8445 -5.0760 -9.3812 -0.6323 32.3818 -3.5530 -2.7939 4.9945 2.1130 -0.3013 -10.7374 -5.0750 -0.5942 -15.6064 4.8245 -0.3961 14.0321 2.3593 -0.0051 6.8696 -0.0000 0.0000 0.0000 -79.5003 -34.4195 21.2089 127.3424 -54.0127 -91.6892 -0.0000 0.0000 -17.7200 21.0858 28.9686 10.5781 -7.1250 0.0000 -0.0000 -11.3658 60.3024 -4.2747 -0.0000 0.0000 0.0000 61.1580 46.4429 15.2348 -96.9286 59.8178 -65.9967 0.0000 -0.0000 -21.7982 -7.9334 4.9133 -0.6838 7.1250 -0.0000 -0.0000 13.9522 -25.0001 6.9463
-0.0817 24.5419 2.7373 173.5110 7.0907 -173.8450 0.0000 0.0000 0.0000 -32.5514 3.0402 -28.8044 2.6386 10.0857 29.2546 -0.1298 8.2265 2.5407 0.1348 -2.3660 -6.5183 0.0000 0.0000 0.0000 1.5706 20.8012 -71.0934 -22.6561 -19.8300 97.7870 -1.7400 6.4838 -23.6962 -0.0719 1.7295 -4.7586 -9.1731 -0.5027 32.2883 -3.4240 -2.5374 5.0262 2.0489 -0.1986 -10.6954 -4.8509 -0.6532 -15.5225 4.9645 -0.5512 13.5402 2.3458 -0.0588 6.7046 0.0000 -0.0000 0.0000 -79.0460 -34.1218 21.0761 127.4422 -53.9764 -91.7699 -0.0000 0.0000 -17.8743 20.5456 28.5412 10.1525 -7.1250 0.0000 -0.0000 -11.7060 59.7470 -4.2493 0.0000 -0.0000 0.0000 59.5257 51.7404 11.5347 -101.5871 59.4866 -70.0174 0.0000 -0.0000 -28.2372 -11.7376 3.9939 -0.8291 7.1250 -0.0000 -0.0000 11.2223 -25.8754 5.2959
0.0295 24.5798 2.6662 174.1590 7.4518 -173.2760 0.0000 0.0000 0.0000 -31.3609 2.7481 -29.2597 2.6857 10.1680 29.5225 -0.1587 8.6999 2.2651 0.1854 -2.7735 -7.6489 0.0000 0.0000 0.0000 2.0347 23.0110 -70.3088 -22.4393 -19.8567 97.1485 -1.8529 6.9041 -24.4540 -0.0586 1.5626 -4.2984 -9.0666 -0.2290 31.6723 -3.3198 -2.1420 4.9418 1.9660 -0.0546 -10.5776 -5.0943 -0.8364 -14.9344 5.7674 -0.8821 13.1178 2.6068 -0.1657 6.4908 0.0000 0.0000 0.0000 -78.7981 -33.2818 20.8772 128.0361 -53.7575 -92.2496 -0.0000 0.0000 -18.3354 20.5728 28.0943 10.0237 -7.1250 0.0000 -0.0000 -11.4146 59.3068 -4.0215 0.0000 0.0000 0.0000 57.8176 56.6268 8.8882 -104.7741 59.1590 -72.7586 0.0000 -0.0000 -33.7352 -14.8826 1.1353 -0.3017 7.1250 -0.0000 -0.0000 9.0781 -28.7552 3.6331
0.1551 24.6122 2.5768 173.9290 6.5845 -173.1450 0.0000 0.0000 0.0000 -31.0049 1.9281 -28.7768 2.7120 10.2136 29.6711 -0.1592 8.8389 2.4484 0.2695 -3.3397 -9.2259 0.0000 0.0000 0.0000 2.1934 22.9476 -69.4170 -22.3871 -19.8628 96.9947 -2.0072 7.0534 -25.4806 -0.0873 1.9054 -5.2442 -9.2068 -0.3977 31.6377 -3.5276 -2.4033 4.9180 1.9107 -0.1597 -10.5664 -5.1204 -1.0018 -14.8311 6.5066 -1.2019 12.6703 2.8142 -0.2599 6.3541 0.0000 0.0000 0.0000 -78.8091 -32.4129 20.7711 129.0708 -53.3635 -93.0820 -0.0000 0.0000 -18.9995 19.7786 27.5831 9.4534 -7.1250 0.0000 -0.0000 -11.9859 58.6144 -4.0269 0.0000 0.0000 0.0000 56.3654 60.5142 7.2187 -108.8818 58.6091 -76.2757 0.0000 -0.0000 -39.7550 -17.7820 -2.2098 0.7085 7.1250 -0.0000 -0.0000 7.0936 -32.2467 2.2294
0.2840 24.6431 2.4698 173.9080 5.5838 -172.9730 0.0000 0.0000 0.0000 -30.4064 0.9303 -27.9640 2.6531 10.1111 29.3373 -0.1676 9.2534 2.7697 0.3058 -3.5552 -9.8284 0.0000 0.0000 0.0000 2.6869 22.4539 -68.6516 -22.3576 -19.8662 96.9080 -2.1312 7.6672 -26.2512 -0.0934 1.9712 -5.4261 -9.1147 -0.6944 31.6084 -3.7340 -2.7230 5.0047 1.7551 -0.2986 -10.4461 -5.0816 -1.2339 -15.1812 6.8998 -1.5567 12.1428 2.8956 -0.3962 6.2712 -0.0000 -0.0000 0.0000 -78.6337 -31.6193 20.5878 129.8791 -53.0441 -93.7293 -0.0000 0.0000 -19.1577 20.5045 26.5883 9.5022 -7.1250 0.0000 -0.0000 -10.6692 57.7789 -3.3627 -0.0000 -0.0000 0.0000 55.6576 63.0631 6.3585 -112.3630 58.0234 -79.2384 0.0000 -0.0000 -34.8529 -22.4225 -8.2497 3.3884 7.1250 -0.0000 -0.0000 3.8471 -38.8668 0.5823
0.4226 24.6950 2.3595 173.6260 4.9404 -172.8110 0.0000 0.0000 0.0000 -30.1061 0.0800 -27.2018 2.5357 9.9025 28.6616 -0.1815 10.2986 3.7337 0.2640 -3.3054 -9.1302 0.0000 0.0000 0.0000 3.0391 22.1081 -67.9348 -22.2268 -19.8807 96.5231 -2.1782 7.8696 -26.5405 -0.0964 2.0023 -5.5121 -9.7097 -0.9282 32.4735 -3.4687 -3.4590 4.3692 2.6350 -0.5884 -11.3938 -7.1577 -0.9748 -13.9887 7.8226 -0.9177 10.7732 3.5728 -0.1410 5.6095 -0.0000 0.0000 0.0000 -78.7624 -28.7477 19.2272 131.7158 -52.2796 -95.1896 -0.0000 0.0000 -19.3569 18.6189 26.8380 8.6485 -7.1250 0.0000 -0.0000 -12.8099 57.6166 -4.0007 -0.0000 0.0000 0.0000 57.3857 63.1546 9.7927 -119.1942 56.5209 -84.9876 0.0000 -0.0000 -31.5428 -24.9694 -20.7643 9.3742 7.1250 -0.0000 -0.0000 3.7334 -52.6386 -0.7026
0.5635 24.8254 2.2377 173.4110 3.9430 -172.3300 0.0000 0.0000 0.0000 -29.3963 -1.7993 -26.1773 2.3369 9.5352 27.4842 -0.2704 13.1106 5.2106 0.0966 -2.0047 -5.5187 0.0000 0.0000 0.0000 3.4433 21.9320 -66.5805 -21.6934 -19.9311 94.9566 -2.3178 8.1352 -27.3971 -0.0674 1.6756 -4.6098 -9.4417 -0.9112 32.6944 -3.9730 -3.2486 4.7152 1.8633 -0.4630 -11.1591 -5.8060 -1.2473 -15.4930 7.2272 -1.3763 10.0350 3.1149 -0.3302 5.6527 0.0000 0.0000 0.0000 -76.9904 -27.6091 20.2339 132.3767 -51.9908 -95.7114 -0.0000 0.0000 -21.3795 19.6468 25.4334 8.7167 -7.1250 0.0000 -0.0000 -11.0026 56.4316 -3.1103 0.0000 0.0000 0.0000 57.2375 60.7066 8.9516 -124.3391 55.0382 -89.2431 0.0000 -0.0000 -27.9062 -24.4828 -22.2430 9.7800 7.1250 -0.0000 -0.0000 4.6731 -54.1174 -1.0490
0.7075 25.0510 2.0973 173.8060 2.7959 -171.3550 0.0000 0.0000 0.0000 -27.5498 -4.6171 -25.5357 2.1616 9.1949 26.4070 -0.7885 19.0497 4.8574 0.1364 2.3807 6.5591 0.0000 0.0000 0.0000 4.7165 22.2209 -64.1964 -20.5516 -19.9927 91.6128 -2.6165 7.7382 -29.2059 -0.0459 1.3834 -3.8043 -8.5602 -1.0732 32.7029 -3.9177 -3.0974 4.8946 1.4059 -0.4229 -11.0405 -5.5588 -1.5149 -15.8719 6.5402 -1.6606 9.3425 2.8216 -0.5115 5.5077 -0.0000 -0.0000 0.0000 -75.0614 -25.9079 21.1430 132.3041 -52.0229 -95.6542 -0.0000 0.0000 -21.5420 20.8056 24.3171 8.8929 -7.1250 0.0000 -0.0000 -9.2811 55.5384 -2.4156 -0.0000 -0.0000 0.0000 58.1216 57.3289 10.1126 -129.2082 53.3099 -93.1922 0.0000 -0.0000 -27.3946 -25.9998 -21.6926 10.2194 7.1250 -0.0000 -0.0000 2.9259 -53.8300 -0.6356
0.8476 25.3010 1.9381 174.1840 1.2660 -169.8580 0.0000 0.0000 0.0000 -25.0986 -7.9855 -25.6623 2.0321 8.9326 25.5848 -1.4462 24.2414 4.5355 0.6961 5.3332 14.8614 0.0000 0.0000 0.0000 6.0382 21.9978 -62.0965 -19.2817 -19.9876 87.8995 -2.9692 7.3833 -31.2363 -0.0049 0.4500 -1.2365 -7.3156 -1.4918 32.2592 -3.6705 -3.2317 4.7816 1.0755 -0.5627 -11.0677 -5.9036 -1.5438 -15.8441 6.5460 -1.6190 9.1017 2.8817 -0.5058 5.4274 0.0000 0.0000 0.0000 -73.4985 -24.3083 21.9212 130.3584 -52.8499 -94.1118 -0.0000 0.0000 -21.6793 21.5362 21.4701 8.2192 -7.1250 0.0000 -0.0000 -7.4393 52.7484 -1.4248 0.0000 0.0000 0.0000 59.9786 54.4291 12.1693 -133.1630 51.6373 -96.3295 0.0000 -0.0000 -25.0625 -27.2672 -20.5418 10.2514 7.1250 -0.0000 -0.0000 1.3116 -52.8335 -0.2528
0.9850 25.5010 1.7979 174.3090 -0.6244 -168.1780 0.0000 0.0000 0.0000 -22.9457 -10.0859 -27.2460 2.1600 9.1916 26.3966 -0.5412 22.7320 11.7555 0.2977 3.5084 9.6975 0.0000 0.0000 0.0000 6.6361 21.4830 -61.4740 -18.3989 -19.9384 85.3141 -3.0918 6.7403 -31.9733 -0.0037 0.3931 -1.0801 -5.0419 -0.2213 31.4045 -3.2326 -3.9149 4.5011 0.8551 -2.2598 -11.2515 -6.2908 -1.6015 -15.2992 6.8165 -1.6743 8.9804 3.0245 -0.5370 5.3096 0.0000 0.0000 0.0000 -72.8147 -22.4807 23.2159 127.9732 -53.7810 -92.1988 -0.0000 0.0000 -21.5140 22.2493 18.9716 7.5757 -7.1250 0.0000 -0.0000 -5.9661 50.2619 -0.7762 0.0000 0.0000 0.0000 61.9134 51.3402 14.0873 -136.3699 50.0794 -98.8172 0.0000 -0.0000 -23.6146 -27.7076 -19.8904 10.1306 7.1250 -0.0000 -0.0000 0.7113 -52.2066 -0.1262
1.1133 25.6843 1.6767 173.2470 -2.5223 -167.7910 0.0000 0.0000 0.0000 -22.6372 -10.9275 -27.7528 2.3986 9.6512 27.8544 0.5727 18.5875 17.7019 0.0054 0.4745 1.3037 0.0000 0.0000 0.0000 6.1999 20.3166 -60.4255 -17.9811 -19.9020 84.0879 -3.0089 6.3045 -31.5692 -0.0044 0.4307 -1.1836 -4.8364 -0.4621 31.4357 -3.2344 -4.1289 4.5378 0.8215 -2.3557 -11.2301 -6.1956 -1.9081 -15.3362 6.7769 -2.0753 8.4761 2.9565 -0.7310 5.1842 0.0000 0.0000 0.0000 -72.1474 -22.2178 24.8618 125.2701 -54.7337 -90.0046 -0.0000 0.0000 -21.2086 22.6130 17.7155 7.2234 -7.1250 0.0000 -0.0000 -5.2875 48.9951 -0.5223 0.0000 0.0000 0.0000 64.0528 49.2637 16.0668 -138.5396 48.9117 -100.4671 0.0000 -0.0000 -22.0336 -28.2734 -18.3346 9.6028 7.1250 -0.0000 -0.0000 -0.1669 -50.6000 0.0230
1.2379 25.8351 1.5326 172.1540 -3.4829 -168.1680 0.0000 0.0000 0.0000 -23.1372 -9.1584 -28.2561 2.7833 10.3357 30.0707 1.1516 11.2745 19.5798 0.2976 -3.5079 -9.6962 0.0000 0.0000 0.0000 5.9774 20.0206 -58.6782 -17.7916 -19.8827 83.5309 -2.9798 5.6706 -31.4901 -0.0043 0.4233 -1.1630 -5.0270 -0.2262 31.7327 -3.3832 -3.9625 4.6467 0.7107 -2.2897 -11.2365 -6.3376 -1.8715 -15.1574 6.8995 -2.0536 7.5876 3.0124 -0.7558 4.8791 -0.0000 -0.0000 0.0000 -71.9084 -21.5740 26.4866 121.8948 -55.7835 -87.2306 -0.0000 0.0000 -20.8422 22.5567 15.9317 6.5046 -7.1250 0.0000 -0.0000 -4.9353 47.0957 -0.2558 -0.0000 -0.0000 0.0000 65.9013 46.6861 17.5879 -140.3027 47.8895 -101.7856 0.0000 -0.0000 -19.7621 -29.2362 -17.5342 9.5716 7.1250 -0.0000 -0.0000 -1.2629 -49.8799 0.1520
1.3437 25.9774 1.3911 171.5060 -4.0785 -168.5520 0.0000 0.0000 0.0000 -23.6489 -6.2564 -30.1765 3.6002 11.6084 34.3605 1.1643 8.7383 19.3484 0.5549 -4.7717 -13.2585 0.0000 0.0000 0.0000 6.3452 20.3515 -56.4787 -17.3604 -19.8321 82.2615 -3.0697 4.1515 -32.2324 -0.0088 0.6043 -1.6606 -5.0374 0.0193 31.7398 -3.4009 -3.6417 4.6376 0.5767 -2.1379 -11.2592 -6.4233 -2.1244 -15.4508 6.5612 -2.3090 7.3282 2.8950 -0.9017 4.8592 -0.0000 -0.0000 0.0000 -72.1498 -20.9328 27.8482 117.9349 -56.8356 -83.9353 -0.0000 0.0000 -20.6248 22.3081 13.9804 5.6609 -7.1250 0.0000 -0.0000 -4.7810 44.9879 0.0014 -0.0000 -0.0000 0.0000 67.2101 44.4636 19.0617 -140.8540 47.5557 -102.1936 0.0000 -0.0000 -17.6592 -28.8379 -15.8790 8.5673 7.1250 -0.0000 -0.0000 -1.0974 -47.9670 0.0803
1.4278 26.1171 1.2477 170.9360 -5.2684 -168.7860 0.0000 0.0000 0.0000 -24.2953 -3.6774 -33.3443 4.9715 13.3517 40.6996 0.9895 11.2851 18.2940 0.5093 -4.5745 -12.6987 0.0000 0.0000 0.0000 6.9953 19.8818 -53.8510 -16.6639 -19.7310 80.2039 -3.3094 2.8105 -33.8005 -0.0065 0.5222 -1.4349 -4.5198 -0.2140 31.4368 -3.5291 -3.7163 4.5944 0.1838 -2.1756 -11.2218 -6.4648 -2.2308 -15.9996 6.5297 -2.4210 7.6933 2.8821 -0.9492 5.0690 0.0000 0.0000 0.0000 -72.0501 -20.5820 29.0562 113.3103 -57.8439 -80.0412 -0.0000 0.0000 -20.0174 22.9140 12.5090 5.2311 -7.1250 0.0000 -0.0000 -3.9764 43.4870 0.1487 0.0000 0.0000 0.0000 68.1373 41.6128 20.2149 -141.5984 47.0939 -102.7408 0.0000 -0.0000 -15.3472 -28.6256 -15.3282 8.2100 7.1250 -0.0000 -0.0000 -0.9609 -47.3194 0.0550
1.5154 26.2530 1.1296 170.2790 -6.0862 -168.8130 0.0000 0.0000 0.0000 -25.1791 -0.4603 -37.6848 6.7926 15.1548 48.0857 0.4423 15.6817 15.2196 0.1818 -2.7460 -7.5723 0.0000 0.0000 0.0000 7.2279 19.9615 -51.6385 -15.9566 -19.6034 78.1025 -3.5124 1.8222 -35.0955 -0.0001 0.0627 -0.1723 -4.5640 -0.2434 30.9911 -3.6193 -3.7405 4.7355 0.1032 -2.1993 -10.8811 -6.5877 -2.3902 -17.6785 6.5491 -2.5458 8.3727 2.8960 -0.9862 5.5631 0.0000 0.0000 0.0000 -71.8359 -21.0069 29.7398 108.4793 -58.6695 -75.9320 -0.0000 0.0000 -19.6179 22.9220 11.1490 4.6745 -7.1250 0.0000 -0.0000 -3.7686 42.0276 0.2768 0.0000 0.0000 0.0000 68.4228 39.5663 21.5655 -141.9197 46.8905 -102.9758 0.0000 -0.0000 -13.8068 -30.2702 -15.1922 8.6961 7.1250 -0.0000 -0.0000 -2.5669 -47.4173 0.1532
1.5851 26.4100 1.0351 170.3580 -6.8588 -168.9030 0.0000 0.0000 0.0000 -25.4247 2.6066 -42.4371 8.9963 16.8053 56.0773 0.0265 16.2985 11.7199 0.1020 -2.0593 -5.6694 0.0000 0.0000 0.0000 8.1735 20.0420 -49.4499 -15.1797 -19.4336 75.7774 -3.5723 0.7149 -35.6933 -0.0001 -0.0788 0.2165 -4.0134 -0.4030 30.4681 -3.4838 -3.6733 5.2272 -0.1269 -2.1965 -10.8885 -6.7591 -2.5794 -18.0477 6.4546 -2.7190 7.8427 2.8719 -1.0847 5.4668 0.0000 0.0000 0.0000 -72.1574 -20.5239 30.1441 104.7992 -59.1560 -72.7802 -0.0000 0.0000 -19.1295 23.1158 9.7033 4.1151 -7.1250 0.0000 -0.0000 -3.4107 40.4889 0.3799 0.0000 0.0000 0.0000 69.1427 36.5272 23.1306 -142.0352 46.8168 -103.0601 0.0000 -0.0000 -12.1558 -31.2938 -13.6888 8.1858 7.1250 -0.0000 -0.0000 -3.6719 -45.8567 0.0777
1.6525 26.5745 0.9535 170.0180 -7.4008 -169.1140 0.0000 0.0000 0.0000 -26.0621 5.4198 -46.9786 11.4525 18.1495 64.2426 -0.1942 13.1891 6.5496 0.3439 -3.7683 -10.4258 0.0000 0.0000 0.0000 8.5407 19.8940 -47.4801 -14.5120 -19.2620 73.7621 -3.4987 -0.0591 -35.5381 -0.0001 -0.0772 0.2121 -3.9149 -0.5388 30.7026 -3.5794 -3.8442 5.1728 -0.2183 -2.2738 -11.0793 -6.7970 -2.5251 -18.4189 6.2998 -2.5980 7.6921 2.8387 -1.0365 5.4676 0.0000 0.0000 0.0000 -72.3116 -20.2021 30.3100 100.7990 -59.5547 -69.3383 -0.0000 0.0000 -18.6705 23.2420 8.6514 3.6963 -7.1250 0.0000 -0.0000 -3.1820 39.3633 0.4425 0.0000 0.0000 0.0000 70.2583 34.6523 24.9336 -141.6469 47.0633 -102.7764 0.0000 -0.0000 -10.7500 -31.9822 -12.5201 7.7091 7.1250 -0.0000 -0.0000 -4.3836 -44.6060 -0.0427
1.7201 26.7808 0.8728 169.0170 -8.0853 -169.1900 0.0000 0.0000 0.0000 -27.3163 7.7730 -51.2684 14.0053 19.1156 72.2207 -0.2456 10.2804 2.0016 0.3082 -3.5691 -9.8676 0.0000 0.0000 0.0000 8.1844 19.2392 -45.5420 -13.8233 -19.0596 71.6642 -3.4060 -0.4127 -35.1661 -0.0043 -0.4240 1.1651 -4.1333 -0.7343 31.1430 -4.0567 -4.2844 4.6423 -0.3811 -2.4549 -11.1103 -6.2654 -2.3670 -18.2515 5.7596 -2.4503 7.0840 2.5922 -0.9971 5.2239 -0.0000 0.0000 0.0000 -72.2488 -19.8000 30.6137 96.5436 -59.8376 -65.6638 -0.0000 0.0000 -17.7989 23.8202 7.2817 3.2027 -7.1250 0.0000 -0.0000 -2.5525 37.9199 0.4453 -0.0000 0.0000 0.0000 71.6808 32.8799 26.7699 -141.0840 47.4144 -102.3630 0.0000 -0.0000 -8.8486 -33.1980 -11.6741 7.5422 7.1250 -0.0000 -0.0000 -5.5428 -43.7804 -0.1674
1.7892 26.9745 0.8290 169.6170 -8.6444 -169.0710 0.0000 0.0000 0.0000 -26.5208 9.5850 -56.6176 17.0339 19.7878 81.2983 -0.2379 8.7818 -1.3788 0.2587 -3.2721 -9.0371 0.0000 0.0000 0.0000 9.4427 19.4453 -43.9046 -12.9898 -18.7785 69.0939 -3.1963 -1.5774 -34.4427 -0.0010 -0.2066 0.5677 -3.3387 -0.9890 31.1148 -4.0099 -4.2801 4.4485 -0.7553 -2.4457 -11.3672 -6.4158 -2.1096 -17.2875 5.9719 -2.1388 5.1287 2.7088 -0.8714 4.4453 0.0000 0.0000 0.0000 -72.4525 -19.5749 30.9255 92.8524 -59.9692 -62.4700 -0.0000 0.0000 -16.9810 24.0841 6.7769 3.0193 -7.1250 0.0000 -0.0000 -2.2859 37.3873 0.4285 0.0000 0.0000 0.0000 73.2898 31.4131 28.5314 -140.2749 47.9062 -101.7650 0.0000 -0.0000 -7.1525 -34.1247 -10.2696 6.8889 7.1250 -0.0000 -0.0000 -6.3993 -42.2375 -0.4381
1.8604 27.1972 0.7882 169.4810 -9.2200 -168.9530 0.0000 0.0000 0.0000 -26.3954 10.8167 -61.4594 19.9783 20.0000 89.9365 -0.1278 6.9725 -5.6729 0.4369 -4.2416 -11.7572 0.0000 0.0000 0.0000 9.8340 19.4907 -42.1524 -12.1183 -18.4402 66.3633 -2.9556 -2.6826 -33.5438 -0.0057 -0.4860 1.3353 -3.5771 -0.8941 31.0060 -3.8216 -4.1737 4.3715 -0.4724 -2.3708 -11.3723 -6.5884 -1.9608 -16.6603 5.6859 -1.9171 3.5430 2.6630 -0.8133 3.8393 -0.0000 -0.0000 0.0000 -73.1886 -20.1145 31.5675 87.8010 -59.9817 -58.0957 -0.0000 0.0000 -16.3952 24.2267 5.8932 2.6452 -7.1250 0.0000 -0.0000 -2.1003 36.4306 0.4428 -0.0000 -0.0000 0.0000 74.0130 29.6683 29.4382 -139.4685 48.3816 -101.1644 0.0000 -0.0000 -5.5043 -34.8182 -9.6322 6.6377 7.1250 -0.0000 -0.0000 -7.0179 -41.5571 -0.5993
1.9200 27.4093 0.7541 169.3730 -10.2982 -168.9610 0.0000 0.0000 0.0000 -25.7930 10.9630 -65.5881 22.6597 19.8295 97.7977 0.1076 4.0628 -9.0156 0.5230 -4.6348 -12.8697 0.0000 0.0000 0.0000 10.3356 19.1765 -40.1716 -11.2721 -18.0657 63.6620 -2.7806 -3.6270 -32.9511 -0.0033 -0.3684 1.0122 -3.4424 -1.1183 31.1680 -3.6672 -4.3815 4.3162 -0.2970 -2.4535 -11.4971 -6.7686 -1.8188 -16.4345 5.3700 -1.6996 2.4529 2.6093 -0.7469 3.4517 0.0000 0.0000 0.0000 -73.7379 -20.7157 32.0751 83.2584 -59.8276 -54.1650 -0.0000 0.0000 -15.7143 24.7466 5.3070 2.4412 -7.1250 0.0000 -0.0000 -1.6267 35.8159 0.3673 0.0000 0.0000 0.0000 74.2727 28.5094 29.8317 -138.5766 48.8910 -100.4950 0.0000 -0.0000 -4.4555 -35.1001 -8.4808 5.9176 7.1250 -0.0000 -0.0000 -7.2347 -40.2058 -0.8602
1.9817 27.6057 0.7265 169.3080 -11.2465 -169.0410 0.0000 0.0000 0.0000 -24.8414 10.5396 -69.3756 24.9254 19.4081 104.5388 0.3485 -0.3390 -11.0365 0.5183 -4.6142 -12.8114 0.0000 0.0000 0.0000 10.9003 18.4655 -38.4704 -10.4923 -17.6776 61.1215 -2.5499 -4.5571 -32.0412 -0.0029 -0.3483 0.9569 -3.4121 -1.1435 31.0657 -3.5673 -4.3735 4.4108 -0.2178 -2.4524 -11.3402 -7.0504 -1.8686 -16.6829 5.5768 -1.7388 1.7771 2.7145 -0.7743 3.2888 0.0000 -0.0000 0.0000 -74.1020 -21.4466 33.0688 78.6099 -59.5041 -50.1523 -0.0000 0.0000 -14.7393 25.5878 5.2727 2.5197 -7.1250 0.0000 -0.0000 -0.9208 35.8208 0.2077 0.0000 -0.0000 0.0000 74.7627 27.3832 30.0898 -137.6935 49.3786 -99.8271 0.0000 -0.0000 -3.6740 -35.8674 -7.7110 5.5410 7.1250 -0.0000 -0.0000 -7.8783 -39.3485 -1.1052
2.0459 27.8480 0.6987 169.1460 -12.3238 -169.1640 0.0000 0.0000 0.0000 -24.0505 9.7553 -72.5830 26.5020 18.9547 109.3345 0.4084 -5.9642 -11.4912 0.4214 -4.1663 -11.5450 0.0000 0.0000 0.0000 11.4007 17.9151 -36.2560 -9.5427 -17.1445 57.9486 -2.2673 -5.7548 -30.9467 -0.0079 -0.5739 1.5770 -3.3876 -1.3059 31.1723 -3.6519 -4.5846 4.3870 -0.2372 -2.5453 -11.4210 -6.9994 -2.0099 -16.8428 5.9839 -1.9737 1.4250 2.8141 -0.8798 3.2259 0.0000 0.0000 0.0000 -74.0716 -22.2570 33.9810 73.2797 -58.9168 -45.5724 -0.0000 0.0000 -14.2032 26.2990 4.5550 2.2476 -7.1250 0.0000 -0.0000 -0.2965 35.0579 0.0724 0.0000 0.0000 0.0000 75.3282 25.8047 30.3440 -136.2179 50.1577 -98.7005 0.0000 -0.0000 -3.3969 -36.5705 -6.5065 4.8053 7.1250 -0.0000 -0.0000 -8.4173 -37.9387 -1.4759
2.1060 28.1108 0.6707 169.3470 -13.2336 -169.3390 0.0000 0.0000 0.0000 -23.0747 8.9681 -75.5660 27.5085 18.5908 112.4617 0.4441 -9.3549 -12.6725 0.6865 -5.2972 -14.7583 0.0000 0.0000 0.0000 12.2660 17.8251 -33.7116 -8.4955 -16.4719 54.3285 -1.9065 -7.2603 -29.5270 -0.0430 -1.3385 3.6806 -3.1794 -1.3726 31.2199 -3.5210 -4.5537 4.3057 -0.2187 -2.5193 -11.5346 -7.1280 -2.2783 -16.6063 6.0326 -2.3311 0.8777 2.8234 -1.0693 3.0472 -0.0000 -0.0000 0.0000 -74.3714 -23.0892 35.1563 68.0394 -58.0969 -41.1031 -0.0000 0.0000 -13.6427 27.4494 3.9304 2.0392 -7.1250 0.0000 -0.0000 0.6741 34.4064 -0.1753 -0.0000 -0.0000 0.0000 75.6183 24.2086 30.0738 -134.9587 50.7887 -97.7292 0.0000 -0.0000 -3.1098 -36.9526 -5.2569 3.9428 7.1250 -0.0000 -0.0000 -8.6505 -36.4294 -1.8401
2.1336 28.3667 0.6569 169.1910 -14.7876 -169.6650 0.0000 0.0000 0.0000 -22.8181 6.9957 -77.4774 27.9106 18.4282 113.7282 0.1902 -14.3261 -12.1369 0.7355 -5.4789 -15.2797 0.0000 0.0000 0.0000 12.7271 16.9300 -31.1077 -7.5384 -15.7690 50.8825 -1.6015 -8.7264 -28.4456 -0.0325 -1.1636 3.1991 -2.4911 -1.8442 31.4800 -3.6035 -4.9520 4.3951 -0.5139 -2.7283 -11.6064 -7.1207 -2.2757 -16.8471 6.0002 -2.3291 0.6348 2.8114 -1.0767 3.0082 0.0000 0.0000 0.0000 -74.6302 -23.8584 36.2397 63.4474 -57.1607 -37.2240 -0.0000 0.0000 -13.3360 28.6283 3.9008 2.1267 -7.1250 0.0000 -0.0000 1.6480 34.4182 -0.4282 0.0000 0.0000 0.0000 75.7885 22.9982 30.7019 -133.7399 51.3711 -96.7809 0.0000 -0.0000 -3.6816 -38.6914 -6.4215 5.1186 7.1250 -0.0000 -0.0000 -10.2422 -38.0001 -1.7877
2.1742 28.5483 0.6210 169.4310 -15.3430 -169.4390 0.0000 0.0000 0.0000 -22.5278 5.8544 -80.2755 28.0230 18.3809 114.0841 -0.2771 -18.4858 -10.3463 0.5566 -4.7788 -13.2786 0.0000 0.0000 0.0000 13.2593 16.9603 -29.7393 -6.8604 -15.2132 48.3443 -1.2515 -10.0905 -26.9811 -0.0120 -0.7087 1.9477 -2.5231 -1.8315 30.4522 -3.3686 -4.8068 4.7609 -0.4183 -2.6613 -11.4999 -6.9696 -1.8853 -15.3341 5.3104 -1.8974 -0.9514 2.8947 -0.9276 2.5507 -0.0000 -0.0000 0.0000 -74.8975 -24.5212 37.2862 58.8335 -55.9910 -33.3723 -0.0000 0.0000 -13.2321 30.1458 3.8201 2.2158 -7.1250 0.0000 -0.0000 2.9015 34.3840 -0.7568 -0.0000 -0.0000 0.0000 75.4089 21.9487 30.1910 -131.3767 52.4249 -94.9212 0.0000 -0.0000 -2.2526 -37.9826 -3.5665 2.7807 7.1250 -0.0000 -0.0000 -9.3573 -34.3831 -2.4657
2.1887 28.7216 0.5873 169.5690 -15.5128 -169.5420 0.0000 0.0000 0.0000 -22.8910 5.1635 -82.0293 27.7227 18.5054 113.1350 -0.7833 -22.2853 -9.0589 0.5134 -4.5928 -12.7507 0.0000 0.0000 0.0000 13.6145 16.7636 -28.2705 -6.2855 -14.6994 46.1171 -0.9924 -10.8140 -25.6191 -0.0034 -0.3747 1.0294 -2.4768 -1.6742 29.8608 -3.3008 -4.5187 4.7277 -0.5063 -2.5231 -11.2362 -6.8445 -1.9263 -14.9573 4.8856 -1.9800 -1.3007 2.7118 -0.9887 2.3535 -0.0000 0.0000 0.0000 -74.8922 -24.9079 38.7073 55.4915 -54.9837 -30.6181 -0.0000 0.0000 -13.0673 31.1153 5.3189 3.2026 -7.1250 0.0000 -0.0000 3.7223 36.1649 -0.8099 -0.0000 0.0000 0.0000 74.7384 20.9432 30.2030 -129.2026 53.3121 -93.1877 0.0000 -0.0000 -2.2460 -38.9410 -2.9098 2.3491 7.1250 -0.0000 -0.0000 -10.0718 -33.5914 -2.8550
2.2023 28.8854 0.5298 169.6610 -16.4291 -169.4820 0.0000 0.0000 0.0000 -23.3351 3.9955 -82.9439 27.0862 18.7508 111.1424 -0.9267 -23.1018 -8.5888 0.3939 -4.0297 -11.1603 0.0000 0.0000 0.0000 14.0864 15.7662 -27.0867 -5.7638 -14.1955 44.0263 -0.7475 -11.5914 -24.3422 -0.0006 -0.1532 0.4210 -2.2981 -1.9227 28.8256 -3.1808 -4.6644 4.7076 -0.4660 -2.5841 -10.7377 -7.5648 -1.9762 -15.1869 5.8685 -1.9233 -0.6104 2.8807 -0.9044 2.3526 0.0000 0.0000 0.0000 -74.4869 -24.9778 39.4479 52.9631 -54.1228 -28.5582 -0.0000 0.0000 -12.2266 30.5986 7.2716 4.2807 -7.1250 0.0000 -0.0000 3.2770 38.3930 -0.5339 0.0000 0.0000 0.0000 74.2920 19.9091 30.6079 -127.1495 54.0824 -91.5330 0.0000 -0.0000 -2.3391 -39.5240 -2.4580 2.0265 7.1250 -0.0000 -0.0000 -10.4911 -33.0340 -3.1211
2.2161 29.0080 0.4837 169.9850 -16.5176 -169.4710 0.0000 0.0000 0.0000 -23.8376 3.7396 -83.7118 26.3242 19.0128 108.7881 -0.8782 -22.4909 -8.3410 0.3496 -3.7988 -10.5112 0.0000 0.0000 0.0000 14.4963 15.8203 -26.2585 -5.4273 -13.8494 42.6374 -0.6190 -11.8078 -23.4481 -0.0039 -0.4023 1.1053 -2.4044 -1.8220 27.9806 -3.0228 -4.4557 4.5780 -0.3417 -2.4644 -10.4328 -7.4851 -1.9595 -15.2389 5.6505 -1.8920 -0.3513 2.8020 -0.8902 2.4330 0.0000 0.0000 0.0000 -73.8226 -24.6401 39.5271 52.0324 -53.7830 -27.8057 -0.0000 0.0000 -10.2657 27.4975 9.5756 4.9487 -7.1250 0.0000 -0.0000 0.4666 40.7476 -0.0489 0.0000 0.0000 0.0000 73.5543 19.2701 31.0857 -124.8728 54.8651 -89.6800 0.0000 -0.0000 -3.0494 -40.2226 -1.8775 1.5872 7.1250 -0.0000 -0.0000 -10.9780 -32.3053 -3.4671
2.2127 29.0918 0.4218 170.2860 -15.9370 -169.2550 0.0000 0.0000 0.0000 -24.5465 4.1149 -84.2693 25.5739 19.2382 106.4984 -0.9602 -22.1683 -7.0559 0.1971 -2.8590 -7.8865 0.0000 0.0000 0.0000 14.7271 15.8818 -25.9962 -5.2085 -13.6149 41.7160 -0.4423 -11.9189 -21.9369 -0.0001 0.0484 -0.1330 -2.7186 -1.5546 26.8406 -2.9861 -4.0798 4.3204 -0.3000 -2.2556 -10.1168 -7.3333 -1.7824 -14.6515 5.2790 -1.7022 -0.8644 2.9650 -0.8221 2.4481 0.0000 0.0000 0.0000 -73.1307 -23.1461 38.2154 53.6648 -54.3707 -29.1276 -0.0000 0.0000 -5.8185 23.9042 11.6867 5.1302 -7.1250 0.0000 -0.0000 -2.9611 42.7095 0.1675 0.0000 0.0000 0.0000 73.4183 18.4731 31.6074 -122.8851 55.4908 -88.0482 0.0000 -0.0000 -3.4154 -40.2552 -1.4064 1.1905 7.1250 -0.0000 -0.0000 -10.9399 -31.7000 -3.6171
2.2157 29.1599 0.3430 170.7510 -15.5069 -169.7750 0.0000 0.0000 0.0000 -25.1236 5.1989 -83.7008 24.7740 19.4446 104.0834 -1.0926 -20.8825 -3.3828 0.0099 -0.6434 -1.7680 0.0000 0.0000 0.0000 15.4549 15.8661 -24.8703 -4.9955 -13.3787 40.8032 -0.3282 -12.0638 -20.9676 -0.0014 0.2420 -0.6649 -3.0547 -1.3193 26.4008 -2.9075 -3.8251 4.2895 -0.1249 -2.1231 -9.8989 -7.0933 -1.6823 -14.5404 5.0943 -1.6113 -0.9774 2.8589 -0.7851 2.3739 0.0000 -0.0000 0.0000 -73.0356 -21.8226 34.8722 57.0191 -55.4618 -31.8729 -0.0000 -0.0000 2.6585 17.8806 13.8424 4.4137 -7.1250 0.0000 -0.0000 -8.7977 44.3163 0.1497 0.0000 -0.0000 0.0000 73.9232 17.8917 32.1776 -120.9538 56.0504 -86.4513 0.0000 -0.0000 -3.3733 -40.3683 -0.7555 0.6422 7.1250 -0.0000 -0.0000 -10.9390 -30.8622 -3.8409
2.1986 29.2253 0.2543 171.0910 -14.9471 -170.1060 0.0000 0.0000 0.0000 -26.0325 6.4377 -82.8148 23.9496 19.6218 101.6183 -0.9664 -18.2713 -0.1290 0.0006 0.1622 0.4457 0.0000 0.0000 0.0000 15.9181 16.0114 -23.9769 -4.8432 -13.2050 40.1410 -0.2484 -12.1143 -20.1893 -0.0086 0.5997 -1.6478 -3.3569 -1.0582 25.6823 -2.9002 -3.5164 4.3011 -0.0746 -1.9729 -9.4990 -6.8545 -1.7010 -14.4499 5.0914 -1.6940 -1.2744 2.8029 -0.8335 2.2566 0.0000 -0.0000 0.0000 -73.3691 -21.2777 30.8918 62.4591 -56.9304 -36.3946 -0.0000 -0.0000 8.2122 4.7567 17.6204 1.4429 -7.1250 0.0000 -0.0000 -21.8190 46.4265 -0.8060 0.0000 -0.0000 0.0000 74.6378 17.1356 32.4960 -119.5483 56.4291 -85.2828 0.0000 -0.0000 -4.0109 -40.4906 0.0892 -0.0762 7.1250 -0.0000 -0.0000 -10.9149 -29.7717 -4.1220
2.1701 29.2696 0.1648 171.2270 -14.6381 -170.2880 0.0000 0.0000 0.0000 -27.3146 7.4407 -81.4666 23.1967 19.7532 99.3837 -0.7665 -16.0975 0.5604 0.3088 3.5724 9.8767 0.0000 0.0000 0.0000 16.1456 15.4473 -23.5897 -4.7825 -13.1346 39.8743 -0.1730 -11.7619 -18.9173 -0.0023 0.3072 -0.8440 -3.6077 -0.8972 25.1372 -2.9218 -3.3135 4.1076 -0.0387 -1.8544 -9.4236 -6.9664 -1.7557 -14.1092 5.3053 -1.7650 -1.3069 2.8917 -0.8604 2.1952 0.0000 -0.0000 0.0000 -74.4692 -21.3071 27.1264 68.2883 -58.1417 -41.3145 -0.0000 -0.0000 7.2436 -9.6633 23.9614 -3.9558 -7.1250 0.0000 -0.0000 -37.8820 49.9010 -5.2499 0.0000 -0.0000 0.0000 75.1835 16.2086 32.6034 -118.0000 56.8197 -83.9899 0.0000 -0.0000 -4.4959 -40.2168 0.9666 -0.8172 7.1250 -0.0000 -0.0000 -10.5785 -28.6467 -4.2790
2.1242 29.3097 0.0768 171.6600 -14.4867 -170.4280 0.0000 0.0000 0.0000 -28.3651 8.4407 -80.4291 23.0503 19.7754 98.9507 -0.5580 -16.0872 -4.0836 0.3090 3.5737 9.8804 0.0000 0.0000 0.0000 16.5951 14.8168 -23.2335 -4.6842 -13.0191 39.4401 -0.1359 -11.3915 -18.0083 -0.0113 0.6854 -1.8834 -3.5424 -0.9420 24.3857 -2.9462 -3.2777 3.9738 -0.1384 -1.8280 -9.1853 -6.8010 -1.6530 -14.3508 5.4103 -1.6359 -0.8698 2.9115 -0.7840 2.3799 -0.0000 -0.0000 0.0000 -75.4309 -21.4063 23.0299 75.8566 -59.2305 -47.7831 -0.0000 -0.0000 3.2398 -21.7220 32.4765 -12.0746 -7.1250 0.0000 -0.0000 -55.0592 54.0827 -15.9548 -0.0000 -0.0000 0.0000 75.6430 15.6203 32.9342 -116.3485 57.2070 -82.6045 0.0000 -0.0000 -5.0915 -40.2048 1.7997 -1.5205 7.1250 -0.0000 -0.0000 -10.4500 -27.5750 -4.4949
2.0896 29.3550 -0.0194 172.0940 -14.6687 -170.5370 0.0000 0.0000 0.0000 -29.0883 9.1983 -79.7054 23.0453 19.7762 98.9360 -0.2591 -15.1832 -7.5336 0.1706 2.6604 7.3348 0.0000 0.0000 0.0000 17.0938 14.2422 -22.7224 -4.6313 -12.9561 39.2044 -0.1610 -10.8965 -17.7008 -0.0156 0.8058 -2.2146 -3.5221 -1.0407 23.7795 -2.8193 -3.3113 3.8241 -0.0198 -1.8255 -9.0251 -6.8075 -1.5472 -14.3290 5.4448 -1.4935 -0.7984 2.9351 -0.7101 2.3916 -0.0000 0.0000 0.0000 -76.3659 -22.4950 19.9153 80.9425 -59.6877 -52.1642 -0.0000 0.0000 -1.5335 -23.3403 34.5413 -13.7480 -7.1250 0.0000 -0.0000 -58.5259 55.0933 -19.2609 -0.0000 0.0000 0.0000 75.7083 14.6140 32.9275 -115.5210 57.3899 -81.9082 0.0000 -0.0000 -5.4997 -39.9400 1.9823 -1.6590 7.1250 -0.0000 -0.0000 -10.2237 -27.3520 -4.4493
2.0571 29.4058 -0.1123 172.5500 -14.8383 -170.9090 0.0000 0.0000 0.0000 -29.4665 10.1335 -79.0089 22.8764 19.8005 98.4368 -0.1246 -14.6167 -8.7754 0.4124 4.1224 11.4212 0.0000 0.0000 0.0000 17.6552 13.9778 -21.8773 -4.5358 -12.8412 38.7769 -0.1290 -10.8874 -17.2839 -0.0583 1.5578 -4.2851 -3.5379 -0.9706 23.4115 -2.7395 -3.1824 3.8655 0.0244 -1.7644 -8.7809 -6.5129 -1.6211 -14.3263 5.1659 -1.6345 -0.9203 2.7710 -0.7925 2.3472 -0.0000 0.0000 0.0000 -77.0757 -23.9346 18.8111 86.5621 -59.9553 -57.0231 -0.0000 0.0000 -8.2682 -21.0878 34.3703 -12.2816 -7.1250 0.0000 -0.0000 -56.5382 55.4561 -18.7817 -0.0000 0.0000 0.0000 75.9364 13.8579 32.3736 -114.2865 57.6496 -80.8667 0.0000 -0.0000 -6.1858 -39.3130 2.3742 -1.9429 7.1250 -0.0000 -0.0000 -9.6966 -26.8804 -4.3227
2.0233 29.4855 -0.2132 172.5900 -15.3623 -171.4230 0.0000 0.0000 0.0000 -30.2301 11.0041 -77.9302 22.6722 19.8279 97.8345 0.1341 -13.0403 -10.7760 0.3125 3.5936 9.9361 0.0000 0.0000 0.0000 17.9786 13.0558 -20.6401 -4.3290 -12.5858 37.8372 -0.0730 -11.1887 -16.9402 -0.0834 1.8632 -5.1279 -3.8057 -1.0320 23.5142 -2.7960 -3.3444 3.8346 0.1674 -1.8330 -8.8560 -6.4688 -1.6746 -14.2666 5.2515 -1.7171 -0.9047 2.7865 -0.8303 2.3482 0.0000 -0.0000 0.0000 -77.1936 -25.0932 19.2994 92.6548 -59.9734 -62.2989 -0.0000 0.0000 -17.3908 -18.6633 31.6658 -10.0550 -7.1250 0.0000 -0.0000 -51.7743 54.1353 -14.5892 0.0000 -0.0000 0.0000 76.2995 12.7313 32.2636 -112.9513 57.9129 -79.7371 0.0000 -0.0000 -5.7933 -39.4645 2.5893 -2.1301 7.1250 -0.0000 -0.0000 -9.7810 -26.5989 -4.4270
1.9775 29.5590 -0.3250 172.9670 -15.7901 -171.7440 0.0000 0.0000 0.0000 -31.0604 12.0380 -77.2819 22.4913 19.8505 97.3014 0.5479 -10.5787 -14.1414 0.0961 1.9990 5.5029 0.0000 0.0000 0.0000 18.5650 12.4849 -19.4322 -4.0717 -12.2552 36.6407 -0.0085 -11.6389 -16.6800 -0.0975 2.0135 -5.5430 -3.8754 -1.0247 23.2755 -2.6575 -3.2964 3.7245 0.3366 -1.7925 -8.8401 -6.3273 -1.8128 -14.0735 4.9677 -1.9124 -0.8488 2.6482 -0.9341 2.3351 -0.0000 -0.0000 0.0000 -77.6246 -26.3188 21.4891 98.9025 -59.6984 -67.7020 -0.0000 0.0000 -25.5161 -14.6139 29.0416 -7.2138 -7.1250 0.0000 -0.0000 -45.9873 53.0174 -10.9076 -0.0000 -0.0000 0.0000 76.2667 11.1868 31.8163 -112.0183 58.0865 -78.9459 0.0000 -0.0000 -6.2514 -40.0136 4.5931 -3.8460 7.1250 -0.0000 -0.0000 -9.8988 -24.0012 -5.0898
1.8930 29.6832 -0.4696 173.6020 -16.4343 -171.5140 0.0000 0.0000 0.0000 -32.0608 12.5603 -76.6361 22.1193 19.8920 96.2073 1.0213 -9.2910 -18.2217 0.0006 0.1585 0.4355 0.0000 0.0000 0.0000 19.1574 11.2577 -18.6037 -3.6736 -11.7129 34.7237 0.1740 -12.3146 -14.9913 -0.0940 1.9774 -5.4433 -3.4350 -1.2947 21.8319 -2.5109 -3.3812 3.6404 0.2173 -1.8304 -8.1779 -6.4179 -1.8754 -14.0817 5.1065 -1.9865 -0.8485 2.7083 -0.9666 2.3465 -0.0000 0.0000 0.0000 -77.9645 -27.4360 24.6410 104.8028 -59.1556 -72.7833 -0.0000 0.0000 -30.3790 -12.3294 27.3008 -5.7248 -7.1250 0.0000 -0.0000 -42.6061 52.1067 -8.7683 -0.0000 0.0000 0.0000 76.1894 9.7969 31.2726 -110.6383 58.3278 -77.7730 0.0000 -0.0000 -6.5363 -39.5288 5.9037 -4.8513 7.1250 -0.0000 -0.0000 -9.3542 -22.3750 -5.1563
1.8049 29.7880 -0.5984 173.9030 -17.6849 -171.5210 0.0000 0.0000 0.0000 -33.0375 12.5580 -74.8226 21.5235 19.9443 94.4584 1.4142 -9.8899 -21.3786 0.1899 2.8068 7.7413 0.0000 0.0000 0.0000 19.4872 9.8038 -17.9166 -3.3892 -11.2999 33.2980 0.2980 -12.9792 -14.0502 -0.1010 2.0496 -5.6427 -3.1076 -1.7998 21.3226 -2.4691 -3.9004 3.5269 0.2006 -2.0727 -8.0368 -6.1415 -1.7962 -13.9699 4.9864 -1.9315 -1.0160 2.6163 -0.9469 2.2571 0.0000 -0.0000 0.0000 -78.1323 -28.4051 28.2813 110.1001 -58.4170 -77.3147 -0.0000 0.0000 -31.9662 -10.6616 26.8348 -4.8575 -7.1250 0.0000 -0.0000 -40.8119 52.0343 -8.1982 0.0000 -0.0000 0.0000 76.3001 8.3584 31.1608 -108.9306 58.6016 -76.3174 0.0000 -0.0000 -6.4656 -40.6512 4.1327 -3.5410 7.1250 -0.0000 -0.0000 -10.4337 -24.5405 -5.2411
1.7640 29.9009 -0.7057 174.7330 -16.3651 -171.8180 0.0000 0.0000 0.0000 -33.8308 15.0359 -74.2476 20.8369 19.9832 92.4475 1.9345 -10.0640 -24.9789 0.2068 2.9277 8.0774 0.0000 0.0000 0.0000 20.1151 10.2279 -16.8573 -3.1246 -10.8941 31.9236 0.4247 -13.1332 -11.7068 -0.1396 2.4084 -6.6357 -4.2492 -1.1367 21.4297 -2.0942 -3.2461 3.2733 1.0825 -1.7024 -8.2997 -6.0113 -1.7286 -13.9375 4.9260 -1.8725 -1.2387 2.5726 -0.9256 2.1678 0.0000 -0.0000 0.0000 -78.7874 -29.1357 31.8636 114.0959 -57.6883 -80.7057 -0.0000 0.0000 -29.6737 -9.7797 26.2978 -4.3669 -7.1250 0.0000 -0.0000 -39.6427 51.7613 -7.5988 0.0000 -0.0000 0.0000 75.9682 7.0115 31.1241 -107.2036 58.8516 -74.8413 0.0000 -0.0000 -6.4307 -39.0389 4.8366 -3.9113 7.1250 -0.0000 -0.0000 -9.1540 -23.7739 -4.7454
1.6644 30.0685 -0.8810 174.3510 -17.3703 -170.7680 0.0000 0.0000 0.0000 -35.0187 14.6377 -72.4915 19.7895 19.9989 89.3846 2.2549 -11.2520 -27.0387 0.3057 3.5548 9.8274 0.0000 0.0000 0.0000 19.2755 9.9648 -16.9357 -2.9440 -10.6039 30.9553 0.5578 -13.7344 -9.5310 -0.1954 2.8464 -7.8515 -5.1727 -1.4937 19.4766 -2.0653 -3.7331 3.1972 1.6752 -1.9197 -7.2530 -6.1746 -1.8760 -13.7688 5.5337 -2.1004 -1.8986 2.7911 -1.0405 1.9450 -0.0000 -0.0000 0.0000 -79.6181 -29.6307 35.7671 115.2244 -57.4537 -81.6582 -0.0000 0.0000 -24.7865 -2.3815 25.3749 -1.0211 -7.1250 0.0000 -0.0000 -32.4241 52.2659 -6.3463 -0.0000 -0.0000 0.0000 75.5545 6.1760 30.8874 -103.8711 59.2603 -71.9829 0.0000 -0.0000 -6.9094 -38.5393 5.3994 -4.2865 7.1250 -0.0000 -0.0000 -8.7132 -23.1082 -4.6466
1.6060 30.2827 -0.9585 174.1070 -18.5590 -170.4300 0.0000 0.0000 0.0000 -35.7147 13.5191 -70.0012 18.5289 19.9480 85.6953 2.4292 -10.6087 -28.0482 0.5506 4.7535 13.2069 0.0000 0.0000 0.0000 18.3279 10.6509 -16.2621 -2.6906 -10.1766 29.5504 0.8231 -15.8425 -6.8527 -0.2273 3.0689 -8.4707 -5.9381 -1.9066 19.8708 -2.0996 -4.4710 3.0248 2.2745 -2.2390 -7.5546 -6.1080 -1.9484 -13.3643 6.0978 -2.2773 -2.8497 2.9542 -1.1462 1.5764 -0.0000 -0.0000 0.0000 -80.2332 -29.1805 38.8846 115.0826 -57.4839 -81.5387 -0.0000 0.0000 -23.2361 6.8352 26.9851 3.1133 -7.1250 0.0000 -0.0000 -24.8463 55.3475 -6.6088 -0.0000 -0.0000 0.0000 75.9242 5.4215 31.1653 -99.9412 59.6233 -68.5985 0.0000 -0.0000 -6.2107 -39.0555 6.2793 -5.0715 7.1250 -0.0000 -0.0000 -8.9605 -21.9488 -5.0220
1.5166 30.5716 -1.0716 174.2820 -18.6933 -169.9370 0.0000 0.0000 0.0000 -36.3002 13.2236 -67.5560 16.9823 19.7803 81.1459 2.7087 -9.2821 -29.6643 0.6741 5.2500 14.6229 0.0000 0.0000 0.0000 17.6213 12.7003 -15.2209 -2.3741 -9.6052 27.7076 1.2646 -19.6614 -4.1996 -0.1413 2.4224 -6.6745 -6.4107 -1.9808 19.3565 -2.0523 -4.6065 2.9368 2.5936 -2.2913 -7.3220 -6.3732 -2.2088 -13.4203 6.3503 -2.6300 -3.5790 3.0672 -1.3433 1.3774 -0.0000 -0.0000 0.0000 -81.6250 -28.0975 41.3077 112.6034 -57.9786 -79.4422 -0.0000 0.0000 -21.6191 14.4062 29.9197 7.3012 -7.1250 0.0000 -0.0000 -19.2436 59.6531 -7.0429 -0.0000 -0.0000 0.0000 75.9809 5.0381 31.5918 -94.9319 59.9079 -64.2698 0.0000 -0.0000 -5.7070 -39.5508 6.7970 -5.5823 7.1250 -0.0000 -0.0000 -9.2365 -21.2384 -5.3316
1.4060 30.9021 -1.1924 175.2940 -19.6575 -170.3200 0.0000 0.0000 0.0000 -35.5732 12.3230 -63.7255 15.2870 19.4589 76.0997 2.9604 -7.6366 -31.1656 0.9634 6.2495 17.5101 0.0000 0.0000 0.0000 17.6241 15.9105 -12.8028 -1.9676 -8.7983 25.1664 2.2048 -25.6696 -4.5100 -0.0129 -0.7334 2.0154 -5.5682 -2.5245 19.4178 -1.7335 -5.0941 2.9280 2.5844 -2.5303 -7.3628 -6.6595 -2.1702 -13.3503 6.4784 -2.5760 -4.1993 3.1675 -1.3349 1.1631 -0.0000 0.0000 0.0000 -83.0962 -25.5721 42.5482 109.4877 -58.5152 -76.7927 -0.0000 0.0000 -19.0693 18.0125 29.7293 9.1600 -7.1250 0.0000 -0.0000 -15.2409 60.3164 -5.7727 -0.0000 0.0000 0.0000 75.8716 4.6405 32.3384 -89.0643 59.9967 -59.1896 0.0000 -0.0000 -4.0485 -40.8960 7.4924 -6.4434 7.1250 -0.0000 -0.0000 -10.0729 -20.1811 -6.0729
1.3019 31.2271 -1.2845 176.9240 -18.6250 -170.2800 0.0000 0.0000 0.0000 -34.3038 12.2080 -62.0181 14.0736 19.1362 72.4290 2.8838 -5.4354 -30.9854 0.9394 6.1733 17.2880 0.0000 0.0000 0.0000 18.1029 16.9856 -12.9657 -1.9604 -8.7832 25.1194 1.5267 -23.8574 2.7654 -0.0212 -0.9398 2.5832 -4.7819 -2.4393 18.6503 -1.3292 -4.6837 2.6680 2.4373 -2.3216 -7.2845 -6.5754 -1.9605 -13.5037 6.2352 -2.3192 -4.3834 3.0809 -1.2212 1.1026 0.0000 0.0000 0.0000 -84.0574 -23.2148 44.1688 106.6019 -58.9325 -74.3261 -0.0000 0.0000 -18.9327 22.2925 28.3986 11.0334 -7.1250 0.0000 -0.0000 -9.6872 60.0185 -3.5701 0.0000 0.0000 0.0000 75.8107 4.6448 33.0642 -82.2968 59.7746 -53.3339 0.0000 -0.0000 -2.4522 -41.6121 7.6578 -6.7501 7.1250 -0.0000 -0.0000 -10.5435 -19.8683 -6.4415
1.2380 31.4891 -1.3631 177.5740 -17.4859 -170.4110 0.0000 0.0000 0.0000 -33.6758 12.3815 -60.1937 13.0873 18.8135 69.3964 2.7381 -4.0038 -30.3865 0.9777 6.2944 17.6410 0.0000 0.0000 0.0000 18.0271 18.6191 -12.7146 -2.2573 -9.3827 26.9999 0.8623 -18.2914 2.3764 -0.0598 1.5783 -4.3415 -4.9471 -2.1900 18.2373 -1.2625 -4.3409 2.4920 2.5017 -2.1399 -7.2564 -6.2172 -1.9103 -13.5279 5.9683 -2.3016 -4.3123 2.9215 -1.2211 1.1163 -0.0000 -0.0000 0.0000 -84.8871 -21.3550 45.0377 103.2869 -59.3223 -71.4806 -0.0000 0.0000 -17.2444 25.6373 26.8364 12.2246 -7.1250 0.0000 -0.0000 -5.1452 59.2064 -1.7887 -0.0000 -0.0000 0.0000 75.6895 4.4123 34.5467 -76.6747 59.3183 -48.4863 0.0000 -0.0000 -2.0321 -43.6994 7.0768 -6.7145 7.1250 -0.0000 -0.0000 -12.0943 -20.3331 -7.3005
1.1698 31.7528 -1.4533 177.2850 -17.5794 -171.2580 0.0000 0.0000 0.0000 -33.4743 12.2203 -56.2452 11.9267 18.3595 65.7563 2.6062 -4.1932 -29.5779 1.2696 7.1416 20.1355 0.0000 0.0000 0.0000 17.5022 17.4375 -12.1633 -2.7189 -10.2254 29.7098 0.2901 -10.0720 -0.1143 -0.2711 3.3491 -9.2524 -5.0904 -2.2957 18.6426 -1.5904 -4.5939 2.6590 2.3102 -2.2792 -7.2962 -6.1995 -1.8916 -13.3184 6.3108 -2.2887 -4.3420 3.0371 -1.2096 1.0773 -0.0000 -0.0000 0.0000 -85.3614 -19.8407 44.9881 98.3766 -59.7332 -67.2478 -0.0000 0.0000 -15.5771 25.8595 25.4287 11.7568 -7.1250 0.0000 -0.0000 -4.3143 57.7778 -1.3511 -0.0000 -0.0000 0.0000 76.1438 5.0823 35.7576 -69.2709 58.3124 -42.1498 0.0000 -0.0000 -0.9176 -45.5349 6.7538 -6.8326 7.1250 -0.0000 -0.0000 -13.4235 -20.4959 -8.0956
1.1250 32.0325 -1.5155 177.4190 -18.1095 -171.2360 0.0000 0.0000 0.0000 -33.2435 11.2752 -53.5853 10.7644 17.8178 62.0140 2.3218 -1.7248 -28.3765 1.1324 6.7585 19.0020 0.0000 0.0000 0.0000 17.4680 16.3085 -12.9167 -3.4337 -11.3661 33.5248 0.0761 -5.2783 -4.0494 -0.5780 4.8683 -13.5332 -5.0080 -2.6817 18.2545 -1.4691 -5.0192 2.3973 2.4746 -2.4628 -7.3339 -6.2009 -1.8714 -13.5319 6.0767 -2.2220 -3.6899 2.9630 -1.1573 1.3218 -0.0000 0.0000 0.0000 -85.3070 -18.4039 44.9642 93.0754 -59.9642 -62.6630 -0.0000 0.0000 -14.7030 26.2174 22.9486 10.8687 -7.1250 0.0000 -0.0000 -3.0657 55.2196 -0.7697 -0.0000 0.0000 0.0000 76.2719 5.7286 37.1368 -62.2275 56.8749 -36.2006 0.0000 0.0000 0.2584 -47.5496 6.2185 -6.7533 7.1250 -0.0000 -0.0000 -14.9198 -20.9281 -8.9078
1.1021 32.3283 -1.5782 177.6580 -15.9841 -172.5250 0.0000 0.0000 0.0000 -33.2494 13.6822 -50.7382 9.6055 17.1820 58.1616 2.2511 -1.9463 -27.8723 1.5225 7.7913 22.0820 0.0000 0.0000 0.0000 17.6957 16.1576 -12.4317 -4.3503 -12.6126 37.9349 -0.0990 -3.0576 -7.8779 -0.7913 5.6782 -15.8535 -5.7404 -1.6310 19.1993 -1.5676 -3.8994 2.3981 2.5747 -1.8981 -7.8873 -6.0540 -2.0315 -13.5584 5.9552 -2.4333 -3.3354 2.8825 -1.2533 1.4530 0.0000 0.0000 0.0000 -85.3063 -17.7195 45.6859 86.6082 -59.9565 -57.0630 -0.0000 0.0000 -14.4113 26.3284 19.9376 9.5779 -7.1250 0.0000 -0.0000 -2.1344 52.0016 -0.3681 0.0000 0.0000 0.0000 76.4618 5.7284 37.5915 -57.0948 55.4847 -31.9353 0.0000 0.0000 1.6805 -48.5295 6.0854 -6.8398 7.1250 -0.0000 -0.0000 -15.6185 -20.9611 -9.3448
1.0494 32.6032 -1.6700 178.2680 -15.5826 -172.5480 0.0000 0.0000 0.0000 -32.8027 13.8433 -48.5779 8.5185 16.4877 54.4097 2.0154 -0.5148 -26.7255 1.4110 7.5131 21.2446 0.0000 0.0000 0.0000 18.1882 15.7682 -13.5936 -5.4387 -13.8614 42.6851 -0.3467 -1.1545 -11.6023 -1.0414 6.4901 -18.2133 -5.3650 -1.5574 18.1865 -1.3480 -3.5944 2.2651 2.4768 -1.7528 -7.5093 -8.1111 -2.4191 -15.3026 8.7909 -2.5908 -0.5745 3.8288 -1.1460 2.4955 0.0000 0.0000 0.0000 -85.1439 -17.1330 46.4275 81.1582 -59.7025 -52.3504 -0.0000 0.0000 -13.7322 25.7244 20.4224 9.5431 -7.1250 0.0000 -0.0000 -2.8705 52.4129 -0.5241 0.0000 0.0000 0.0000 76.3458 5.6534 37.8099 -52.5529 53.9746 -28.2261 0.0000 0.0000 5.3419 -49.3004 5.8278 -6.7327 7.1250 -0.0000 -0.0000 -16.2044 -21.2074 -9.6299
