HIERARCHY
ROOT Hips
{
	OFFSET 0.00000 0.00000 0.00000
	CHANNELS 6 Xposition Yposition Zposition Zrotation Yrotation Xrotation 
	JOINT LHipJoint
	{
		OFFSET 0 0 0
		CHANNELS 3 Zrotation Yrotation Xrotation
		JOINT LeftUpLeg
		{
			OFFSET 1.36306 -1.79463 0.83929
			CHANNELS 3 Zrotation Yrotation Xrotation
			JOINT LeftLeg
			{
				OFFSET 2.44811 -6.72613 0.00000
				CHANNELS 3 Zrotation Yrotation Xrotation
				JOINT LeftFoot
				{
					OFFSET 2.56220 -7.03959 0.00000
					CHANNELS 3 Zrotation Yrotation Xrotation
					JOINT LeftToeBase
					{
						OFFSET 0.15764 -0.43311 2.32255
						CHANNELS 3 Zrotation Yrotation Xrotation
						End Site
						{
							OFFSET 0.00000 -0.00000 1.18966
						}
					}
				}
			}
		}
	}
	JOINT RHipJoint
	{
		OFFSET 0 0 0
		CHANNELS 3 Zrotation Yrotation Xrotation
		JOINT RightUpLeg
		{
			OFFSET -1.30552 -1.79463 0.83929
			CHANNELS 3 Zrotation Yrotation Xrotation
			JOINT RightLeg
			{
				OFFSET -2.54253 -6.98555 0.00000
				CHANNELS 3 Zrotation Yrotation Xrotation
				JOINT RightFoot
				{
					OFFSET -2.56826 -7.05623 0.00000
					CHANNELS 3 Zrotation Yrotation Xrotation
					JOINT RightToeBase
					{
						OFFSET -0.16473 -0.45259 2.36315
						CHANNELS 3 Zrotation Yrotation Xrotation
						End Site
						{
							OFFSET -0.00000 -0.00000 1.21082
						}
					}
				}
			}
		}
	}
	JOINT LowerBack
	{
		OFFSET 0 0 0
		CHANNELS 3 Zrotation Yrotation Xrotation
		JOINT Spine
		{
			OFFSET 0.02827 2.03559 -0.19338
			CHANNELS 3 Zrotation Yrotation Xrotation
			JOINT Spine1
			{
				OFFSET 0.05672 2.04885 -0.04275
				CHANNELS 3 Zrotation Yrotation Xrotation
				JOINT Neck
				{
					OFFSET 0 0 0
					CHANNELS 3 Zrotation Yrotation Xrotation
					JOINT Neck1
					{
						OFFSET -0.05417 1.74624 0.17202
						CHANNELS 3 Zrotation Yrotation Xrotation
						JOINT Head
						{
							OFFSET 0.10407 1.76136 -0.12397
							CHANNELS 3 Zrotation Yrotation Xrotation
							End Site
							{
								OFFSET 0.03720 1.77044 -0.06241
							}
						}
					}
				}
				JOINT LeftShoulder
				{
					OFFSET 0 0 0
					CHANNELS 3 Zrotation Yrotation Xrotation
					JOINT LeftArm
					{
						OFFSET 3.36241 1.20089 -0.31121
						CHANNELS 3 Zrotation Yrotation Xrotation
						JOINT LeftForeArm
						{
							OFFSET 4.98300 -0.00000 -0.00000
							CHANNELS 3 Zrotation Yrotation Xrotation
							JOINT LeftHand
							{
								OFFSET 3.48356 -0.00000 -0.00000
								CHANNELS 3 Zrotation Yrotation Xrotation
								JOINT LeftFingerBase
								{
									OFFSET 0 0 0
									CHANNELS 3 Zrotation Yrotation Xrotation
									JOINT LeftHandIndex1
									{
										OFFSET 0.71526 -0.00000 -0.00000
										CHANNELS 3 Zrotation Yrotation Xrotation
										End Site
										{
											OFFSET 0.57666 -0.00000 -0.00000
										}
									}
								}
								JOINT LThumb
								{
									OFFSET 0 0 0
									CHANNELS 3 Zrotation Yrotation Xrotation
									End Site
									{
										OFFSET 0.58547 -0.00000 0.58547
									}
								}
							}
						}
					}
				}
				JOINT RightShoulder
				{
					OFFSET 0 0 0
					CHANNELS 3 Zrotation Yrotation Xrotation
					JOINT RightArm
					{
						OFFSET -3.13660 1.37405 -0.40465
						CHANNELS 3 Zrotation Yrotation Xrotation
						JOINT RightForeArm
						{
							OFFSET -5.24190 -0.00000 -0.00000
							CHANNELS 3 Zrotation Yrotation Xrotation
							JOINT RightHand
							{
								OFFSET -3.44417 -0.00000 -0.00000
								CHANNELS 3 Zrotation Yrotation Xrotation
								JOINT RightFingerBase
								{
									OFFSET 0 0 0
									CHANNELS 3 Zrotation Yrotation Xrotation
									JOINT RightHandIndex1
									{
										OFFSET -0.62253 -0.00000 -0.00000
										CHANNELS 3 Zrotation Yrotation Xrotation
										End Site
										{
											OFFSET -0.50190 -0.00000 -0.00000
										}
									}
								}
								JOINT RThumb
								{
									OFFSET 0 0 0
									CHANNELS 3 Zrotation Yrotation Xrotation
									End Site
									{
										OFFSET -0.50956 -0.00000 0.50956
									}
								}
							}
						}
					}
				}
			}
		}
	}
}
MOTION
Frames: 22
Frame Time: 0.0333333

11.6562 17.3847 13.933 0 0 0 0 0 0 -21 0 0 0 0 0 0 0 0 0 0 0 0 0 0 21 0 0 0 0 0 0 0 0 0 0 0 0 0 0 0 0 0 0 0 0 0 0 -16 0 0 21 0 0 11 0 0 0 -8 0 0 0 0 0 0 0 0 0 0 0 0 0 0 0 0 0 0 0 0 8 0 0 0 0 0 0 0 0 0 0 0 0 0 0 0 0 0
-15.3089 28.5408 -1.6379 -7.6617 11.7331 363.9240 0.0000 0.0000 0.0000 -0.4029 -3.0272 -55.0420 10.2410 17.5431 60.2907 0.1691 5.2671 7.6678 0.1110 -2.1478 -5.9144 0.0000 0.0000 0.0000 17.6753 17.0007 -46.8289 -14.9877 -19.3867 75.1996 0.1831 -8.3188 0.6551 -0.0582 -1.5573 4.2837 7.7145 6.5110 38.9679 -0.8004 11.4683 2.1425 -10.0489 4.4541 -15.1175 0.3882 -7.0744 21.8473 9.8887 -7.9546 -6.7904 3.9143 -4.6469 -5.1459 0.0000 0.0000 0.0000 -86.1317 -56.3272 52.7412 108.3805 -58.6842 -75.8477 -0.0000 -0.0000 69.7586 2.4782 5.8830 0.2542 -7.1250 0.0000 -0.0000 -19.9637 35.2367 5.0444 0.0000 0.0000 0.0000 9.7600 73.1216 -7.1616 -35.5357 45.1909 -15.1922 0.0000 0.0000 11.3918 -28.3682 -9.3560 5.0168 7.1250 -0.0000 -0.0000 -1.2521 -40.5822 -0.1364
-15.2312 28.2672 -1.0664 -8.5343 12.4418 362.8200 0.0000 0.0000 0.0000 0.7564 -1.7626 -50.6743 9.5902 17.1729 58.1096 0.1940 3.7497 7.8694 0.1280 -2.3060 -6.3522 0.0000 0.0000 0.0000 20.5104 17.5712 -41.9911 -15.0512 -19.4024 75.3909 0.2417 -9.4003 0.4140 -0.0521 -1.4724 4.0496 7.7842 6.2766 37.4336 0.8551 11.3994 2.1589 -8.0973 4.4997 -14.8501 -2.2396 -5.9238 20.5755 8.0936 -7.5557 -2.8110 3.5310 -4.1577 -3.6835 -0.0000 0.0000 0.0000 -86.1111 -51.1879 50.8449 117.7375 -56.8833 -83.7700 -0.0000 -0.0000 69.3092 -0.0123 6.3037 -0.0014 -7.1250 0.0000 -0.0000 -22.0382 35.4796 5.4955 -0.0000 0.0000 0.0000 29.9219 71.6724 10.6582 -44.6932 50.6173 -22.0013 0.0000 0.0000 8.2106 -28.8440 -1.1999 0.6608 7.1250 -0.0000 -0.0000 -1.8167 -31.3464 -0.6067
-15.0805 28.0343 -0.3649 -3.7952 14.7642 362.1600 0.0000 0.0000 0.0000 -4.4505 -2.3245 -44.1249 8.6627 16.5857 54.9160 0.2216 3.2235 8.3658 0.1229 -2.2600 -6.2247 0.0000 0.0000 0.0000 17.8234 14.8623 -36.2168 -15.3308 -19.4691 76.2310 0.2382 -9.4036 0.5782 -0.0446 -1.3636 3.7499 4.6215 5.1761 35.1002 0.3944 8.5209 2.4386 -5.6621 3.4887 -14.4988 -5.7426 -4.2086 20.8102 8.9896 -6.2229 0.0284 4.2012 -3.4904 -2.7929 0.0000 -0.0000 0.0000 -83.1128 -47.0030 45.5898 125.4034 -54.6891 -90.1135 -0.0000 -0.0000 68.5511 -2.9538 4.7316 -0.2439 -7.1250 0.0000 -0.0000 -23.8953 33.8542 7.0647 0.0000 -0.0000 0.0000 51.6057 70.2011 29.9815 -52.0011 53.7714 -27.7804 0.0000 0.0000 8.0608 -30.1174 1.0440 -0.6055 7.1250 -0.0000 -0.0000 -2.7627 -28.7685 -1.0933
-15.0227 27.4915 0.2822 -1.9732 16.6771 359.9390 0.0000 0.0000 0.0000 -5.3027 -1.5938 -38.6087 8.2338 16.2886 53.4006 0.2544 2.5095 8.9888 0.2657 -3.3161 -9.1601 0.0000 0.0000 0.0000 19.2189 14.4663 -30.8385 -16.0465 -19.6210 78.3701 0.3659 -11.3977 0.1528 -0.1595 -2.5736 7.0938 1.4419 4.7965 34.9470 1.8910 7.0640 2.6727 -1.7720 3.0706 -14.8727 -8.8946 -2.9273 18.2814 7.5591 -5.3192 4.3129 4.0535 -2.9385 -1.1355 -0.0000 0.0000 0.0000 -82.9463 -44.1149 41.6823 130.5800 -52.7589 -94.2883 -0.0000 -0.0000 68.3940 -6.5765 4.5555 -0.5246 -7.1250 0.0000 -0.0000 -26.5746 33.4731 8.2935 -0.0000 0.0000 0.0000 61.5469 68.1144 41.3687 -61.2268 56.6281 -35.3637 0.0000 0.0000 6.3881 -29.2432 2.7031 -1.5125 7.1250 -0.0000 -0.0000 -2.0230 -26.8812 -0.8902
-14.8672 26.7582 1.0479 -5.6098 19.6357 354.6060 0.0000 0.0000 0.0000 0.0207 0.0421 -33.7310 8.8257 16.6943 55.4855 0.2334 1.3425 8.7526 0.1866 -2.7819 -7.6723 0.0000 0.0000 0.0000 26.9599 11.8681 -23.9521 -16.5328 -19.7093 79.8151 0.4388 -12.6637 0.6631 -0.2245 -3.0502 8.4185 4.6138 2.6185 33.5049 4.3247 5.7330 4.2484 -0.1282 2.4967 -12.4651 -10.7938 -1.8847 12.1669 5.3035 -3.7650 9.7892 3.7777 -2.1558 1.4185 0.0000 -0.0000 0.0000 -82.6345 -43.3287 37.1580 135.2804 -50.6304 -97.9782 -0.0000 -0.0000 66.8781 -10.2403 2.2671 -0.4095 -7.1250 0.0000 -0.0000 -28.5667 31.1869 10.8895 0.0000 -0.0000 0.0000 66.1300 67.4302 48.2195 -71.1417 58.6126 -43.7443 0.0000 0.0000 4.8489 -28.5865 -0.5846 0.3185 7.1250 -0.0000 -0.0000 -1.6032 -30.6434 -0.5624
-14.6444 25.9924 1.8693 -5.0918 24.7631 352.3320 0.0000 0.0000 0.0000 0.5396 -0.3886 -31.1956 9.4184 17.0696 57.5263 0.2449 1.9131 8.8770 0.1145 -2.1815 -6.0075 0.0000 0.0000 0.0000 28.3197 7.1871 -21.3447 -17.0863 -19.7952 81.4530 0.3316 -11.6576 1.8595 -0.0872 -1.9044 5.2416 5.3697 0.9370 31.3021 5.4026 3.8614 4.4003 1.4130 1.6968 -11.4429 -14.5605 -1.8465 8.4508 6.1817 -3.6712 13.7328 4.2763 -2.2648 3.1480 -0.0000 0.0000 0.0000 -82.9269 -43.0787 34.6943 138.6182 -48.8676 -100.5263 -0.0000 -0.0000 63.8538 -11.8413 0.9135 -0.1915 -7.1250 0.0000 -0.0000 -29.2929 29.8748 12.3251 -0.0000 0.0000 0.0000 67.2356 65.0211 49.9508 -81.1246 59.7002 -52.3214 0.0000 0.0000 3.6885 -27.7120 -2.1557 1.1319 7.1250 -0.0000 -0.0000 -0.9106 -32.4135 -0.2807
-14.3782 25.1349 2.7167 -1.9230 29.3038 351.9560 0.0000 0.0000 0.0000 -1.2262 -0.4497 -29.5282 9.8884 17.3466 59.1146 0.2409 4.2603 8.7791 0.0008 -0.1797 -0.4937 0.0000 0.0000 0.0000 26.1219 4.5389 -20.5867 -17.6899 -19.8716 83.2318 0.2479 -10.6433 2.5150 -0.2550 -3.2491 8.9730 3.5353 0.5738 28.3697 5.9228 2.6799 4.7839 3.6918 1.3104 -10.4809 -18.4179 -2.0949 8.5406 6.5612 -4.2629 13.0729 5.0006 -2.7031 3.1211 0.0000 0.0000 0.0000 -82.7290 -44.5003 31.9766 140.4659 -47.7915 -101.9066 -0.0000 -0.0000 61.2630 -13.8266 -0.8017 0.1973 -7.1250 0.0000 -0.0000 -30.1461 28.2126 14.2186 0.0000 0.0000 0.0000 66.8482 63.6194 49.4221 -91.1287 59.9952 -60.9775 0.0000 0.0000 2.2580 -26.1185 -3.3486 1.6404 7.1250 -0.0000 -0.0000 0.4060 -33.7079 0.1124
-14.0108 24.2288 3.6145 3.1364 34.5611 351.9700 0.0000 0.0000 0.0000 -4.8045 -0.7089 -26.7265 10.3102 17.5806 60.5202 0.1385 4.4994 6.8710 0.0218 -0.9523 -2.6175 0.0000 0.0000 0.0000 21.0575 0.6294 -19.0211 -17.7235 -19.8753 83.3307 0.0906 -7.8914 3.3234 -0.2644 -3.3080 9.1374 1.1553 0.4757 26.5326 6.0675 1.8041 4.6679 5.5385 0.9970 -9.7063 -21.7750 -2.4313 6.8916 6.7553 -4.5031 14.8588 5.5669 -3.0184 4.0851 -0.0000 -0.0000 0.0000 -83.5625 -48.3128 30.7130 138.9750 -48.6656 -100.7946 -0.0000 -0.0000 59.3055 -13.5654 -1.0608 0.2559 -7.1250 0.0000 -0.0000 -29.9014 27.9998 14.2455 -0.0000 -0.0000 0.0000 65.3407 62.6790 48.0456 -100.3854 59.5885 -68.9816 0.0000 0.0000 1.8592 -25.5224 -4.2425 2.0229 7.1250 -0.0000 -0.0000 0.9281 -34.6780 0.2352
-13.5632 23.2702 4.5324 5.6597 39.6817 350.4850 0.0000 0.0000 0.0000 -5.4636 -0.1354 -24.6863 10.9018 17.8867 62.4624 0.0916 4.7502 5.9044 0.0001 -0.0762 -0.2095 0.0000 0.0000 0.0000 17.7856 -2.7140 -17.1910 -17.2954 -19.8237 82.0700 0.0494 -5.8897 2.5186 -0.1715 -2.6677 7.3548 1.1041 0.1707 25.2849 6.8816 1.4730 4.4061 6.5967 0.8740 -9.3528 -23.9964 -2.7027 6.1149 5.6618 -4.5314 16.1669 5.5376 -3.2299 4.7163 0.0000 -0.0000 0.0000 -78.6380 -49.0781 22.0397 140.5267 -47.7547 -101.9517 -0.0000 -0.0000 51.9877 -16.3240 -3.4695 1.0154 -7.1250 0.0000 -0.0000 -31.0193 25.6529 17.0475 0.0000 -0.0000 0.0000 64.9055 62.3859 46.9469 -107.6517 58.7893 -75.2246 0.0000 0.0000 1.3124 -24.5071 -5.0938 2.3178 7.1250 -0.0000 -0.0000 1.8143 -35.5700 0.4206
-13.0386 22.2930 5.4910 7.4579 44.8783 347.6480 0.0000 0.0000 0.0000 -5.1861 1.0113 -22.3252 11.6504 18.2389 64.8762 0.0834 4.3557 5.5745 0.0030 -0.3534 -0.9710 0.0000 0.0000 0.0000 14.7677 -5.1785 -13.8429 -16.5195 -19.7071 79.7759 0.0833 -5.4815 0.1042 -0.1293 -2.3176 6.3841 1.9944 -0.0134 25.3213 7.2806 1.5952 3.7267 6.5186 0.9417 -10.1491 -26.6166 -3.0114 5.6007 6.1877 -4.7347 19.3692 6.1347 -3.6260 5.9923 0.0000 0.0000 0.0000 -74.8327 -51.3601 15.9077 137.5991 -49.4297 -99.7554 -0.0000 -0.0000 47.0380 -17.0682 -4.3576 1.3364 -7.1250 0.0000 -0.0000 -31.2425 24.8017 17.9770 0.0000 0.0000 0.0000 65.3873 62.0431 46.3923 -113.1849 57.8681 -79.9350 0.0000 0.0000 1.5473 -23.2375 -7.9144 3.3835 7.1250 -0.0000 -0.0000 3.1105 -38.5656 0.4935
-12.4490 21.2904 6.4893 5.0446 49.0206 341.9260 0.0000 0.0000 0.0000 -0.6768 2.5542 -20.7079 12.7026 18.6721 68.1992 0.0866 2.9147 5.3067 0.0702 1.7092 4.7027 0.0000 0.0000 0.0000 15.3726 -5.7031 -10.8900 -15.7521 -19.5618 77.4922 0.1824 -7.5663 -2.2149 -0.0748 -1.7641 4.8541 4.9602 -0.2882 24.7150 8.3519 2.2074 3.2955 5.8189 1.1727 -10.3332 -26.4430 -3.2432 7.1666 5.0846 -5.2238 19.7724 5.7326 -3.9164 5.9542 -0.0000 0.0000 0.0000 -68.6969 -54.0201 8.1622 131.8025 -52.2421 -95.2582 -0.0000 -0.0000 43.1386 -16.1833 -5.4430 1.5769 -7.1250 0.0000 -0.0000 -30.4196 23.8997 18.1019 -0.0000 0.0000 0.0000 65.8083 63.7341 45.8077 -116.0394 57.2762 -82.3445 0.0000 0.0000 1.5830 -21.5691 -11.4358 4.4815 7.1250 -0.0000 -0.0000 5.0184 -42.1977 0.3479
-11.8016 20.4049 7.5438 2.5342 53.2987 335.9410 0.0000 0.0000 0.0000 3.1561 4.1210 -19.1962 13.5450 18.9702 70.8099 0.0607 0.7756 4.4437 0.1458 2.4609 6.7813 0.0000 0.0000 0.0000 15.8894 -4.7433 -7.5020 -14.9058 -19.3661 74.9529 0.3681 -10.7442 -5.2128 -0.2633 -3.3014 9.1190 6.6823 -0.3707 24.0301 9.3908 2.7360 2.6707 5.8645 1.4084 -10.7127 -27.0047 -3.3825 6.9517 4.9122 -5.1033 22.5011 5.8027 -4.0436 6.9264 0.0000 0.0000 0.0000 -63.0744 -56.2665 0.3248 123.8054 -55.2076 -88.8053 -0.0000 -0.0000 39.0571 -17.1183 -8.9359 2.7389 -7.1250 0.0000 -0.0000 -30.1483 20.6913 20.5606 0.0000 0.0000 0.0000 66.0951 65.5913 45.3634 -116.2444 57.2304 -82.5170 0.0000 0.0000 3.2617 -19.6844 -14.3956 5.0826 7.1250 -0.0000 -0.0000 7.2777 -45.1031 -0.0186
-11.1130 19.5880 8.5720 2.2385 58.9762 331.7990 0.0000 0.0000 0.0000 3.7697 4.4067 -18.0269 14.2790 19.1965 73.0549 0.0193 -0.0878 2.6539 0.2936 3.4841 9.6296 0.0000 0.0000 0.0000 13.5957 -3.5896 -5.0159 -14.4667 -19.2495 73.6248 0.4142 -12.4959 -10.2730 -0.3594 -3.8514 10.6591 5.8741 -0.7550 23.9447 9.3080 2.1184 1.7343 6.4952 1.1609 -11.7336 -27.8698 -2.9025 6.6182 6.0895 -4.4663 23.8296 6.4199 -3.8005 7.3705 0.0000 -0.0000 0.0000 -54.6267 -57.1755 -7.5687 111.7100 -58.1420 -78.6842 -0.0000 -0.0000 37.5276 -12.5197 -8.6183 1.9058 -7.1250 0.0000 -0.0000 -27.4252 21.2586 17.7209 0.0000 -0.0000 0.0000 70.6933 67.6994 49.2538 -114.6994 57.5645 -81.2154 0.0000 0.0000 5.3568 -19.4221 -18.8419 6.4964 7.1250 -0.0000 -0.0000 8.6803 -49.6734 -1.0069
-10.3825 18.8906 9.6515 -1.4596 63.9566 324.2360 0.0000 0.0000 0.0000 5.7229 5.7286 -16.5590 14.9924 19.3878 75.2137 -0.0140 -2.1034 0.6238 0.0894 1.9283 5.3076 0.0000 0.0000 0.0000 13.4768 -1.3911 -1.7854 -14.0336 -19.1242 72.3071 0.4672 -13.8020 -12.3785 -0.7515 -5.5371 15.4471 5.4523 -0.9768 23.9890 9.6558 1.8820 1.0493 7.2856 1.1164 -12.5726 -27.7505 -2.5209 8.8165 5.8945 -4.4998 23.4367 6.3551 -3.7780 6.8875 0.0000 -0.0000 0.0000 -47.9398 -58.3919 -14.3766 98.9536 -59.6949 -67.7461 -0.0000 -0.0000 34.0913 -10.9276 -10.5119 2.0173 -7.1250 0.0000 -0.0000 -26.0646 19.5995 17.7284 0.0000 -0.0000 0.0000 73.2337 70.1050 50.9842 -110.7108 58.3155 -77.8347 0.0000 0.0000 7.4883 -17.1566 -21.0391 6.3244 7.1250 -0.0000 -0.0000 11.6355 -51.5396 -1.8956
-9.6188 18.2829 10.6999 -10.7450 68.6148 312.1690 0.0000 0.0000 0.0000 8.1347 6.5700 -17.0323 16.1373 19.6384 78.6404 -0.0157 -3.7592 -1.8597 0.0232 0.9838 2.7041 0.0000 0.0000 0.0000 14.0438 0.1457 -0.0730 -13.6415 -19.0017 71.1066 0.6439 -14.8700 -10.7730 -0.4085 -4.1029 11.3663 4.8937 -1.8740 23.3111 10.3003 0.6865 0.4091 8.8251 0.6712 -12.8582 -29.1687 -1.8194 6.5930 7.3386 -2.9376 26.3808 7.2582 -3.1950 8.0467 -0.0000 0.0000 0.0000 -39.1698 -57.9932 -22.0464 85.4018 -59.9200 -56.0189 -0.0000 -0.0000 30.9612 -9.5054 -12.2081 2.0279 -7.1250 0.0000 -0.0000 -24.8855 18.0870 17.6826 -0.0000 0.0000 0.0000 79.5326 72.8585 56.9365 -106.0199 59.0077 -73.8274 0.0000 0.0000 10.3035 -15.0370 -22.8398 5.9530 7.1250 -0.0000 -0.0000 14.4698 -52.9615 -2.8825
-8.8338 17.8468 11.7237 -21.1612 72.6441 298.6740 0.0000 0.0000 0.0000 8.5088 7.8595 -16.0679 16.9874 19.7810 81.1608 0.0275 -3.7607 -3.7139 0.1518 2.5105 6.9189 0.0000 0.0000 0.0000 13.4960 2.6523 2.0152 -13.0952 -18.8163 69.4210 0.5393 -14.0017 -11.0663 -0.7948 -5.6906 15.8892 3.3377 -2.3085 23.2969 10.2252 -0.2616 -0.1891 10.0500 0.3620 -13.4224 -28.3840 -0.9765 8.1122 7.7405 -2.2521 26.2121 7.3276 -2.7277 7.5578 -0.0000 -0.0000 0.0000 -31.8116 -59.0376 -28.0134 72.0428 -58.7458 -44.5141 -0.0000 -0.0000 29.4696 -8.1786 -13.8649 1.9725 -7.1250 0.0000 -0.0000 -23.8069 16.5848 17.6272 -0.0000 -0.0000 0.0000 87.9565 74.7363 63.7769 -100.3339 59.5926 -68.9372 0.0000 0.0000 12.5594 -14.3521 -23.5371 5.8341 7.1250 -0.0000 -0.0000 15.4732 -53.5207 -3.3041
-8.0468 17.5167 12.6719 -37.7882 74.6944 279.8150 0.0000 0.0000 0.0000 9.3835 10.0772 -15.8873 17.8034 19.8839 83.5657 0.0400 -4.2799 -4.3597 0.0342 1.1939 3.2825 0.0000 0.0000 0.0000 13.4285 4.6410 2.7904 -12.4316 -18.5672 67.3505 0.5654 -13.9059 -9.9047 -1.2495 -7.0872 19.9739 1.6419 -2.9515 23.0268 11.0441 -1.4210 -0.8631 11.7141 -0.0769 -13.5219 -27.3366 -0.5678 8.9447 6.3880 -1.5250 26.4602 6.7104 -2.3414 7.3824 0.0000 0.0000 0.0000 -25.9177 -58.5618 -34.4381 62.0238 -56.8255 -36.0301 -0.0000 -0.0000 28.1399 -6.9845 -16.5528 1.9990 -7.1250 0.0000 -0.0000 -22.7171 14.1022 18.0007 0.0000 0.0000 0.0000 99.1255 76.3228 74.6297 -95.3010 59.8935 -64.5892 0.0000 0.0000 14.7004 -13.7980 -24.2981 5.7705 7.1250 -0.0000 -0.0000 16.4010 -54.1574 -3.7687
-7.2498 17.3441 13.5512 -55.8030 74.0283 259.4160 0.0000 0.0000 0.0000 10.3196 11.0963 -14.0609 18.2130 19.9233 84.7687 0.0230 -4.7950 -4.1059 0.0634 1.6243 4.4684 0.0000 0.0000 0.0000 14.0047 5.4078 3.9980 -11.3674 -18.1102 63.9690 0.7496 -15.1278 -6.1714 -0.3878 -3.9989 11.0737 0.4935 -3.5929 23.2931 11.9416 -2.3471 -1.1181 13.8141 -0.3125 -13.7604 -27.3861 0.3878 10.4580 6.4525 -0.6614 25.4416 6.7289 -1.8270 6.6472 0.0000 0.0000 0.0000 -20.4811 -58.6626 -39.7825 53.4366 -54.2909 -28.9422 -0.0000 -0.0000 26.0967 -5.8708 -17.7853 1.7989 -7.1250 0.0000 -0.0000 -21.8978 12.9499 17.8167 0.0000 0.0000 0.0000 109.5474 77.3600 85.0174 -91.0177 59.9961 -60.8814 0.0000 0.0000 16.8932 -12.3371 -24.4778 5.1781 7.1250 -0.0000 -0.0000 17.9415 -54.0589 -4.0961
-6.5170 17.2904 14.3099 -68.7700 72.8118 245.3050 0.0000 0.0000 0.0000 9.2615 12.5749 -13.0231 18.4160 19.9397 85.3641 0.0040 -5.2625 -3.8112 0.0359 1.2232 3.3633 0.0000 0.0000 0.0000 13.4641 6.8184 3.7160 -10.3333 -17.5931 60.5966 0.7799 -15.4244 -6.4141 -0.4179 -4.1494 11.4972 -0.5586 -4.1695 23.0549 12.1324 -3.3538 -1.6233 15.0587 -0.6502 -13.9353 -28.6484 1.4948 9.4170 8.2346 0.8965 26.5141 7.6533 -1.0984 6.8671 0.0000 -0.0000 0.0000 -15.9735 -57.8709 -44.1908 48.4243 -52.3399 -24.9212 -0.0000 -0.0000 24.7968 -6.4424 -15.6345 1.7431 -7.1250 0.0000 -0.0000 -22.4949 14.9557 17.3416 0.0000 -0.0000 0.0000 123.3362 77.9845 98.3012 -87.4395 59.9752 -57.7827 0.0000 0.0000 18.6869 -11.1937 -26.0011 4.9582 7.1250 -0.0000 -0.0000 19.9340 -55.2858 -5.1844
-5.7961 17.2919 15.0088 -78.8436 71.2624 233.9330 0.0000 0.0000 0.0000 8.6388 15.4527 -11.4291 18.4535 19.9426 85.4743 -0.0863 -6.7980 -2.1846 0.0136 0.7533 2.0702 0.0000 0.0000 0.0000 12.1375 7.3407 3.0553 -9.5551 -17.1520 57.9909 0.7822 -15.4353 -5.9689 -0.2836 -3.4248 9.4638 -2.4595 -4.6366 23.3625 12.5802 -4.4177 -1.7964 17.1822 -0.9485 -13.8900 -28.7022 2.4870 9.5929 7.8943 2.2652 25.7005 7.5038 -0.3695 6.3310 0.0000 -0.0000 0.0000 -11.0778 -54.6651 -46.5413 45.0756 -50.8055 -22.2973 -0.0000 -0.0000 21.1492 -4.3575 -19.4329 1.4522 -7.1250 0.0000 -0.0000 -20.8181 11.3864 17.5273 0.0000 -0.0000 0.0000 136.4664 77.5867 112.1513 -84.8355 59.8990 -55.5289 0.0000 0.0000 20.3962 -12.1215 -26.7695 5.5253 7.1250 -0.0000 -0.0000 19.4730 -56.1924 -5.4924
-5.1153 17.3963 15.6208 -84.6751 69.6656 227.2500 0.0000 0.0000 0.0000 8.3290 19.5119 -9.9879 18.3560 19.9351 85.1884 -0.1727 -7.8058 0.0435 0.0984 -2.0226 -5.5681 0.0000 0.0000 0.0000 10.9894 8.2739 1.9461 -8.9192 -16.7554 55.8101 0.7308 -14.9546 -4.7472 -0.1173 -2.2080 6.0807 -3.8527 -5.1307 22.9489 12.7906 -5.4682 -2.0542 18.6331 -1.3402 -13.5167 -29.5122 3.6650 9.6593 7.8209 3.9323 25.8274 7.5967 0.4151 6.0961 -0.0000 0.0000 0.0000 -8.1086 -52.5134 -48.8033 42.5308 -49.4998 -20.3433 -0.0000 -0.0000 19.2453 -3.5435 -20.0958 1.2189 -7.1250 0.0000 -0.0000 -20.2696 10.7446 17.2830 -0.0000 0.0000 0.0000 146.0992 76.6046 122.4159 -84.3267 59.8780 -55.0888 0.0000 0.0000 20.7429 -11.0883 -27.6376 5.1945 7.1250 -0.0000 -0.0000 21.0700 -56.7944 -6.2826
