HIERARCHY
ROOT Hips
{
	OFFSET 0.00000 0.00000 0.00000
	CHANNELS 6 Xposition Yposition Zposition Zrotation Yrotation Xrotation 
	JOINT LHipJoint
	{
		OFFSET 0 0 0
		CHANNELS 3 Zrotation Yrotation Xrotation
		JOINT LeftUpLeg
		{
			OFFSET 1.57338 -1.94743 0.52196
			CHANNELS 3 Zrotation Yrotation Xrotation
			JOINT LeftLeg
			{
				OFFSET 2.60333 -7.15259 0.00000
				CHANNELS 3 Zrotation Yrotation Xrotation
				JOINT LeftFoot
				{
					OFFSET 2.77855 -7.63400 0.00000
					CHANNELS 3 Zrotation Yrotation Xrotation
					JOINT LeftToeBase
					{
						OFFSET 0.19847 -0.54529 2.28466
						CHANNELS 3 Zrotation Yrotation Xrotation
						End Site
						{
							OFFSET 0.00000 -0.00000 1.17993
						}
					}
				}
			}
		}
	}
	JOINT RHipJoint
	{
		OFFSET 0 0 0
		CHANNELS 3 Zrotation Yrotation Xrotation
		JOINT RightUpLeg
		{
			OFFSET -1.61527 -1.94743 0.52196
			CHANNELS 3 Zrotation Yrotation Xrotation
			JOINT RightLeg
			{
				OFFSET -2.53829 -6.97390 0.00000
				CHANNELS 3 Zrotation Yrotation Xrotation
				JOINT RightFoot
				{
					OFFSET -2.80762 -7.71387 0.00000
					CHANNELS 3 Zrotation Yrotation Xrotation
					JOINT RightToeBase
					{
						OFFSET -0.30536 -0.83898 2.28801
						CHANNELS 3 Zrotation Yrotation Xrotation
						End Site
						{
							OFFSET -0.00000 -0.00000 1.21323
						}
					}
				}
			}
		}
	}
	JOINT LowerBack
	{
		OFFSET 0 0 0
		CHANNELS 3 Zrotation Yrotation Xrotation
		JOINT Spine
		{
			OFFSET -0.04381 1.99497 -0.19778
			CHANNELS 3 Zrotation Yrotation Xrotation
			JOINT Spine1
			{
				OFFSET -0.01959 2.01295 -0.04372
				CHANNELS 3 Zrotation Yrotation Xrotation
				JOINT Neck
				{
					OFFSET 0 0 0
					CHANNELS 3 Zrotation Yrotation Xrotation
					JOINT Neck1
					{
						OFFSET -0.05459 1.76913 0.09708
						CHANNELS 3 Zrotation Yrotation Xrotation
						JOINT Head
						{
							OFFSET 0.09461 1.77368 -0.11172
							CHANNELS 3 Zrotation Yrotation Xrotation
							End Site
							{
								OFFSET 0.03812 1.78157 -0.04834
							}
						}
					}
				}
				JOINT LeftShoulder
				{
					OFFSET 0 0 0
					CHANNELS 3 Zrotation Yrotation Xrotation
					JOINT LeftArm
					{
						OFFSET 3.50922 1.24034 -0.28866
						CHANNELS 3 Zrotation Yrotation Xrotation
						JOINT LeftForeArm
						{
							OFFSET 5.40188 -0.00000 0.00000
							CHANNELS 3 Zrotation Yrotation Xrotation
							JOINT LeftHand
							{
								OFFSET 3.68559 -0.00000 0.00000
								CHANNELS 3 Zrotation Yrotation Xrotation
								JOINT LeftFingerBase
								{
									OFFSET 0 0 0
									CHANNELS 3 Zrotation Yrotation Xrotation
									JOINT LeftHandIndex1
									{
										OFFSET 0.61753 -0.00000 0.00000
										CHANNELS 3 Zrotation Yrotation Xrotation
										End Site
										{
											OFFSET 0.49787 -0.00000 0.00000
										}
									}
								}
								JOINT LThumb
								{
									OFFSET 0 0 0
									CHANNELS 3 Zrotation Yrotation Xrotation
									End Site
									{
										OFFSET 0.50547 -0.00000 0.50547
									}
								}
							}
						}
					}
				}
				JOINT RightShoulder
				{
					OFFSET 0 0 0
					CHANNELS 3 Zrotation Yrotation Xrotation
					JOINT RightArm
					{
						OFFSET -2.95373 1.39649 -0.27346
						CHANNELS 3 Zrotation Yrotation Xrotation
						JOINT RightForeArm
						{
							OFFSET -6.10670 -0.00000 -0.00000
							CHANNELS 3 Zrotation Yrotation Xrotation
							JOINT RightHand
							{
								OFFSET -3.63052 -0.00000 0.00000
								CHANNELS 3 Zrotation Yrotation Xrotation
								JOINT RightFingerBase
								{
									OFFSET 0 0 0
									CHANNELS 3 Zrotation Yrotation Xrotation
									JOINT RightHandIndex1
									{
										OFFSET -0.58385 -0.00000 0.00000
										CHANNELS 3 Zrotation Yrotation Xrotation
										End Site
										{
											OFFSET -0.47071 -0.00000 0.00000
										}
									}
								}
								JOINT RThumb
								{
									OFFSET 0 0 0
									CHANNELS 3 Zrotation Yrotation Xrotation
									End Site
									{
										OFFSET -0.47790 -0.00000 0.47790
									}
								}
							}
						}
					}
				}
			}
		}
	}
}
MOTION
Frames: 93
Frame Time: 0.0333333

7.6355 18.7436 8.0529 0 0 0 0 0 0 -21 0 0 0 0 0 0 0 0 0 0 0 0 0 0 21 0 0 0 0 0 0 0 0 0 0 0 0 0 0 0 0 0 0 0 0 0 0 -16 0 0 21 0 0 11 0 0 0 -8 0 0 0 0 0 0 0 0 0 0 0 0 0 0 0 0 0 0 0 0 8 0 0 0 0 0 0 0 0 0 0 0 0 0 0 0 0 0
-0.0412 33.0025 -2.8310 182.1470 -19.7182 -171.0780 0.0000 0.0000 0.0000 -23.7948 15.0879 -49.4649 10.9681 17.9194 62.6778 -0.1874 -14.4112 -7.7819 0.0794 1.8179 5.0026 0.0000 0.0000 0.0000 21.8759 23.4243 -6.0690 -3.0526 -10.7798 31.5408 0.0073 -6.3697 4.2687 -0.0081 0.5824 -1.6003 -6.4425 -3.7597 15.7110 -1.5733 -6.4501 1.2112 3.3042 -3.0552 -6.9722 -13.3395 -6.8224 -22.3734 14.5681 -8.8133 18.4518 6.0761 -3.4478 10.9499 0.0000 0.0000 0.0000 -74.9292 -16.0584 63.5975 89.3732 -59.9985 -59.4572 -0.0000 0.0000 -15.6366 40.1278 25.2786 19.7958 -7.1250 0.0000 -0.0000 12.9368 61.2178 5.1586 0.0000 0.0000 0.0000 73.6802 2.8998 34.9796 -55.3974 54.9532 -30.5411 0.0000 -0.0000 -4.4366 -54.8329 8.0235 -11.2056 7.1250 -0.0000 -0.0000 -19.2047 -16.6622 -13.6898
0.0331 32.7689 -2.7382 180.6870 -20.0506 -170.1790 0.0000 0.0000 0.0000 -25.0782 14.6602 -51.8467 11.8684 18.3345 65.5711 -0.2978 -15.3396 -7.1614 0.0861 1.8927 5.2092 0.0000 0.0000 0.0000 20.2652 22.8623 -7.3376 -2.8624 -10.4688 30.5087 0.1309 -8.5313 2.8993 -0.0003 -0.1038 0.2851 -7.6274 -3.6480 16.9720 -1.8928 -6.7042 1.2698 3.7810 -3.1384 -7.4938 -7.2572 -5.3734 -19.2660 7.1448 -6.5749 12.5425 2.7294 -2.8492 7.4884 -0.0000 0.0000 0.0000 -74.1050 -17.3027 63.8431 95.4226 -59.8886 -64.6944 -0.0000 0.0000 -15.7464 40.6459 26.5689 21.0058 -7.1250 0.0000 -0.0000 13.6494 62.8619 5.9788 -0.0000 0.0000 0.0000 73.8264 2.0963 34.7965 -58.3937 55.8665 -33.0080 0.0000 -0.0000 -4.9299 -54.7810 7.4449 -10.4010 7.1250 -0.0000 -0.0000 -19.3440 -17.5936 -13.3798
0.1147 32.5465 -2.6491 180.0220 -21.0319 -169.5280 0.0000 0.0000 0.0000 -25.4120 13.8117 -54.3410 12.8920 18.7428 68.7898 -0.2674 -14.8894 -7.1326 0.0005 0.1425 0.3915 0.0000 0.0000 0.0000 19.6720 22.3004 -8.2075 -2.6266 -10.0645 29.1858 0.2690 -10.6187 1.8635 -0.0001 0.0706 -0.1940 -7.9324 -3.7887 17.9600 -2.0311 -7.0822 1.5214 3.9615 -3.3210 -7.7067 -7.9775 -5.0651 -12.7718 9.6670 -6.2993 1.2679 3.8203 -2.9325 3.0040 0.0000 -0.0000 0.0000 -73.3892 -18.6099 63.7550 101.9400 -59.4544 -70.3214 -0.0000 0.0000 -15.3910 41.4015 27.9226 22.4340 -7.1250 0.0000 -0.0000 14.7589 64.6456 7.0905 0.0000 -0.0000 0.0000 74.3105 1.6296 35.0611 -60.7714 56.5120 -34.9837 0.0000 -0.0000 -6.6240 -55.7480 7.4607 -10.7961 7.1250 -0.0000 -0.0000 -19.9417 -17.3013 -13.9870
0.1988 32.3036 -2.5549 179.6090 -22.0187 -168.7870 0.0000 0.0000 0.0000 -25.3742 12.7301 -57.0944 14.0166 19.1191 72.2551 -0.3044 -15.0053 -6.7259 0.0012 0.2230 0.6126 0.0000 0.0000 0.0000 19.2999 22.7267 -9.0746 -2.4308 -9.7109 28.0456 0.3811 -12.1546 1.3600 -0.0065 0.5223 -1.4352 -7.8201 -3.8525 18.6643 -2.0719 -7.2276 1.7246 3.9471 -3.3987 -7.8738 -9.4590 -6.8806 -14.9526 11.2769 -8.5488 2.4620 4.2954 -3.9316 4.0526 0.0000 0.0000 0.0000 -72.9686 -20.3610 64.0136 107.3758 -58.8279 -74.9886 -0.0000 0.0000 -15.2226 42.1749 29.5035 24.0444 -7.1250 0.0000 -0.0000 16.0015 66.6897 8.4545 0.0000 0.0000 0.0000 75.1855 1.2150 34.2068 -63.1301 57.0879 -36.9575 0.0000 -0.0000 -7.5398 -57.2463 6.3388 -9.7384 7.1250 -0.0000 -0.0000 -21.2293 -18.7295 -14.3013
0.2934 32.0625 -2.4583 178.7510 -21.2812 -168.2260 0.0000 0.0000 0.0000 -26.0858 13.2323 -59.5457 14.9681 19.3818 75.1406 -0.5480 -16.9362 -5.4252 0.1615 2.5890 7.1365 0.0000 0.0000 0.0000 18.1876 23.5955 -9.7442 -2.2487 -9.3660 26.9470 0.3631 -12.2832 2.1072 -0.0107 0.6692 -1.8390 -8.8056 -3.2772 19.3350 -2.2396 -6.8061 1.9634 4.2668 -3.1907 -7.9394 -9.7553 -6.9117 -15.1682 11.4254 -8.5254 2.1385 4.3893 -3.9235 4.0051 0.0000 0.0000 0.0000 -72.7834 -21.9284 63.7202 112.4877 -58.0002 -79.3441 -0.0000 0.0000 -15.3798 42.1070 31.7660 25.4452 -7.1250 0.0000 -0.0000 15.9192 69.2228 9.3214 0.0000 0.0000 0.0000 76.1713 1.1903 32.7394 -67.5959 58.0157 -40.7267 0.0000 -0.0000 -7.2745 -58.3194 5.2333 -8.4072 7.1250 -0.0000 -0.0000 -22.2796 -20.3292 -14.2549
0.3910 31.8161 -2.3917 178.4330 -21.2772 -167.8450 0.0000 0.0000 0.0000 -25.9553 13.2687 -61.8436 15.9048 19.5931 77.9480 -0.5926 -17.5422 -5.5669 0.0220 0.9578 2.6326 0.0000 0.0000 0.0000 17.9995 24.0319 -9.9834 -2.0135 -8.8942 25.4650 0.5158 -13.9396 1.2355 -0.0037 -0.3935 1.0811 -8.9984 -3.1525 19.5800 -2.3808 -6.7429 2.0969 4.2232 -3.1711 -7.9322 -9.5374 -6.7923 -14.9733 11.2432 -8.3965 2.1300 4.3157 -3.8676 3.9399 -0.0000 0.0000 0.0000 -72.2684 -23.5044 63.1780 116.8684 -57.0883 -83.0412 -0.0000 0.0000 -15.9773 42.4034 34.3322 27.2509 -7.1250 0.0000 -0.0000 16.3981 72.1635 10.6700 -0.0000 0.0000 0.0000 77.3824 0.7261 30.8555 -74.5123 59.0740 -46.6290 0.0000 -0.0000 -6.3520 -58.0457 5.9606 -9.4520 7.1250 -0.0000 -0.0000 -21.8525 -19.1520 -14.5661
0.4944 31.5709 -2.3099 177.6320 -21.5899 -166.9940 0.0000 0.0000 0.0000 -26.1456 12.1963 -64.0239 16.8023 19.7531 80.6135 -0.5873 -17.4520 -5.5247 0.0043 0.4255 1.1691 0.0000 0.0000 0.0000 17.3416 24.0756 -10.6587 -1.8284 -8.4990 24.2404 0.6600 -15.3034 0.4109 -0.0089 0.6100 -1.6764 -9.3454 -3.3000 19.5822 -2.5736 -7.0469 2.0373 4.2789 -3.3107 -7.9479 -9.5183 -6.5783 -15.0590 11.2690 -8.1218 2.6766 4.3423 -3.7077 4.0933 -0.0000 -0.0000 0.0000 -71.5633 -24.8758 62.2898 119.8762 -56.3428 -85.5559 -0.0000 0.0000 -16.7101 42.8991 34.9214 28.0102 -7.1250 0.0000 -0.0000 17.3850 72.9690 11.6259 -0.0000 -0.0000 0.0000 77.6041 0.3569 30.3725 -81.2269 59.7072 -52.4098 0.0000 -0.0000 -7.8758 -57.6885 5.5718 -8.7278 7.1250 -0.0000 -0.0000 -21.7656 -19.9076 -14.0965
0.6010 31.3316 -2.2279 176.8510 -21.7226 -166.1090 0.0000 0.0000 0.0000 -26.5721 11.3673 -66.4081 17.7125 19.8741 83.2983 -0.5574 -17.4239 -5.9165 0.0002 -0.0957 -0.2630 0.0000 0.0000 0.0000 16.6990 24.2011 -11.4855 -1.7078 -8.2288 23.4113 0.9169 -17.3096 -1.4319 -0.0002 0.0996 -0.2736 -10.8086 -3.0400 19.3627 -1.9035 -6.9028 1.9809 5.7489 -3.1916 -7.6497 -10.4008 -6.6404 -14.8498 11.1471 -8.0183 2.5690 4.4620 -3.6713 4.0433 0.0000 0.0000 0.0000 -72.0712 -26.7710 62.0634 122.0353 -55.7427 -87.3469 -0.0000 0.0000 -17.1842 46.7562 36.0341 32.0252 -7.1250 0.0000 -0.0000 26.5953 75.3766 19.3157 0.0000 0.0000 0.0000 76.0624 0.3625 29.7778 -87.0651 59.9674 -57.4586 0.0000 -0.0000 -8.2573 -56.9570 4.2622 -6.5182 7.1250 -0.0000 -0.0000 -21.7588 -22.2845 -12.8112
0.7026 31.0822 -2.1543 176.6810 -21.8870 -165.6790 0.0000 0.0000 0.0000 -26.0867 10.4639 -68.6176 18.6848 19.9585 86.1521 -0.5200 -17.5151 -6.5409 0.0281 -1.0830 -2.9773 0.0000 0.0000 0.0000 16.9411 23.8985 -11.9242 -1.5922 -7.9593 22.5905 1.1883 -19.5051 -2.0018 -0.0003 0.1060 -0.2912 -10.6526 -3.2023 18.9942 -1.8705 -7.0210 2.1216 5.6786 -3.2849 -7.2868 -10.5748 -6.6236 -15.3136 11.1948 -7.9417 2.8067 4.5009 -3.6174 4.1897 0.0000 0.0000 0.0000 -70.7391 -28.4910 60.9699 124.2141 -55.0782 -89.1406 -0.0000 0.0000 -17.8201 47.8182 36.8389 33.4907 -7.1250 0.0000 -0.0000 29.9928 76.5408 22.5794 0.0000 0.0000 0.0000 75.3786 0.5608 30.0581 -92.1309 59.9828 -61.8453 0.0000 -0.0000 -8.5141 -56.9578 2.7789 -4.2626 7.1250 -0.0000 -0.0000 -22.2962 -24.7817 -11.7726
0.8035 30.8273 -2.0979 176.2270 -22.2805 -166.1790 0.0000 0.0000 0.0000 -25.4826 9.8364 -69.4062 19.6518 19.9971 88.9820 -0.5154 -17.9460 -7.1040 0.0513 -1.4611 -4.0186 0.0000 0.0000 0.0000 17.6560 23.0963 -10.5655 -1.4689 -7.6591 21.6832 1.3088 -20.6441 -1.3025 -0.0875 1.9076 -5.2502 -10.4167 -3.0934 19.5402 -2.0737 -6.9391 2.4564 5.3502 -3.2848 -7.2847 -10.8044 -6.6973 -15.4490 11.5394 -8.0170 2.6775 4.6366 -3.6433 4.2066 -0.0000 -0.0000 0.0000 -68.7337 -30.3352 60.0882 125.8685 -54.5317 -90.4927 -0.0000 0.0000 -18.4710 47.1901 37.8894 33.5436 -7.1250 0.0000 -0.0000 28.8624 77.4812 22.2441 -0.0000 -0.0000 0.0000 74.8667 -0.0066 29.8515 -97.3068 59.7973 -66.3235 0.0000 -0.0000 -8.7273 -56.9890 3.0632 -4.7021 7.1250 -0.0000 -0.0000 -22.2120 -24.2979 -11.9941
0.9156 30.5387 -2.0375 175.1570 -23.1043 -166.4870 0.0000 0.0000 0.0000 -25.5468 8.8124 -69.9125 20.4660 19.9948 91.3627 -0.5296 -18.3158 -7.3491 0.0207 -0.9298 -2.5557 0.0000 0.0000 0.0000 17.8014 22.2853 -9.5004 -1.4763 -7.6774 21.7385 1.4264 -20.8896 -3.9942 -0.1910 2.8146 -7.7630 -9.3661 -3.3943 20.9474 -3.0563 -7.4447 1.9839 4.0012 -3.4708 -8.7715 -10.3168 -6.2765 -14.3019 11.5822 -7.6358 3.0961 4.6325 -3.4548 4.0968 0.0000 -0.0000 0.0000 -65.9208 -31.3098 59.0875 126.5830 -54.2840 -91.0736 -0.0000 0.0000 -19.5923 45.9354 39.2532 33.1748 -7.1250 0.0000 -0.0000 25.7486 78.5674 20.3438 0.0000 -0.0000 0.0000 75.5245 -2.0935 30.1699 -103.3449 59.3163 -71.5305 0.0000 -0.0000 -8.4456 -57.5202 2.4379 -3.8228 7.1250 -0.0000 -0.0000 -22.8041 -25.2834 -11.7938
1.0124 30.2766 -1.9915 174.2140 -23.3812 -167.4330 0.0000 0.0000 0.0000 -25.8904 9.0859 -70.0391 21.2486 19.9626 93.6527 -0.4954 -18.8260 -8.3148 0.0446 -1.3626 -3.7471 0.0000 0.0000 0.0000 18.2404 22.0783 -7.0715 -1.4209 -7.5382 21.3199 1.2058 -19.0220 -8.2804 -0.1983 2.8677 -7.9106 -9.2202 -2.9798 21.8489 -3.2667 -7.0317 2.1917 3.6644 -3.2849 -9.1282 -10.2974 -6.1155 -14.9036 10.8486 -7.3242 3.9861 4.4131 -3.2913 4.3944 0.0000 0.0000 0.0000 -65.1692 -33.2737 58.3084 126.2490 -54.4007 -90.8023 -0.0000 0.0000 -20.5971 45.4542 39.6478 32.9539 -7.1250 0.0000 -0.0000 24.3826 78.8434 19.3779 0.0000 0.0000 0.0000 75.0053 -2.9932 29.3473 -109.3676 58.5341 -76.6903 0.0000 -0.0000 -8.4383 -56.6326 1.5392 -2.3357 7.1250 -0.0000 -0.0000 -22.5406 -26.9042 -10.6947
1.1248 29.9964 -1.9520 173.4340 -23.8126 -167.6690 0.0000 0.0000 0.0000 -26.1230 9.0787 -71.1822 22.1019 19.8937 96.1560 -0.5344 -19.2986 -8.3774 0.0082 -0.5830 -1.6021 0.0000 0.0000 0.0000 18.7312 21.8753 -5.8928 -1.4459 -7.6015 21.5100 0.9875 -18.3296 -13.5190 -0.0399 1.2886 -3.5433 -8.5057 -3.0547 21.1910 -3.8505 -6.9652 2.4029 2.5591 -3.3394 -8.7075 -9.2435 -5.4672 -15.7383 10.2305 -6.5703 4.7560 4.1068 -2.8983 4.6248 0.0000 -0.0000 0.0000 -63.6009 -34.6606 56.4651 125.4558 -54.6716 -90.1562 -0.0000 0.0000 -21.9854 44.3790 39.7376 32.0286 -7.1250 0.0000 -0.0000 21.0927 78.6149 16.6291 0.0000 -0.0000 0.0000 75.6648 -3.3460 29.0174 -114.5376 57.5980 -81.0788 0.0000 -0.0000 -7.7350 -56.3005 0.0466 -0.0699 7.1250 -0.0000 -0.0000 -22.8847 -29.4166 -9.3892
1.2225 29.7505 -1.9220 173.3160 -24.6992 -167.8530 0.0000 0.0000 0.0000 -25.4987 8.7888 -72.6385 23.0079 19.7817 98.8254 -0.5702 -19.7142 -8.4286 0.0300 -1.1186 -3.0753 0.0000 0.0000 0.0000 19.7297 21.2337 -5.3248 -1.4299 -7.5611 21.3888 0.7324 -18.5688 -18.7086 -0.0045 0.4335 -1.1912 -6.6763 -3.5088 20.0399 -4.4311 -7.0729 2.4128 0.8651 -3.4825 -8.3549 -8.2730 -5.0139 -16.5858 10.0942 -6.1792 6.4860 3.9327 -2.6366 5.2253 0.0000 0.0000 0.0000 -61.7014 -35.7080 54.7643 124.4274 -55.0099 -89.3154 -0.0000 0.0000 -23.9295 43.8141 39.4289 31.3564 -7.1250 0.0000 -0.0000 19.4442 78.1126 15.1163 0.0000 0.0000 0.0000 76.8453 -3.9275 28.7731 -118.8913 56.5982 -84.7348 0.0000 -0.0000 -6.8339 -55.7071 -0.0992 0.1454 7.1250 -0.0000 -0.0000 -22.5070 -29.6790 -9.0555
1.3370 29.5342 -1.8954 173.0240 -25.2973 -168.8080 0.0000 0.0000 0.0000 -24.6812 9.2540 -73.1633 23.8001 19.6502 101.1733 -0.8143 -20.6581 -6.7523 0.0084 -0.5922 -1.6274 0.0000 0.0000 0.0000 20.6990 20.6194 -4.1759 -1.4581 -7.6321 21.6020 0.3734 -18.3389 -22.5185 -0.0041 -0.4132 1.1353 -5.4899 -3.6341 19.8944 -4.8568 -7.0178 2.4034 -0.2678 -3.5044 -8.4853 -7.7559 -4.0774 -15.5947 10.4043 -5.1332 6.4948 4.0659 -2.1182 4.9681 -0.0000 -0.0000 0.0000 -60.2008 -36.5054 53.3460 122.6495 -55.5616 -87.8539 -0.0000 0.0000 -25.7115 42.6958 39.0943 30.1915 -7.1250 0.0000 -0.0000 16.4493 77.3992 12.5253 -0.0000 -0.0000 0.0000 77.6513 -4.4399 28.6646 -122.4067 55.6338 -87.6536 0.0000 -0.0000 -5.6284 -54.5439 -2.7124 3.8018 7.1250 -0.0000 -0.0000 -22.6329 -33.8881 -6.6143
1.4335 29.3620 -1.8365 172.8960 -26.0281 -170.3080 0.0000 0.0000 0.0000 -23.7532 9.7084 -73.0184 24.4160 19.5259 103.0102 -0.9928 -21.4659 -5.6942 0.0746 -1.7619 -4.8481 0.0000 0.0000 0.0000 21.3168 18.3472 -3.3159 -1.4826 -7.6930 21.7854 -0.0733 -16.7769 -24.4511 -0.0142 -0.7685 2.1119 -3.6585 -3.7179 20.6133 -5.4541 -6.8721 2.5583 -1.9180 -3.5145 -8.9987 -6.6157 -3.3568 -15.5911 10.1380 -4.3978 6.7722 3.8654 -1.7433 4.9536 -0.0000 -0.0000 0.0000 -58.4459 -37.8632 52.1858 119.9511 -56.3230 -85.6182 -0.0000 0.0000 -27.7600 41.6169 38.6621 29.0297 -7.1250 0.0000 -0.0000 13.8752 76.5846 10.3163 -0.0000 -0.0000 0.0000 78.8238 -4.7154 28.3660 -125.4438 54.6756 -90.1464 0.0000 -0.0000 -4.4369 -53.9530 -5.4126 7.3847 7.1250 -0.0000 -0.0000 -23.2262 -38.0715 -4.2400
1.5325 29.2170 -1.7682 172.6230 -26.1796 -171.0750 0.0000 0.0000 0.0000 -23.3332 10.2466 -73.6533 24.9475 19.4027 104.6053 -1.2467 -22.1121 -3.3650 0.0376 -1.2512 -3.4402 0.0000 0.0000 0.0000 21.3992 18.3658 -3.3354 -1.6869 -8.1810 23.2652 -0.4141 -15.7276 -26.0161 -0.0311 -1.1385 3.1300 -2.2615 -3.5815 20.6394 -5.9450 -6.4515 2.5009 -3.3543 -3.3813 -9.2797 -5.9388 -2.7557 -15.4431 10.1144 -3.7558 6.9741 3.8082 -1.4151 4.9242 -0.0000 -0.0000 0.0000 -56.9642 -39.4792 51.3774 116.4932 -57.1742 -82.7261 -0.0000 0.0000 -30.0780 40.9317 38.2016 28.2047 -7.1250 0.0000 -0.0000 12.4539 75.8660 9.0653 -0.0000 -0.0000 0.0000 79.5368 -5.1718 28.2597 -128.1005 53.7335 -92.3015 0.0000 -0.0000 -3.7643 -53.8461 -5.7272 7.7772 7.1250 -0.0000 -0.0000 -23.2623 -38.5431 -3.9569
1.6299 29.1373 -1.6888 172.9300 -26.2651 -172.2600 0.0000 0.0000 0.0000 -22.5391 11.2306 -74.0577 25.3289 19.3051 105.7560 -1.3129 -22.1426 -2.4342 0.1332 -2.3529 -6.4819 0.0000 0.0000 0.0000 22.1017 18.4304 -3.0065 -1.8405 -8.5256 24.3224 -0.5348 -15.3987 -26.5971 -0.0360 -1.2243 3.3663 -0.5439 -3.3885 21.2083 -6.1995 -5.8624 2.4658 -4.7612 -3.1734 -9.7913 -5.0916 -2.3640 -15.3103 9.7071 -3.3604 6.9495 3.5753 -1.2282 4.8399 -0.0000 -0.0000 0.0000 -56.0830 -40.9277 50.8753 112.5126 -57.9956 -79.3653 -0.0000 0.0000 -32.1328 39.6371 37.6664 26.8477 -7.1250 0.0000 -0.0000 9.8850 74.8606 6.9761 -0.0000 -0.0000 0.0000 80.2406 -5.4931 28.1144 -129.8556 53.0536 -93.7105 0.0000 -0.0000 -2.7709 -53.8174 -7.2532 9.7937 7.1250 -0.0000 -0.0000 -23.8812 -40.8749 -2.5986
1.7110 29.1093 -1.6104 173.3250 -26.0585 -172.9510 0.0000 0.0000 0.0000 -21.8080 12.1074 -74.5389 25.4846 19.2630 106.2274 -1.3973 -22.2262 -1.2313 0.1356 -2.3733 -6.5384 0.0000 0.0000 0.0000 22.5593 18.1526 -3.4916 -1.9650 -8.7928 25.1494 -0.5893 -14.8758 -26.4415 -0.0378 -1.2546 3.4496 0.7687 -3.2469 21.3944 -5.9759 -5.3076 2.2692 -5.4335 -2.9419 -10.1516 -5.1302 -1.9083 -15.7256 9.4824 -2.7164 7.3589 3.5715 -0.9047 4.9802 -0.0000 -0.0000 0.0000 -56.9906 -41.3456 50.1510 107.7064 -58.7816 -75.2714 -0.0000 0.0000 -32.4007 36.1997 35.6380 23.0954 -7.1250 0.0000 -0.0000 4.5787 71.5523 2.8964 -0.0000 -0.0000 0.0000 79.8409 -5.3503 28.4831 -130.5500 52.7713 -94.2644 0.0000 -0.0000 -1.8220 -53.9768 -7.5844 10.2877 7.1250 -0.0000 -0.0000 -24.1745 -41.4047 -2.2951
1.7818 29.1099 -1.5136 172.9580 -26.0455 -173.2050 0.0000 0.0000 0.0000 -21.8617 12.1406 -74.4599 25.4299 19.2779 106.0619 -1.4354 -22.2726 -0.6653 0.2292 -3.0812 -8.5048 0.0000 0.0000 0.0000 22.2267 18.6952 -3.8542 -2.1328 -9.1374 26.2262 -0.5546 -14.7768 -26.0580 -0.0289 -1.0965 3.0143 1.3446 -3.1318 21.7594 -5.7421 -4.9713 2.0800 -5.6000 -2.7922 -10.5497 -5.2009 -1.5717 -15.7088 8.9206 -2.1597 7.3487 3.4552 -0.6621 4.9227 0.0000 -0.0000 0.0000 -58.6729 -41.7994 49.5752 103.5037 -59.2996 -71.6670 -0.0000 0.0000 -32.3319 34.0969 35.0551 21.2475 -7.1250 0.0000 -0.0000 1.5184 70.2490 0.9160 0.0000 -0.0000 0.0000 79.4328 -5.4692 28.6821 -131.7265 52.2750 -95.1981 0.0000 -0.0000 -1.6055 -52.8833 -7.8439 10.2229 7.1250 -0.0000 -0.0000 -23.2588 -41.6077 -2.0720
1.8472 29.1169 -1.4030 172.0200 -26.3342 -172.9010 0.0000 0.0000 0.0000 -22.0072 11.1532 -73.9762 25.2933 19.3145 105.6484 -1.6929 -23.5149 0.8308 0.2011 -2.8875 -7.9657 0.0000 0.0000 0.0000 21.1687 19.4159 -4.5008 -2.3203 -9.5036 27.3839 -0.5495 -14.6497 -25.8763 -0.0225 -0.9684 2.6620 1.4759 -3.0561 21.7340 -5.5291 -4.7971 2.1199 -5.4927 -2.7010 -10.4589 -5.3518 -1.3865 -16.0690 8.2347 -1.7659 7.4080 3.2992 -0.5014 4.9615 0.0000 -0.0000 0.0000 -60.3724 -42.4032 48.9152 100.0210 -59.6171 -68.6673 -0.0000 0.0000 -32.5388 32.0124 33.8222 19.1869 -7.1250 0.0000 -0.0000 -0.8054 68.2925 -0.4504 0.0000 -0.0000 0.0000 78.7289 -4.4674 28.8837 -131.9995 52.1565 -95.4139 0.0000 -0.0000 -1.7996 -52.2747 -7.9660 10.1565 7.1250 -0.0000 -0.0000 -22.7365 -41.6859 -1.9728
1.9190 29.0988 -1.2961 171.2120 -26.0804 -172.4990 0.0000 0.0000 0.0000 -21.7648 10.5486 -73.5034 25.1654 19.3479 105.2621 -2.2805 -26.8289 1.5212 0.5565 -4.7784 -13.2776 0.0000 0.0000 0.0000 20.3181 20.5380 -5.2196 -2.5079 -9.8522 28.4994 -0.5569 -14.7833 -26.0835 -0.0194 -0.8982 2.4687 0.9452 -2.6810 21.5505 -4.8794 -4.3205 2.2477 -4.6112 -2.4150 -10.0619 -6.1125 -1.4057 -16.5316 7.3693 -1.4740 7.3547 3.1763 -0.4202 4.9926 0.0000 -0.0000 0.0000 -62.2335 -43.5636 48.0764 96.4156 -59.8439 -65.5532 -0.0000 0.0000 -32.1797 30.4763 32.9079 17.7301 -7.1250 0.0000 -0.0000 -2.3711 66.8670 -1.2492 0.0000 -0.0000 0.0000 77.5571 -3.4738 28.6093 -132.6515 51.8685 -95.9278 0.0000 -0.0000 -0.8240 -50.7904 -9.1051 10.9770 7.1250 -0.0000 -0.0000 -21.7534 -43.0861 -1.0827
1.9843 29.0612 -1.1642 171.1640 -25.8196 -172.5690 0.0000 0.0000 0.0000 -20.5364 10.1447 -72.8384 25.2437 19.3276 105.4985 -2.8597 -29.9357 1.0752 0.9689 -6.2669 -17.5608 0.0000 0.0000 0.0000 20.1889 21.3717 -6.0562 -2.6936 -10.1818 29.5674 -0.6011 -14.8861 -26.5449 -0.0358 -1.2210 3.3570 0.8328 -2.2495 21.5364 -3.9083 -3.6340 2.4847 -3.6775 -2.0400 -9.6425 -6.7039 -1.4763 -16.3750 6.4490 -1.3155 7.2652 2.9933 -0.4172 4.9219 0.0000 0.0000 0.0000 -63.8660 -45.0107 47.5233 93.1829 -59.9617 -62.7562 -0.0000 0.0000 -31.9922 29.3985 32.0488 16.6458 -7.1250 0.0000 -0.0000 -3.2784 65.6525 -1.6361 0.0000 0.0000 0.0000 75.5073 -2.1088 28.0856 -133.2758 51.5857 -96.4179 0.0000 -0.0000 -0.0251 -49.8324 -9.3976 10.9483 7.1250 -0.0000 -0.0000 -20.9315 -43.3316 -0.9043
2.0459 29.0414 -1.0376 170.3440 -25.2152 -172.5500 0.0000 0.0000 0.0000 -20.0293 10.1567 -71.0769 25.4581 19.2702 106.1473 -2.7204 -30.5892 -2.3668 0.8945 -6.0281 -16.8658 0.0000 0.0000 0.0000 19.2054 21.6878 -6.8960 -2.8984 -10.5287 30.7063 -0.6413 -14.5767 -26.5233 -0.0384 -1.2648 3.4776 -0.6638 -1.5034 21.5586 -2.7445 -2.8841 2.9243 -1.7617 -1.6042 -8.9701 -7.9738 -1.5877 -16.0854 5.9379 -1.1411 7.4984 3.0537 -0.4024 4.9385 -0.0000 -0.0000 0.0000 -65.3879 -46.7423 46.7060 90.2944 -59.9997 -60.2550 -0.0000 0.0000 -32.3940 28.2614 31.6086 15.7352 -7.1250 0.0000 -0.0000 -4.4789 64.8689 -2.1548 -0.0000 -0.0000 0.0000 72.6120 -0.2430 27.5379 -133.6422 51.4166 -96.7047 0.0000 -0.0000 -0.6619 -48.7099 -8.7640 9.8424 7.1250 -0.0000 -0.0000 -19.6633 -42.2528 -1.3919
2.1099 29.0277 -0.9173 169.8230 -24.5282 -172.7710 0.0000 0.0000 0.0000 -19.2801 10.5331 -68.6714 25.7012 19.2022 106.8852 -1.4968 -26.9048 -8.0918 0.6407 -5.1207 -14.2532 0.0000 0.0000 0.0000 18.7794 22.8616 -7.1245 -3.0750 -10.8154 31.6600 -0.6208 -15.0147 -26.8380 -0.0674 -1.6745 4.6070 -1.6054 -0.9246 21.8338 -1.9307 -2.2878 3.2313 -0.5019 -1.2865 -8.6882 -8.5991 -1.7022 -15.2182 5.6666 -1.2018 8.1848 3.0674 -0.4806 5.0192 -0.0000 0.0000 0.0000 -65.5771 -47.9011 45.7259 87.9251 -59.9837 -58.2032 -0.0000 0.0000 -33.0188 27.8129 31.2692 15.3133 -7.1250 0.0000 -0.0000 -4.8406 64.3908 -2.2754 -0.0000 0.0000 0.0000 70.2456 1.7327 27.3479 -133.1695 51.6344 -96.3345 0.0000 -0.0000 -0.3935 -48.7304 -8.9250 10.0253 7.1250 -0.0000 -0.0000 -19.7309 -42.4815 -1.2806
2.1651 29.0255 -0.8076 169.1720 -24.0329 -172.9140 0.0000 0.0000 0.0000 -18.8869 10.6968 -65.4570 25.6808 19.2080 106.8230 -0.2888 -20.2260 -11.7390 0.2629 -3.2988 -9.1119 0.0000 0.0000 0.0000 18.2133 23.9880 -7.3152 -3.2633 -11.1095 32.6501 -0.5856 -15.4193 -27.0131 -0.1075 -2.1137 5.8199 -1.7071 -0.7598 22.1277 -1.9194 -2.1224 3.3252 -0.4727 -1.2128 -8.7373 -8.5922 -1.7796 -13.6094 5.6919 -1.4710 9.3567 3.0594 -0.6410 5.1418 0.0000 -0.0000 0.0000 -64.3456 -48.5098 44.6011 85.5726 -59.9258 -56.1667 -0.0000 0.0000 -34.0705 27.1601 30.7726 14.7080 -7.1250 0.0000 -0.0000 -5.3572 63.6962 -2.4321 0.0000 -0.0000 0.0000 69.8103 2.4284 27.2136 -133.5702 51.4500 -96.6483 0.0000 0.0000 0.4764 -47.0257 -7.9822 8.4775 7.1250 -0.0000 -0.0000 -17.8893 -40.9224 -1.8666
2.2100 29.0268 -0.6996 168.3900 -23.6507 -173.0780 0.0000 0.0000 0.0000 -19.0421 10.4832 -61.6454 25.2332 19.3303 105.4669 -0.3116 -17.9460 -9.4971 0.0422 -1.3265 -3.6476 0.0000 0.0000 0.0000 17.4330 24.8519 -7.6109 -3.4843 -11.4405 33.7804 -0.5401 -15.6400 -26.9102 -0.1004 -2.0432 5.6250 -2.0225 -0.7325 22.2368 -1.8926 -2.1942 3.5796 -0.2412 -1.2566 -8.5029 -8.4384 -1.7468 -12.8273 5.5175 -1.6127 11.9950 2.9864 -0.7716 5.8448 -0.0000 0.0000 0.0000 -63.0855 -49.0246 42.9715 82.6107 -59.7927 -53.6051 -0.0000 0.0000 -34.9603 26.7255 29.1344 13.7737 -7.1250 0.0000 -0.0000 -4.9804 61.8779 -2.0477 -0.0000 0.0000 0.0000 68.5465 5.1977 27.5310 -132.1957 52.0706 -95.5688 0.0000 0.0000 0.2020 -46.2457 -7.5970 7.8618 7.1250 -0.0000 -0.0000 -17.0880 -40.2935 -2.0515
2.2479 29.0115 -0.6067 167.7520 -23.4526 -173.0680 0.0000 0.0000 0.0000 -19.4397 9.8311 -57.6272 24.2957 19.5517 102.6505 -0.2699 -13.7778 -5.9520 0.0075 0.5578 1.5327 0.0000 0.0000 0.0000 16.6598 25.7514 -8.2310 -3.7592 -11.8329 35.1433 -0.5563 -15.5550 -26.9396 -0.1014 -2.0535 5.6534 -2.2195 -0.8008 21.9364 -1.8325 -2.3313 3.8191 -0.0333 -1.3329 -8.0691 -8.4374 -1.6888 -12.0517 5.2307 -1.7522 14.8766 2.9039 -0.9513 6.6330 -0.0000 0.0000 0.0000 -61.6037 -49.2360 41.2969 81.1328 -59.7008 -52.3285 -0.0000 0.0000 -35.9782 26.9561 29.3387 13.9920 -7.1250 0.0000 -0.0000 -4.8110 62.1510 -2.0089 -0.0000 0.0000 0.0000 67.9394 7.6883 27.6893 -130.7041 52.7075 -94.3871 0.0000 0.0000 0.0632 -45.5051 -6.2163 6.2891 7.1250 -0.0000 -0.0000 -16.1210 -38.3312 -2.7324
2.2807 28.9421 -0.5126 167.7000 -23.1697 -173.0950 0.0000 0.0000 0.0000 -19.6951 9.3538 -53.7148 22.8998 19.7972 98.5061 -0.2414 -12.0936 -4.5776 0.0005 0.1415 0.3887 0.0000 0.0000 0.0000 16.3677 26.7199 -9.2489 -4.0992 -12.2913 36.7704 -0.6171 -15.4356 -27.2716 -0.0873 -1.9053 5.2441 -2.0266 -0.9952 21.7463 -1.6292 -2.5188 3.9298 0.1235 -1.4312 -7.8426 -8.5936 -1.3929 -11.5141 4.8716 -1.5240 17.3657 2.8541 -0.9845 7.3229 -0.0000 0.0000 0.0000 -60.4714 -49.0902 39.3192 79.8956 -59.6107 -51.2608 -0.0000 0.0000 -37.3851 27.8244 28.4270 14.1034 -7.1250 0.0000 -0.0000 -3.3269 61.4190 -1.3307 -0.0000 0.0000 0.0000 67.6516 10.1171 28.1452 -129.7975 53.0769 -93.6640 0.0000 0.0000 0.1052 -44.0534 -5.8627 5.6439 7.1250 -0.0000 -0.0000 -14.7917 -37.7221 -2.7220
2.3056 28.8560 -0.4104 167.5420 -22.6925 -173.0380 0.0000 0.0000 0.0000 -20.5289 9.0753 -49.7142 20.9325 19.9791 92.7275 -0.3076 -11.2627 -1.8438 0.0155 0.8031 2.2071 0.0000 0.0000 0.0000 15.8018 27.6422 -10.4825 -4.4999 -12.7974 38.6148 -0.7845 -14.7242 -27.7611 -0.0928 -1.9644 5.4071 -2.0438 -1.1043 21.6084 -1.3421 -2.6486 4.1050 0.4733 -1.5022 -7.5609 -8.8275 -0.9840 -11.2737 4.3689 -1.0377 19.3173 2.7900 -0.9111 7.8854 -0.0000 0.0000 0.0000 -59.6504 -48.9592 36.8113 78.9871 -59.5367 -50.4774 -0.0000 0.0000 -37.1702 25.9300 28.6463 13.1211 -7.1250 0.0000 -0.0000 -5.6677 61.1665 -2.2358 -0.0000 0.0000 0.0000 67.2351 12.7288 28.2435 -129.0932 53.3547 -93.1000 0.0000 0.0000 0.7882 -42.6850 -5.4129 4.9723 7.1250 -0.0000 -0.0000 -13.5387 -37.0153 -2.7206
2.3289 28.7616 -0.3026 167.1790 -21.8122 -172.6360 0.0000 0.0000 0.0000 -21.9943 9.0809 -46.2286 18.4600 19.9430 85.4931 -0.3578 -10.5992 2.6340 0.0757 1.7749 4.8840 0.0000 0.0000 0.0000 14.6729 28.9249 -12.4215 -5.0120 -13.3972 40.8743 -1.0455 -13.4793 -28.4171 -0.1234 -2.2646 6.2374 -3.0187 -0.8311 21.0744 -0.7445 -2.4655 4.4799 1.5983 -1.4216 -6.8069 -9.2490 -0.6311 -11.1572 3.6672 -0.4408 20.2766 2.6917 -0.7854 8.1464 0.0000 0.0000 0.0000 -58.6953 -49.6028 34.4607 79.3178 -59.5644 -50.7625 -0.0000 0.0000 -38.4135 26.0379 28.8420 13.2612 -7.1250 0.0000 -0.0000 -5.6419 61.3973 -2.2564 0.0000 0.0000 0.0000 66.6288 15.5851 27.6677 -128.5190 53.5756 -92.6386 0.0000 0.0000 0.2090 -41.1356 -4.4860 3.9082 7.1250 -0.0000 -0.0000 -12.0874 -35.7042 -2.8127
2.3438 28.6453 -0.1731 166.4560 -21.0057 -172.0710 0.0000 0.0000 0.0000 -23.9925 8.7562 -42.6026 15.6627 19.5429 77.2252 -0.1611 -7.1993 1.3468 0.0969 -2.0077 -5.5270 0.0000 0.0000 0.0000 12.9977 29.6052 -14.9635 -5.6395 -14.0697 43.5172 -1.2307 -12.3536 -28.7007 -0.1713 -2.6666 7.3518 -2.5389 -1.2229 21.3365 -1.6230 -2.9780 4.4023 0.5258 -1.6860 -7.0801 -8.4309 -0.0707 -11.0213 3.7264 0.0386 21.2958 2.6327 -0.5509 8.4235 -0.0000 -0.0000 0.0000 -55.6195 -49.2508 31.6085 80.0375 -59.6216 -51.3832 -0.0000 0.0000 -39.1876 26.2629 29.0611 13.4783 -7.1250 0.0000 -0.0000 -5.4907 61.6824 -2.2328 -0.0000 -0.0000 0.0000 68.4295 17.7279 28.3387 -128.3642 53.6343 -92.5140 0.0000 -0.0000 -0.2674 -40.2087 -4.8793 4.1125 7.1250 -0.0000 -0.0000 -11.3617 -36.1550 -2.5109
2.3447 28.5249 -0.0347 165.5890 -20.1179 -172.0400 0.0000 0.0000 0.0000 -26.1743 8.7289 -38.1056 12.5806 18.6254 67.8176 -0.1458 -6.7614 2.1381 0.4374 -4.2438 -11.7637 0.0000 0.0000 0.0000 11.3792 29.8682 -16.9359 -6.2539 -14.6699 45.9924 -1.4015 -11.1391 -28.8668 -0.1652 -2.6184 7.2180 -2.8341 -1.0820 21.9642 -1.9045 -2.9922 4.8186 0.4104 -1.7340 -6.9584 -8.7172 0.1008 -10.9726 3.8743 0.2769 21.4541 2.7564 -0.4571 8.4505 0.0000 0.0000 0.0000 -53.8106 -50.1180 29.0838 80.2466 -59.6375 -51.5636 -0.0000 0.0000 -39.8422 26.1930 29.2410 13.5115 -7.1250 0.0000 -0.0000 -5.6680 61.8515 -2.3278 0.0000 0.0000 0.0000 69.1204 19.9028 28.3234 -128.5814 53.5519 -92.6888 0.0000 0.0000 0.3404 -40.4047 -6.1615 5.2201 7.1250 -0.0000 -0.0000 -11.6923 -37.8094 -2.1043
2.3355 28.4062 0.1033 165.0160 -19.2165 -171.6710 0.0000 0.0000 0.0000 -27.9626 8.3906 -34.1738 9.6053 17.1819 58.1609 -0.0298 -4.8614 5.7915 0.3327 -3.7068 -10.2533 0.0000 0.0000 0.0000 9.7936 30.0505 -19.3395 -6.8199 -15.1783 48.1899 -1.6543 -9.6285 -29.4263 -0.1869 -2.7845 7.6792 -2.7253 -0.9210 22.0618 -2.2029 -2.8346 5.0847 -0.0168 -1.6903 -6.7443 -8.7712 -0.0096 -10.6549 4.0589 0.0389 21.4622 2.8017 -0.5641 8.4094 0.0000 0.0000 0.0000 -52.1440 -51.2111 26.9308 79.7270 -59.5974 -51.1154 -0.0000 0.0000 -40.4799 25.8301 29.2265 13.2979 -7.1250 0.0000 -0.0000 -6.0888 61.7431 -2.4857 0.0000 0.0000 0.0000 69.7302 21.7131 28.1564 -129.2754 53.2836 -93.2461 0.0000 -0.0000 -0.0847 -40.5703 -6.9992 5.9563 7.1250 -0.0000 -0.0000 -11.9429 -38.8939 -1.8272
2.3176 28.2824 0.2451 164.5730 -18.3484 -171.0850 0.0000 0.0000 0.0000 -29.4925 7.5068 -30.6980 7.0474 15.3717 49.0533 0.1975 -2.6435 9.7992 0.3666 -3.8894 -10.7657 0.0000 0.0000 0.0000 8.0906 30.1485 -22.1785 -7.4253 -15.6798 50.4650 -1.7899 -8.2706 -29.3978 -0.1789 -2.7246 7.5129 -2.7523 -0.7261 21.8877 -2.2541 -2.6077 5.2902 -0.1262 -1.6000 -6.4345 -9.1279 -0.0670 -10.6647 4.3523 -0.0821 21.8582 2.9540 -0.6428 8.5522 -0.0000 -0.0000 0.0000 -50.9189 -52.4270 24.9673 78.7178 -59.5135 -50.2453 -0.0000 0.0000 -41.0960 26.0199 29.2220 13.4046 -7.1250 0.0000 -0.0000 -5.8625 61.7871 -2.3991 -0.0000 -0.0000 0.0000 69.4944 23.8127 27.4569 -129.7045 53.1140 -93.5897 0.0000 -0.0000 -0.6801 -40.1900 -6.9505 5.8369 7.1250 -0.0000 -0.0000 -11.6038 -38.7968 -1.8018
2.3002 28.1632 0.3864 164.1220 -18.0005 -170.8200 0.0000 0.0000 0.0000 -30.5727 6.0836 -26.9541 5.0000 13.3838 40.8229 0.5125 1.0590 13.1983 0.1047 -2.0865 -5.7446 0.0000 0.0000 0.0000 6.6334 29.8042 -24.5461 -8.0014 -16.1203 52.5678 -1.8923 -7.0224 -29.2938 -0.2087 -2.9414 8.1157 -2.3679 -0.8455 22.5136 -2.6259 -2.7484 5.1294 -0.6870 -1.6698 -6.9697 -8.7429 0.0286 -10.6842 4.3290 -0.1571 22.9628 2.8863 -0.7142 8.9357 -0.0000 -0.0000 0.0000 -48.8548 -52.7473 23.3288 78.3669 -59.4824 -49.9430 -0.0000 0.0000 -42.1950 26.1552 29.3654 13.5401 -7.1250 0.0000 -0.0000 -5.7793 61.9707 -2.3900 -0.0000 -0.0000 0.0000 69.8028 25.0548 27.2510 -130.3406 52.8572 -94.0976 0.0000 -0.0000 -1.4007 -39.5212 -7.6793 6.2907 7.1250 -0.0000 -0.0000 -11.0991 -39.6560 -1.4830
2.2953 28.0499 0.5254 164.2370 -18.0891 -170.6520 0.0000 0.0000 0.0000 -30.7826 4.0693 -23.8144 3.5402 11.5220 34.0612 0.6649 3.1910 14.6507 0.2220 -3.0330 -8.3707 0.0000 0.0000 0.0000 5.9353 29.2647 -26.7105 -8.4829 -16.4632 54.2839 -1.9265 -6.1975 -29.0419 -0.2080 -2.9365 8.1021 -2.6249 -0.7609 22.0939 -1.9417 -2.6381 5.5423 0.1490 -1.6344 -6.2564 -9.1899 0.0129 -10.7316 4.0500 -0.0385 23.1243 2.8799 -0.7354 8.9966 0.0000 -0.0000 0.0000 -47.9199 -54.2564 21.2779 76.8608 -59.3375 -48.6465 -0.0000 0.0000 -42.5591 25.8997 28.9675 13.2336 -7.1250 0.0000 -0.0000 -5.8693 61.4925 -2.3610 0.0000 -0.0000 0.0000 68.1345 27.4390 26.3658 -130.2390 52.8987 -94.0166 0.0000 -0.0000 -2.3558 -39.2641 -7.4645 6.0618 7.1250 -0.0000 -0.0000 -10.8490 -39.3613 -1.5284
2.2907 27.9438 0.6548 164.2300 -18.5063 -170.7950 0.0000 0.0000 0.0000 -30.8035 1.8951 -20.8372 2.5973 10.0127 29.0180 0.6286 5.6513 14.1273 0.2663 -3.3200 -9.1708 0.0000 0.0000 0.0000 5.3371 28.4852 -28.2995 -8.9511 -16.7761 55.9207 -2.0234 -4.8716 -28.9667 -0.2340 -3.1135 8.5950 -2.5195 -0.9377 22.3560 -1.7265 -2.8712 5.7685 0.3883 -1.7669 -6.1348 -8.8607 0.0904 -10.8735 3.8750 0.0061 23.6016 2.7749 -0.7300 9.1852 -0.0000 -0.0000 0.0000 -46.0546 -55.0937 19.2633 76.0739 -59.2544 -47.9699 -0.0000 0.0000 -43.1590 26.0075 29.4910 13.5057 -7.1250 0.0000 -0.0000 -6.0227 62.0625 -2.5041 -0.0000 -0.0000 0.0000 66.9136 29.5899 25.4365 -129.6240 53.1460 -93.5253 0.0000 -0.0000 -2.9538 -38.8455 -8.3915 6.7030 7.1250 -0.0000 -0.0000 -10.5695 -40.4800 -1.1931
2.2929 27.8278 0.7944 164.1300 -18.3906 -170.7320 0.0000 0.0000 0.0000 -30.9091 0.2201 -19.1384 2.0488 8.9671 25.6924 0.4976 8.4266 13.0290 0.0962 -1.9999 -5.5055 0.0000 0.0000 0.0000 4.3445 28.0291 -30.3863 -9.4787 -17.1061 57.7314 -2.0249 -3.6783 -28.3994 -0.1970 -2.8580 7.8837 -2.8133 -0.8624 22.4054 -1.6358 -2.8724 6.0185 0.6497 -1.7900 -5.8703 -9.1608 0.0266 -11.2392 4.4018 -0.1123 23.8103 3.0023 -0.7556 9.3318 -0.0000 0.0000 0.0000 -43.8458 -56.4230 17.0851 74.7721 -59.1054 -46.8519 -0.0000 0.0000 -43.8936 26.2260 30.0589 13.8609 -7.1250 0.0000 -0.0000 -6.0795 62.7071 -2.6201 -0.0000 0.0000 0.0000 65.7291 31.5346 24.6770 -129.0890 53.3564 -93.0966 0.0000 -0.0000 -4.2713 -39.7014 -9.7354 7.9918 7.1250 -0.0000 -0.0000 -11.4800 -42.2645 -0.7861
2.3045 27.7247 0.9338 163.9110 -19.7952 -170.9250 0.0000 0.0000 0.0000 -30.6247 -2.8066 -17.2683 1.7689 8.3672 23.8350 0.4106 9.7554 12.4215 0.2262 -3.0611 -8.4490 0.0000 0.0000 0.0000 3.9133 26.1924 -31.7179 -9.9396 -17.3758 59.2865 -2.0575 -3.0246 -28.3191 -0.1706 -2.6608 7.3357 -2.5908 -1.2667 23.0820 -1.5227 -3.4035 6.1784 0.8125 -2.0633 -6.0332 -8.9588 -0.0794 -11.0766 4.3463 -0.2867 23.5672 2.9255 -0.8139 9.2293 -0.0000 0.0000 0.0000 -42.1457 -57.5486 15.4179 73.8354 -58.9893 -46.0485 -0.0000 0.0000 -44.5882 26.2895 30.2016 13.9556 -7.1250 0.0000 -0.0000 -6.0850 62.8712 -2.6460 -0.0000 0.0000 0.0000 64.5373 32.7770 23.3660 -128.8809 53.4370 -92.9295 0.0000 -0.0000 -5.0366 -39.0895 -9.6582 7.7611 7.1250 -0.0000 -0.0000 -10.9098 -42.0903 -0.7935
2.3110 27.6252 1.0780 163.5980 -21.2380 -171.2420 0.0000 0.0000 0.0000 -30.4236 -6.0113 -15.7904 1.6421 8.0770 22.9481 0.5720 9.1897 14.0116 0.1607 -2.5828 -7.1193 0.0000 0.0000 0.0000 3.4145 24.1743 -32.8627 -10.3900 -17.6234 60.7842 -2.1216 -2.0143 -28.3164 -0.2077 -2.9343 8.0958 -2.2546 -1.7277 23.9415 -1.4762 -4.0216 6.4948 0.8768 -2.3962 -6.1254 -9.1433 -0.2967 -11.2315 4.4190 -0.4897 23.1434 2.9564 -0.8850 9.1285 0.0000 -0.0000 0.0000 -39.9165 -59.1842 13.0940 72.0603 -58.7483 -44.5290 -0.0000 0.0000 -45.0968 26.8757 31.1190 14.6773 -7.1250 0.0000 -0.0000 -5.9164 63.9763 -2.7255 0.0000 -0.0000 0.0000 63.6039 33.7834 22.2277 -129.2964 53.2754 -93.2629 0.0000 -0.0000 -5.5614 -39.1500 -9.7472 7.8478 7.1250 -0.0000 -0.0000 -10.9738 -42.2095 -0.7656
2.3095 27.5065 1.2391 162.8100 -21.6585 -171.3080 0.0000 0.0000 0.0000 -31.0626 -6.4597 -15.7643 1.6219 8.0296 22.8039 0.6738 9.1069 15.0262 0.1429 -2.4362 -6.7127 0.0000 0.0000 0.0000 2.0462 22.7775 -34.5520 -10.9687 -17.9197 62.6798 -2.1124 -0.7529 -27.7851 -0.1747 -2.6924 7.4236 -2.6700 -1.8408 24.8152 -1.6590 -4.3980 6.7572 1.0623 -2.6099 -6.2554 -9.1395 -0.2384 -11.4490 4.4077 -0.3425 22.9577 2.9676 -0.7979 9.0943 -0.0000 0.0000 0.0000 -37.6371 -60.4141 10.5144 70.7552 -58.5533 -43.4145 -0.0000 0.0000 -45.4335 26.9218 31.9885 15.0567 -7.1250 0.0000 -0.0000 -6.4150 64.8831 -3.0914 -0.0000 0.0000 0.0000 62.4416 35.9013 20.9201 -128.6097 53.5411 -92.7116 0.0000 -0.0000 -6.3191 -38.7548 -10.3669 8.2195 7.1250 -0.0000 -0.0000 -10.6637 -42.9287 -0.5518
2.2959 27.3705 1.4049 162.4800 -21.1976 -171.3830 0.0000 0.0000 0.0000 -31.3395 -5.6158 -16.9321 1.7303 8.2803 23.5686 0.7751 8.4616 15.8999 0.2918 -3.4737 -9.6006 0.0000 0.0000 0.0000 0.8972 22.1772 -36.6466 -11.5906 -18.2122 64.6852 -2.0942 0.4938 -27.2570 -0.1549 -2.5358 6.9890 -2.9044 -1.6377 25.4204 -1.8306 -4.2877 6.8973 1.0070 -2.5766 -6.4060 -9.1695 -0.1662 -11.2625 4.5784 -0.2721 22.7116 3.0351 -0.7392 8.9674 0.0000 -0.0000 0.0000 -35.4363 -61.5395 8.1301 69.4090 -58.3357 -42.2673 -0.0000 0.0000 -45.5013 25.5031 30.8728 13.7548 -7.1250 0.0000 -0.0000 -7.4378 63.3509 -3.3210 0.0000 -0.0000 0.0000 61.2524 38.0449 19.3952 -127.1669 54.0761 -91.5471 0.0000 -0.0000 -6.9857 -38.5559 -10.6338 8.3669 7.1250 -0.0000 -0.0000 -10.5007 -43.2340 -0.4631
2.2520 27.2037 1.5732 162.4690 -19.7408 -171.2950 0.0000 0.0000 0.0000 -31.2297 -5.9203 -18.3596 1.8971 8.6484 24.7016 0.7198 9.0952 15.4729 0.2099 -2.9497 -8.1387 0.0000 0.0000 0.0000 -0.2613 22.1765 -39.2656 -12.1601 -18.4575 66.4954 -2.0718 1.8403 -26.7319 -0.1381 -2.3952 6.5993 -3.0471 -1.0956 25.6799 -2.0902 -3.6593 6.7606 0.6354 -2.2648 -6.7149 -8.7896 -0.1219 -10.7676 4.5596 -0.3924 22.9158 2.9503 -0.7920 8.9512 0.0000 0.0000 0.0000 -33.6887 -62.7145 6.5138 67.7434 -58.0430 -40.8518 -0.0000 0.0000 -45.5479 24.6293 31.1343 13.3354 -7.1250 0.0000 -0.0000 -8.6562 63.3827 -3.8754 0.0000 0.0000 0.0000 60.5406 39.0896 18.0546 -126.4949 54.3149 -91.0021 0.0000 -0.0000 -7.5162 -38.1449 -11.4724 8.8782 7.1250 -0.0000 -0.0000 -10.1762 -44.2098 -0.2006
2.2029 27.0621 1.7228 162.9170 -18.9391 -171.6980 0.0000 0.0000 0.0000 -30.4816 -6.9263 -18.6457 1.9776 8.8192 25.2313 0.6439 10.0218 14.9383 0.2124 -2.9670 -8.1868 0.0000 0.0000 0.0000 -0.4681 21.7461 -41.0173 -12.6327 -18.6455 67.9806 -2.0635 2.9144 -26.4247 -0.1446 -2.4504 6.7522 -2.7396 -0.8510 25.9440 -2.1794 -3.3113 6.8392 0.2667 -2.1119 -6.7896 -8.2458 -0.0699 -10.6978 4.5202 -0.4552 23.0835 2.8395 -0.7901 8.9974 0.0000 0.0000 0.0000 -31.2541 -63.7502 4.3079 65.9335 -57.6942 -39.3191 -0.0000 0.0000 -45.8536 24.6600 31.4267 13.4622 -7.1250 0.0000 -0.0000 -8.8153 63.6870 -4.0099 0.0000 0.0000 0.0000 59.5050 40.4537 16.6940 -125.3839 54.6957 -90.0976 0.0000 -0.0000 -8.3686 -37.9225 -12.0070 9.2064 7.1250 -0.0000 -0.0000 -9.9990 -44.8326 -0.0417
2.1308 26.9143 1.8767 163.5120 -17.9296 -172.2490 0.0000 0.0000 0.0000 -29.6871 -8.4925 -18.2644 1.9864 8.8376 25.2887 0.5571 10.7728 14.2920 0.1824 -2.7508 -7.5857 0.0000 0.0000 0.0000 -0.5635 21.3366 -42.8136 -13.1289 -18.8282 69.5253 -2.0412 4.1584 -26.0385 -0.2101 -2.9509 8.1421 -2.6561 -0.8432 26.4373 -1.7755 -3.2785 6.7708 0.6741 -2.0946 -7.0900 -9.1791 0.2002 -10.8382 4.5003 0.1260 23.1757 3.0536 -0.6065 9.0160 -0.0000 -0.0000 0.0000 -29.1513 -63.8653 1.0870 64.1822 -57.3251 -37.8419 -0.0000 0.0000 -46.0756 24.7189 32.2766 13.8111 -7.1250 0.0000 -0.0000 -9.3423 64.5604 -4.4419 -0.0000 -0.0000 0.0000 57.6343 42.0492 16.1681 -124.4836 54.9917 -89.3615 0.0000 -0.0000 -9.6487 -37.7540 -12.4006 9.4417 7.1250 -0.0000 -0.0000 -9.8603 -45.2877 0.0707
2.0643 26.7446 2.0197 163.9920 -17.1986 -172.7880 0.0000 0.0000 0.0000 -29.1643 -9.1672 -18.1804 1.9862 8.8372 25.2875 0.6857 10.2771 15.4027 0.2036 -2.9052 -8.0149 0.0000 0.0000 0.0000 -0.5922 20.6309 -44.4600 -13.6470 -19.0035 71.1235 -2.0661 5.2401 -26.0425 -0.2511 -3.2243 8.9039 -2.6322 -0.9092 26.8235 -1.6176 -3.3684 6.6702 0.8824 -2.1334 -7.3826 -9.3366 0.5091 -10.7322 4.4453 0.5908 23.1065 3.1068 -0.4110 8.9365 0.0000 -0.0000 0.0000 -26.6463 -63.7835 -1.8022 62.4649 -56.9318 -36.3996 -0.0000 0.0000 -46.3477 23.1416 30.6145 12.2792 -7.1250 0.0000 -0.0000 -10.0687 62.4658 -4.2970 0.0000 -0.0000 0.0000 56.2041 44.0403 15.6397 -122.3737 55.6435 -87.6264 0.0000 -0.0000 -11.0776 -37.5858 -12.5451 9.4914 7.1250 -0.0000 -0.0000 -9.7063 -45.4387 0.1061
1.9856 26.5743 2.1616 164.2040 -16.3764 -173.2340 0.0000 0.0000 0.0000 -29.0704 -10.0173 -17.9238 1.9931 8.8518 25.3327 0.7478 10.4948 16.0333 0.1466 -2.4678 -6.8004 0.0000 0.0000 0.0000 -0.8954 19.5887 -46.2636 -14.1787 -19.1673 72.7494 -2.0577 6.3278 -25.8680 -0.2250 -3.0536 8.4281 -2.5925 -0.9146 27.2686 -1.6300 -3.3992 6.5722 0.8792 -2.1458 -7.7150 -9.4575 0.6056 -10.8327 4.2589 0.8371 22.8515 3.0851 -0.3096 8.8519 -0.0000 0.0000 0.0000 -24.0509 -63.9567 -4.6352 60.8124 -56.5225 -35.0179 -0.0000 0.0000 -47.1502 25.0579 31.9558 13.8988 -7.1250 0.0000 -0.0000 -8.6988 64.3306 -4.0872 -0.0000 0.0000 0.0000 54.8643 45.9906 14.8133 -120.3063 56.2278 -85.9136 0.0000 -0.0000 -12.2259 -37.5987 -12.6220 9.5519 7.1250 -0.0000 -0.0000 -9.7225 -45.5333 0.1292
1.8984 26.3770 2.3025 164.0560 -14.4761 -173.4670 0.0000 0.0000 0.0000 -29.6180 -9.7605 -18.2194 1.9696 8.8025 25.1794 0.8787 9.4571 17.0085 0.2759 -3.3787 -9.3348 0.0000 0.0000 0.0000 -1.7309 19.3249 -48.5626 -14.7919 -19.3368 74.6089 -2.0247 7.3237 -25.5796 -0.4271 -4.1942 11.6237 -3.2713 -0.3599 27.4396 -1.7644 -2.8945 6.3815 0.9658 -1.8876 -8.0042 -9.2888 0.7708 -10.3039 3.9805 1.0905 22.1168 2.9692 -0.1756 8.4887 -0.0000 0.0000 0.0000 -21.7777 -64.2292 -7.1429 59.4567 -56.1634 -33.8895 -0.0000 0.0000 -48.0177 25.4176 32.3229 14.2566 -7.1250 0.0000 -0.0000 -8.5187 64.8015 -4.0952 -0.0000 0.0000 0.0000 53.6244 48.2925 14.0281 -116.9462 57.0702 -83.1066 0.0000 -0.0000 -13.2912 -37.8580 -12.0674 9.2302 7.1250 -0.0000 -0.0000 -9.9410 -44.8966 -0.0256
1.7835 26.2167 2.4474 164.3740 -13.5503 -174.0620 0.0000 0.0000 0.0000 -29.8833 -9.2935 -17.8384 1.8402 8.5250 24.3204 0.8470 9.3680 16.7095 0.2790 -3.3971 -9.3862 0.0000 0.0000 0.0000 -1.7759 18.2540 -50.2991 -15.3619 -19.4762 76.3244 -2.0562 7.6914 -25.7671 -0.3857 -3.9881 11.0432 -2.7680 -0.3159 27.7862 -1.8170 -2.7729 6.5556 0.5893 -1.8641 -8.0088 -8.7798 0.7180 -11.1581 3.3021 1.1919 22.2417 2.6748 -0.1418 8.6959 0.0000 -0.0000 0.0000 -18.3110 -64.6449 -10.9626 57.8310 -55.7037 -32.5427 -0.0000 0.0000 -47.9931 24.5267 32.3650 13.7261 -7.1250 0.0000 -0.0000 -9.6417 64.5959 -4.5935 0.0000 -0.0000 0.0000 51.6221 50.4671 12.1946 -114.5985 57.5854 -81.1302 0.0000 -0.0000 -14.3040 -37.3885 -12.8134 9.6196 7.1250 -0.0000 -0.0000 -9.5288 -45.7339 0.1742
1.6522 26.0323 2.5829 164.4410 -12.7232 -174.8720 0.0000 0.0000 0.0000 -30.5850 -8.5945 -17.1714 1.7274 8.2737 23.5484 0.6075 11.0344 14.8640 0.1889 -2.7990 -7.7196 0.0000 0.0000 0.0000 -2.0940 17.0657 -51.7240 -15.9429 -19.6007 78.0615 -2.0361 8.6565 -25.6117 -0.4364 -4.2390 11.7502 -2.3629 -0.1473 28.6664 -1.8226 -2.5484 6.6907 0.3023 -1.7903 -8.3104 -8.5585 0.6133 -11.7825 3.0123 1.1674 22.2292 2.5435 -0.1487 8.8154 0.0000 0.0000 0.0000 -15.0544 -65.1439 -14.3051 56.4115 -55.2753 -31.3729 -0.0000 0.0000 -48.5371 24.9838 33.6745 14.4864 -7.1250 0.0000 -0.0000 -10.0996 66.0347 -5.1497 0.0000 0.0000 0.0000 48.6464 51.7698 9.4958 -113.0292 57.8980 -79.8031 0.0000 -0.0000 -15.4077 -36.5521 -13.5709 9.8685 7.1250 -0.0000 -0.0000 -8.7428 -46.5157 0.3295
1.5136 25.8485 2.7260 164.5590 -11.8420 -175.6470 0.0000 0.0000 0.0000 -31.1439 -8.2097 -16.5633 1.6078 7.9964 22.7031 0.5068 11.8061 14.1435 0.2803 -3.4051 -9.4087 0.0000 0.0000 0.0000 -2.5474 16.0203 -53.3186 -16.5246 -19.7079 79.7908 -1.9457 9.9403 -25.0460 -0.4490 -4.2990 11.9194 -2.2262 0.1586 29.6388 -1.5100 -2.1906 6.8132 0.4758 -1.6477 -8.6417 -8.5955 0.3909 -11.9310 2.5076 1.0478 21.6856 2.3601 -0.2267 8.6741 0.0000 0.0000 0.0000 -11.8001 -65.4196 -17.6970 54.9266 -54.7990 -30.1560 -0.0000 0.0000 -49.4752 24.9614 33.9244 14.5628 -7.1250 0.0000 -0.0000 -10.3362 66.2770 -5.3290 0.0000 0.0000 0.0000 44.6041 53.3648 6.0744 -110.6546 58.3250 -77.7868 0.0000 -0.0000 -16.4949 -36.3255 -13.0455 9.4233 7.1250 -0.0000 -0.0000 -8.5098 -45.8487 0.1796
1.3711 25.6725 2.8707 164.9610 -10.7190 -176.1430 0.0000 0.0000 0.0000 -31.2101 -8.9905 -16.3483 1.5634 7.8903 22.3814 0.4289 12.7112 13.7344 0.2539 -3.2423 -8.9540 0.0000 0.0000 0.0000 -2.9095 15.5206 -55.1255 -17.0584 -19.7913 81.3706 -1.8354 11.4017 -24.4286 -0.4360 -4.2371 11.7446 -1.8025 0.4894 30.3776 -1.3026 -1.6698 6.7825 0.2951 -1.4163 -9.0442 -8.4532 0.2205 -12.2112 2.4890 0.8328 21.6337 2.3096 -0.3077 8.7221 0.0000 0.0000 0.0000 -8.5706 -65.7196 -20.6428 53.5442 -54.3286 -29.0297 -0.0000 0.0000 -50.2874 25.2707 33.9556 14.7713 -7.1250 0.0000 -0.0000 -9.9725 66.3982 -5.1676 0.0000 0.0000 0.0000 41.0886 54.3499 2.7081 -109.1270 58.5715 -76.4850 0.0000 -0.0000 -17.3458 -35.8414 -13.1650 9.3422 7.1250 -0.0000 -0.0000 -8.0448 -45.9180 0.1835
1.2171 25.4770 3.0105 165.7640 -9.4497 -176.6590 0.0000 0.0000 0.0000 -30.9218 -9.6646 -16.5949 1.6153 8.0139 22.7565 0.4421 13.3667 14.1440 0.2648 -3.3105 -9.1445 0.0000 0.0000 0.0000 -2.8148 15.3140 -56.8814 -17.5823 -19.8593 82.9151 -1.7362 12.8148 -23.9564 -0.4493 -4.3006 11.9238 -1.2892 0.7455 30.9092 -0.9018 -1.1453 6.6246 0.2676 -1.1707 -9.4829 -8.5575 0.1956 -11.7529 2.3763 0.7723 21.5409 2.2767 -0.3652 8.6108 0.0000 0.0000 0.0000 -5.9136 -65.7366 -23.2793 52.0592 -53.7930 -27.8273 -0.0000 0.0000 -51.1219 25.4170 34.3761 15.0192 -7.1250 0.0000 -0.0000 -10.1465 66.8597 -5.3658 0.0000 0.0000 0.0000 38.1987 55.6468 -0.0410 -106.4561 58.9516 -74.2012 0.0000 -0.0000 -17.9360 -34.5312 -13.3004 8.9952 7.1250 -0.0000 -0.0000 -6.7834 -45.8799 0.1480
1.0519 25.2905 3.1405 166.3050 -8.3481 -177.2120 0.0000 0.0000 0.0000 -31.0350 -9.8506 -16.5024 1.6526 8.1015 23.0229 0.5747 13.7483 15.5147 0.3074 -3.5644 -9.8542 0.0000 0.0000 0.0000 -3.0822 14.9644 -58.4368 -18.0972 -19.9130 84.4287 -1.5872 14.3519 -23.2640 -0.4221 -4.1699 11.5551 -0.4377 1.1230 31.6019 -1.1901 -0.4679 6.6035 -0.8044 -0.8901 -9.8459 -6.8703 -0.0932 -12.1731 2.1941 0.0764 21.9973 1.8648 -0.5832 8.8810 0.0000 0.0000 0.0000 -1.6359 -67.0389 -26.7313 50.5199 -53.2031 -26.5899 -0.0000 0.0000 -51.5284 25.5753 35.0198 15.3572 -7.1250 0.0000 -0.0000 -10.5204 67.5451 -5.7298 0.0000 0.0000 0.0000 35.5740 56.0900 -4.0911 -103.4618 59.3041 -71.6310 0.0000 -0.0000 -18.5623 -33.6250 -12.4569 8.1634 7.1250 -0.0000 -0.0000 -5.9307 -44.7553 -0.0359
0.8705 25.0946 3.2551 167.0340 -7.0716 -177.7730 0.0000 0.0000 0.0000 -31.0101 -9.9606 -16.2020 1.7041 8.2205 23.3857 0.5734 15.0007 16.0228 0.2559 -3.2548 -8.9891 0.0000 0.0000 0.0000 -3.2755 14.6855 -60.3708 -18.7176 -19.9605 86.2481 -1.3168 15.7949 -21.8393 -0.4310 -4.2130 11.6766 -0.3036 1.0303 31.4117 -0.6907 -0.5280 6.7411 -0.2898 -0.9359 -9.5917 -7.7788 0.2290 -12.3565 2.0420 0.7397 22.3027 2.0392 -0.3875 8.9888 0.0000 0.0000 0.0000 1.1328 -66.3909 -30.7983 48.6793 -52.4487 -25.1232 -0.0000 0.0000 -51.4436 25.2788 35.3604 15.2855 -7.1250 0.0000 -0.0000 -11.2247 67.7911 -6.1799 0.0000 0.0000 0.0000 32.3956 58.4740 -6.1744 -98.9098 59.6979 -67.7083 0.0000 -0.0000 -18.9787 -32.6889 -12.4525 7.8782 7.1250 -0.0000 -0.0000 -5.0495 -44.6225 -0.0472
0.6847 24.8707 3.3596 167.6280 -5.6890 -178.4120 0.0000 0.0000 0.0000 -31.2211 -9.3791 -15.9394 1.7789 8.3894 23.9033 0.3489 13.6160 13.3581 0.2124 -2.9670 -8.1869 0.0000 0.0000 0.0000 -3.6401 14.4544 -62.4714 -19.4939 -19.9939 88.5200 -1.0210 17.2885 -20.3278 -0.4200 -4.1597 11.5264 -0.4751 1.1527 31.3724 -0.4519 -0.4377 6.7969 0.0482 -0.9052 -9.5066 -8.1296 0.4473 -12.8534 2.2490 1.1092 22.6782 2.2170 -0.2383 9.1875 0.0000 0.0000 0.0000 4.0994 -66.0557 -34.3402 46.7675 -51.6056 -23.6161 -0.0000 0.0000 -50.8805 24.7791 35.5389 15.0198 -7.1250 0.0000 -0.0000 -12.0425 67.8140 -6.6414 0.0000 0.0000 0.0000 28.9254 60.3150 -8.6274 -93.5590 59.9521 -63.0817 0.0000 -0.0000 -19.4967 -32.5904 -12.7441 8.0272 7.1250 -0.0000 -0.0000 -4.9473 -44.9482 -0.0063
0.4915 24.6286 3.4530 168.4570 -4.5565 -179.0470 0.0000 0.0000 0.0000 -31.4172 -7.3481 -15.6025 1.8170 8.4740 24.1635 0.1691 8.4625 8.8196 0.9970 -6.3544 -17.8161 0.0000 0.0000 0.0000 -3.7364 13.6829 -64.8696 -20.3596 -19.9969 91.0515 -0.5765 18.8210 -17.8484 -0.4611 -4.3558 12.0798 -0.3500 1.0373 31.1198 -0.3028 -0.5015 6.6432 0.1677 -0.9265 -9.5604 -7.6693 0.7035 -13.0290 1.7552 1.4287 23.2964 2.0106 -0.1491 9.4269 0.0000 0.0000 0.0000 6.5060 -65.8031 -36.9696 44.5876 -50.5648 -21.9198 -0.0000 0.0000 -50.7889 25.4581 36.5326 15.8228 -7.1250 0.0000 -0.0000 -12.1814 68.9923 -7.0429 0.0000 0.0000 0.0000 25.4122 61.6569 -10.9981 -86.9134 59.9640 -57.3273 0.0000 -0.0000 -20.3728 -31.9624 -12.0109 7.3981 7.1250 -0.0000 -0.0000 -4.3849 -44.0139 -0.1069
0.2964 24.3846 3.5490 168.8080 -3.8233 -179.5120 0.0000 0.0000 0.0000 -32.1496 -5.3985 -15.2850 1.8416 8.5280 24.3296 -0.0123 5.5029 3.4672 1.4457 -7.6010 -21.5086 0.0000 0.0000 0.0000 -4.3847 12.3638 -67.2714 -21.1587 -19.9678 93.3895 -0.1610 20.4156 -15.6461 -0.4234 -4.1762 11.5730 -0.5002 0.8937 30.5430 -0.2872 -0.7305 6.6966 0.3508 -1.0341 -9.2204 -7.7963 0.7968 -13.6728 1.9170 1.6224 23.5266 2.1194 -0.0566 9.6160 0.0000 0.0000 0.0000 10.5970 -65.7083 -41.2212 42.0764 -49.2531 -19.9984 -0.0000 0.0000 -50.2466 25.2717 37.0608 15.8817 -7.1250 0.0000 -0.0000 -13.0119 69.4446 -7.6607 0.0000 0.0000 0.0000 20.8761 62.8506 -14.3225 -80.2350 59.6366 -51.5536 0.0000 -0.0000 -21.0753 -32.2902 -12.0138 7.4934 7.1250 -0.0000 -0.0000 -4.6900 -44.0592 -0.1092
0.1090 24.1541 3.6500 168.9460 -2.7545 -180.1950 0.0000 0.0000 0.0000 -33.0361 -3.5023 -15.5088 1.9131 8.6827 24.8077 -0.0553 4.3332 -0.3164 1.5831 -7.9377 -22.5250 0.0000 0.0000 0.0000 -5.1650 11.4274 -69.2335 -21.8796 -19.9151 95.5031 0.2585 22.0529 -13.5233 -0.2247 -3.0511 8.4210 -0.8734 0.9789 30.6005 -0.3900 -0.7517 6.5853 0.4620 -1.0366 -9.3762 -7.6825 0.9549 -12.9797 1.7763 1.7896 22.9382 2.0566 0.0337 9.2722 0.0000 0.0000 0.0000 13.3600 -65.7566 -44.1715 40.2275 -48.2041 -18.6087 -0.0000 0.0000 -49.6376 25.7211 37.8137 16.4541 -7.1250 0.0000 -0.0000 -13.2964 70.3131 -8.0874 0.0000 0.0000 0.0000 17.5775 63.7171 -17.0037 -74.2408 59.0405 -46.3961 0.0000 -0.0000 -21.8577 -30.4509 -12.2179 7.0921 7.1250 -0.0000 -0.0000 -2.9705 -44.0593 -0.0690
-0.0604 23.9837 3.7713 169.1940 -1.6821 -180.7820 0.0000 0.0000 0.0000 -33.6396 -1.7995 -16.4623 2.0555 8.9808 25.7354 -0.0401 3.6820 -2.3871 1.6888 -8.1854 -23.2788 0.0000 0.0000 0.0000 -5.8377 11.0896 -70.9028 -22.3873 -19.8628 96.9954 0.6165 23.1271 -11.4864 -0.1661 -2.6254 7.2376 -1.4046 1.1791 30.7650 -0.2235 -0.7417 6.8218 0.9586 -1.0626 -9.1812 -7.8694 1.0119 -13.0794 1.5216 2.0290 22.3823 2.0228 0.1356 9.0900 0.0000 -0.0000 0.0000 18.0894 -65.5514 -49.5185 38.1335 -46.9244 -17.0631 -0.0000 0.0000 -48.8991 25.6661 37.7997 16.4110 -7.1250 0.0000 -0.0000 -13.3536 70.2817 -8.1134 0.0000 -0.0000 0.0000 13.0612 65.0050 -21.1666 -68.8315 58.2372 -41.7760 0.0000 -0.0000 -22.6324 -29.9514 -11.1206 6.3417 7.1250 -0.0000 -0.0000 -2.5744 -42.7474 -0.1432
-0.2158 23.8698 3.9061 169.2270 -0.9886 -180.9510 0.0000 0.0000 0.0000 -34.2014 -1.1396 -17.9830 2.3006 9.4660 27.2641 -0.0226 3.3729 -3.4260 1.5183 -7.7810 -22.0510 0.0000 0.0000 0.0000 -6.7884 10.6384 -72.5860 -22.6816 -19.8267 97.8622 0.9997 23.8552 -8.7881 -0.1383 -2.3966 6.6032 -1.4850 1.1067 31.0975 -0.5386 -0.9312 6.7712 0.7278 -1.1601 -9.4006 -7.9054 1.0195 -12.3528 1.8513 1.9250 21.6242 2.1143 0.1547 8.6926 -0.0000 -0.0000 0.0000 21.7308 -65.7281 -53.5217 36.4923 -45.8488 -15.8747 -0.0000 0.0000 -47.8366 25.1178 37.8797 16.0587 -7.1250 0.0000 -0.0000 -14.1885 70.1799 -8.5952 -0.0000 -0.0000 0.0000 10.1056 65.8554 -24.4543 -64.5286 57.4006 -38.1336 0.0000 -0.0000 -22.9369 -31.3167 -9.4553 5.7076 7.1250 -0.0000 -0.0000 -3.8705 -40.9808 -0.3843
-0.3660 23.8311 4.0353 170.0780 -0.0039 -181.0670 0.0000 0.0000 0.0000 -33.6752 -0.9369 -19.5034 2.5476 9.9239 28.7308 -0.0199 3.5109 -3.8979 1.3621 -7.3872 -20.8678 0.0000 0.0000 0.0000 -6.6734 10.7546 -73.6342 -22.6788 -19.8271 97.8540 1.3312 24.2827 -5.9431 -0.1663 -2.6272 7.2426 -2.3307 -0.9758 31.2208 -0.6474 -0.1579 6.8834 0.5474 0.7626 -9.2917 -7.5502 1.2240 -12.2559 1.4378 2.1761 21.8996 1.9418 0.2333 8.7659 -0.0000 -0.0000 0.0000 26.2104 -65.3622 -58.0218 34.8257 -44.6872 -14.6906 -0.0000 0.0000 -47.1455 25.6799 38.7505 16.7502 -7.1250 0.0000 -0.0000 -14.5530 71.1912 -9.1442 -0.0000 -0.0000 0.0000 6.4236 66.3150 -28.1124 -61.0916 56.5939 -35.2508 0.0000 -0.0000 -23.1940 -30.9636 -9.3393 5.5612 7.1250 -0.0000 -0.0000 -3.5583 -40.8117 -0.3681
-0.4954 23.7573 4.1532 170.8420 1.0596 -181.1620 0.0000 0.0000 0.0000 -33.1242 -0.6955 -21.3021 2.8962 10.5251 30.6946 -0.0084 3.4918 -4.5584 1.3595 -7.3805 -20.8475 0.0000 0.0000 0.0000 -6.6013 11.1392 -75.0051 -22.8173 -19.8086 98.2625 1.4753 24.6219 -4.8383 -0.0221 -0.9604 2.6400 -1.7998 -0.7950 31.5999 -0.7970 0.1832 6.7505 -0.0649 0.8978 -9.6421 -6.7289 1.1662 -11.8140 1.2230 1.8493 22.3427 1.6941 0.0848 8.8592 -0.0000 -0.0000 0.0000 28.3272 -65.4502 -59.6258 34.0626 -44.1310 -14.1566 -0.0000 0.0000 -46.8516 25.4471 38.6694 16.5582 -7.1250 0.0000 -0.0000 -14.7617 71.0370 -9.2270 -0.0000 -0.0000 0.0000 4.5019 66.0638 -30.3387 -57.8488 55.7089 -32.5574 0.0000 -0.0000 -23.5054 -27.8161 -10.3668 5.4235 7.1250 -0.0000 -0.0000 -0.6935 -41.6653 -0.0571
-0.6021 23.7118 4.2496 171.4960 2.4569 -181.4360 0.0000 0.0000 0.0000 -32.5795 -0.3528 -22.2928 3.1200 10.8869 31.8992 -0.0070 3.9902 -5.3940 1.0691 -6.5731 -18.4565 0.0000 0.0000 0.0000 -6.4067 11.9393 -75.8283 -23.1246 -19.7643 99.1703 1.1978 24.2805 -7.3664 -0.2849 3.4325 -9.4852 -1.9761 -0.5875 31.7760 -0.8002 0.4274 6.9333 -0.0609 1.0278 -9.5166 -6.6203 1.3602 -11.7942 1.1647 2.0726 22.6010 1.6806 0.1713 8.9358 -0.0000 -0.0000 0.0000 30.8113 -64.8262 -62.0572 33.0324 -43.3549 -13.4443 -0.0000 0.0000 -46.4526 24.7226 38.4877 15.9894 -7.1250 0.0000 -0.0000 -15.4953 70.6261 -9.5520 -0.0000 -0.0000 0.0000 1.3482 66.6872 -33.4419 -54.5981 54.6896 -29.8878 0.0000 -0.0000 -23.7923 -27.2518 -9.5095 4.8639 7.1250 -0.0000 -0.0000 -0.2538 -40.6500 -0.0272
-0.6880 23.6559 4.3269 171.9690 3.3052 -181.7300 0.0000 0.0000 0.0000 -32.2405 -0.3286 -22.8941 3.2992 11.1643 32.8361 0.0076 4.2692 -6.3820 0.9898 -6.3321 -17.7509 0.0000 0.0000 0.0000 -5.6843 11.3732 -76.4808 -23.8867 -19.6339 101.4308 0.0660 20.1208 -13.6125 -0.8557 5.8992 -16.4921 -2.1407 -0.4999 31.8667 -0.9053 0.4624 6.9267 -0.0995 1.0434 -9.5659 -6.6889 0.1672 -11.3702 1.3469 2.4296 22.6072 1.9074 1.1043 8.8722 0.0000 -0.0000 0.0000 32.6686 -64.4721 -63.5720 32.1888 -42.6972 -12.8687 -0.0000 0.0000 -46.1754 24.5415 38.3302 15.8111 -7.1250 0.0000 -0.0000 -15.5294 70.4185 -9.5021 0.0000 -0.0000 0.0000 -0.0654 67.1037 -35.0672 -51.8711 53.7228 -27.6756 0.0000 -0.0000 -23.3795 -26.9462 -8.8154 4.4546 7.1250 -0.0000 -0.0000 -0.0335 -39.8490 -0.0042
-0.7490 23.6084 4.3870 172.2300 3.7061 -182.0150 0.0000 0.0000 0.0000 -32.1440 -0.2504 -23.1594 3.4258 11.3544 33.4847 0.0173 4.4802 -6.9998 0.9310 -6.1465 -17.2100 0.0000 0.0000 0.0000 -4.8893 10.3292 -76.5467 -25.1172 -19.3603 105.1164 -1.3202 13.0058 -21.1666 -1.1237 6.7334 -18.9280 -2.4039 -0.5278 31.7672 -1.1011 0.3337 6.9921 -0.1174 0.9918 -9.4370 -6.6220 0.2672 -11.3921 1.4366 2.5404 22.7019 1.9405 1.1694 8.9022 -0.0000 -0.0000 0.0000 34.7815 -64.4647 -65.6638 31.4038 -42.0667 -12.3395 -0.0000 0.0000 -45.3267 24.2731 38.2376 15.5947 -7.1250 0.0000 -0.0000 -15.7635 70.2438 -9.5868 -0.0000 -0.0000 0.0000 -1.2353 67.5103 -36.6111 -49.6341 52.8468 -25.8822 0.0000 -0.0000 -23.2959 -26.6468 -8.3475 4.1665 7.1250 -0.0000 -0.0000 0.1964 -39.3030 0.0276
-0.7784 23.5592 4.4371 172.8620 4.0989 -182.0480 0.0000 0.0000 0.0000 -31.4480 -0.3600 -23.9425 3.6748 11.7146 34.7298 0.0580 4.4289 -8.1480 0.7169 -5.4108 -15.0839 0.0000 0.0000 0.0000 -3.5996 9.5173 -75.8217 -26.3523 -19.0037 108.8743 -1.7766 7.0877 -23.9184 -0.7947 5.6901 -15.8878 -2.4666 -0.5315 31.5027 -1.1788 0.2791 6.9706 -0.1428 0.9552 -9.3341 -6.4431 0.2812 -11.6717 1.2116 2.6193 22.9899 1.8524 1.1942 9.0572 0.0000 0.0000 0.0000 38.2094 -64.9928 -69.9280 30.0979 -40.9772 -11.4738 -0.0000 0.0000 -43.8767 23.1489 38.6471 14.9498 -7.1250 0.0000 -0.0000 -17.7766 70.2590 -10.8415 0.0000 0.0000 0.0000 -1.2526 68.1958 -37.6069 -48.1755 52.2326 -24.7244 0.0000 -0.0000 -22.7514 -25.7641 -7.8393 3.7664 7.1250 -0.0000 -0.0000 0.9265 -38.6699 0.1445
-0.7899 23.5080 4.4879 173.8580 4.4880 -181.7590 0.0000 0.0000 0.0000 -30.2852 -0.5108 -25.2864 3.9933 12.1514 36.2698 0.0798 4.4008 -8.6856 0.7221 -5.4298 -15.1387 0.0000 0.0000 0.0000 -2.3218 9.1602 -74.0716 -27.2600 -18.6863 111.6840 -1.7244 6.5745 -23.5803 -0.7552 5.5503 -15.4849 -2.3293 -0.5880 31.0731 -1.0353 0.2388 6.9776 -0.0347 0.9163 -9.1231 -6.6007 0.3508 -11.7301 0.8819 2.8135 22.8534 1.7845 1.2339 9.0198 0.0000 0.0000 0.0000 41.5294 -65.5649 -75.1160 28.6761 -39.7313 -10.5531 -0.0000 0.0000 -41.4203 22.9963 37.6256 14.5256 -7.1250 0.0000 -0.0000 -16.6429 69.2592 -9.7670 0.0000 0.0000 0.0000 -1.9781 68.9622 -39.1282 -47.0103 51.7162 -23.8065 0.0000 -0.0000 -21.9640 -25.8569 -6.9100 3.3370 7.1250 -0.0000 -0.0000 0.7847 -37.6488 0.1420
-0.7837 23.4855 4.5343 174.8260 4.6250 -181.5300 0.0000 0.0000 0.0000 -29.1618 -0.5741 -26.4287 4.2892 12.5356 37.6539 0.1083 4.3292 -9.2939 0.6046 -4.9771 -13.8433 0.0000 0.0000 0.0000 -1.0267 9.4065 -70.6971 -27.5385 -18.5790 112.5558 -1.2438 6.8641 -19.9286 -0.7394 5.4932 -15.3207 -2.3850 -0.7142 30.8212 -0.7553 0.0620 6.9618 0.3858 0.8212 -9.0170 -7.3044 0.6364 -12.2790 1.3659 3.2397 22.8040 2.1173 1.4059 9.0675 0.0000 0.0000 0.0000 44.0014 -65.5624 -79.1127 27.7283 -38.8649 -9.9528 -0.0000 0.0000 -39.8474 21.5850 38.4848 13.8312 -7.1250 0.0000 -0.0000 -19.5437 69.6044 -11.6624 0.0000 0.0000 0.0000 -2.8769 70.1491 -41.0946 -45.7237 51.1182 -22.8008 0.0000 -0.0000 -20.6597 -25.1338 -6.3502 2.9704 7.1250 -0.0000 -0.0000 1.3645 -36.9846 0.2691
-0.7578 23.4135 4.5662 175.7490 4.8455 -181.1520 0.0000 0.0000 0.0000 -28.0450 -0.6371 -27.9396 4.6712 13.0036 39.3821 0.1530 4.1124 -10.0606 0.7515 -5.5368 -15.4462 0.0000 0.0000 0.0000 0.4272 10.1137 -66.6100 -27.2996 -18.6713 111.8076 -0.6017 5.2513 -13.8131 -0.5315 4.6717 -12.9745 -2.6963 -0.7221 30.1244 -0.3879 0.0175 7.1712 1.0063 0.7983 -8.4369 -8.0136 0.6581 -12.8878 1.4907 3.4214 22.8628 2.3072 1.4270 9.1829 -0.0000 0.0000 0.0000 47.0103 -65.1841 -83.1140 26.3935 -37.5947 -9.1267 -0.0000 0.0000 -37.9058 21.8506 38.3633 13.9757 -7.1250 0.0000 -0.0000 -19.0463 69.5784 -11.3469 -0.0000 0.0000 0.0000 -5.2713 71.4369 -44.7721 -44.4146 50.4784 -21.7862 0.0000 -0.0000 -19.3349 -24.4020 -6.0962 2.7583 7.1250 -0.0000 -0.0000 1.9665 -36.6626 0.4035
-0.7206 23.3546 4.5957 176.8860 5.1329 -180.8400 0.0000 0.0000 0.0000 -26.5512 -0.8861 -29.3122 5.0874 13.4815 41.1987 0.2110 4.0926 -11.1678 0.7389 -5.4915 -15.3158 0.0000 0.0000 0.0000 2.6331 11.3328 -61.2233 -26.2025 -19.0515 108.4148 -0.1685 1.4184 -7.3851 -0.1621 2.5937 -7.1496 -2.6169 -0.7380 29.6254 -0.1570 0.0724 7.3719 1.2056 0.8198 -7.9722 -8.9045 0.6247 -13.6916 2.2987 3.4551 23.2471 2.7601 1.4312 9.4335 0.0000 -0.0000 0.0000 50.0906 -64.5255 -86.3091 24.8931 -36.0946 -8.2269 -0.0000 0.0000 -36.2824 22.3472 37.5253 14.0578 -7.1250 0.0000 -0.0000 -17.3416 68.9607 -10.0700 0.0000 -0.0000 0.0000 -8.6643 72.3522 -49.4376 -42.7642 49.6249 -20.5209 0.0000 -0.0000 -18.2794 -24.1266 -5.3174 2.3768 7.1250 -0.0000 -0.0000 2.1459 -35.7964 0.4857
-0.6761 23.2386 4.6076 177.2990 4.8862 -180.6340 0.0000 0.0000 0.0000 -25.8468 -1.6039 -30.4652 5.5723 14.0007 43.2401 0.2874 3.9019 -12.3309 0.6094 -4.9967 -13.8991 0.0000 0.0000 0.0000 4.2353 11.4524 -55.1187 -24.5294 -19.5009 103.3497 -0.0575 -1.0590 -5.0505 -0.0800 1.8245 -5.0209 -2.9406 -0.8058 29.3009 -0.1842 -0.1180 7.3843 1.4313 0.7250 -7.7882 -9.5796 0.5121 -14.1298 3.1532 3.3038 23.6129 3.1713 1.3839 9.6229 -0.0000 0.0000 0.0000 52.6858 -63.5899 -88.1572 23.4810 -34.6106 -7.4097 -0.0000 0.0000 -36.0195 20.9244 38.3166 13.3363 -7.1250 0.0000 -0.0000 -20.1371 69.2405 -11.8636 -0.0000 0.0000 0.0000 -11.2521 73.0263 -53.2928 -41.3191 48.8323 -19.4265 0.0000 -0.0000 -17.4031 -23.7143 -4.8565 2.1298 7.1250 -0.0000 -0.0000 2.4599 -35.2733 0.5882
-0.5995 23.1021 4.6284 177.7620 4.7667 -180.2720 0.0000 0.0000 0.0000 -24.9085 -2.2001 -32.2043 6.1999 14.6193 45.7789 0.3548 3.6128 -13.1686 0.7004 -5.3495 -14.9081 0.0000 0.0000 0.0000 6.2296 12.1670 -48.4445 -21.9216 -19.9112 95.6263 0.0333 -4.1909 -4.3645 -0.1515 2.5084 -6.9129 -3.4155 -0.5257 29.0759 -0.0730 0.0804 7.2769 1.7627 0.8091 -7.8031 -9.2775 0.5895 -15.1255 2.9252 3.6268 24.7922 3.1414 1.5192 10.2261 -0.0000 0.0000 0.0000 55.3416 -62.6357 -88.4402 21.7100 -32.6477 -6.4287 -0.0000 0.0000 -36.2339 20.7181 36.3765 12.6435 -7.1250 0.0000 -0.0000 -17.9955 67.3886 -9.8215 -0.0000 0.0000 0.0000 -13.5162 72.8600 -56.5059 -39.9066 48.0145 -18.3698 0.0000 -0.0000 -16.9147 -23.0877 -4.1308 1.7588 7.1250 -0.0000 -0.0000 2.9321 -34.4570 0.7596
-0.5024 22.9428 4.6288 178.1440 5.0646 -180.0590 0.0000 0.0000 0.0000 -23.9179 -2.0241 -34.0175 6.9318 15.2742 48.6160 0.5239 1.8857 -14.4861 0.6967 -5.3356 -14.8683 0.0000 0.0000 0.0000 8.1971 13.2468 -41.0633 -18.5910 -19.9523 85.8771 0.1884 -7.6703 -2.7505 -0.0681 1.6839 -4.6328 -4.0293 -0.0501 28.5874 -0.0733 0.5318 7.3595 1.9668 1.0205 -7.4923 -10.2581 0.3184 -14.9016 4.1350 3.0744 24.2509 3.6417 1.3141 9.9798 -0.0000 -0.0000 0.0000 57.8303 -61.9460 -89.4318 20.6115 -31.3720 -5.8464 -0.0000 0.0000 -36.1644 19.9412 35.8863 12.0062 -7.1250 0.0000 -0.0000 -18.3842 66.7009 -9.7519 -0.0000 -0.0000 0.0000 -16.4231 72.2862 -60.2408 -38.4924 47.1509 -17.3257 0.0000 -0.0000 -16.8756 -22.8340 -4.0896 1.7200 7.1250 -0.0000 -0.0000 3.1384 -34.4025 0.8173
-0.4103 22.7539 4.6426 178.9330 4.6667 -179.5080 0.0000 0.0000 0.0000 -22.4000 -2.6300 -36.4651 7.8687 16.0218 52.0882 0.6045 1.2136 -15.1757 0.6892 -5.3074 -14.7874 0.0000 0.0000 0.0000 10.4807 13.7379 -33.8414 -14.8378 -19.3487 74.7475 0.3782 -11.0472 -1.7098 -0.0056 0.4852 -1.3332 -3.6063 0.0519 28.1544 -0.0785 0.7246 7.1520 1.6565 1.0819 -7.5324 -9.9434 0.1646 -14.5867 4.1949 2.7272 24.1147 3.5588 1.1950 9.8994 0.0000 0.0000 0.0000 60.2449 -61.7407 -91.2434 20.3739 -31.0901 -5.7232 -0.0000 0.0000 -35.7758 19.7024 35.9257 11.8658 -7.1250 0.0000 -0.0000 -18.7112 66.6675 -9.9162 0.0000 0.0000 0.0000 -15.9368 71.3464 -60.5402 -38.9114 47.4115 -17.6335 0.0000 -0.0000 -16.9636 -22.4044 -4.6780 1.9257 7.1250 -0.0000 -0.0000 3.5343 -35.0199 0.8676
-0.2971 22.5374 4.6490 179.1700 3.8957 -178.6070 0.0000 0.0000 0.0000 -20.9177 -4.3452 -38.5915 8.6169 16.5548 54.7557 0.7225 -0.8637 -15.7900 0.0206 -0.9259 -2.5450 0.0000 0.0000 0.0000 11.8448 14.1053 -27.1749 -11.1787 -18.0214 63.3607 0.7087 -15.1047 -1.9553 -0.0270 1.0607 -2.9160 -3.7158 0.1575 27.1461 -0.1916 0.7284 6.8157 1.6057 1.0362 -7.4164 -9.5064 -0.0099 -14.8008 4.2750 2.4306 24.6349 3.5036 1.1088 10.1530 0.0000 0.0000 0.0000 62.1940 -61.5250 -92.0758 19.8390 -30.4479 -5.4495 -0.0000 0.0000 -35.2802 19.2208 34.6925 11.2239 -7.1250 0.0000 -0.0000 -17.9889 65.3764 -8.9900 0.0000 0.0000 0.0000 -16.0308 70.1760 -60.5118 -38.9060 47.4082 -17.6296 0.0000 -0.0000 -17.0447 -23.3032 -4.8717 2.0949 7.1250 -0.0000 -0.0000 2.8026 -35.2704 0.6705
-0.1719 22.3533 4.6762 179.2680 3.5898 -177.9530 0.0000 0.0000 0.0000 -20.1852 -4.5317 -41.5902 9.6855 17.2292 58.4321 0.7812 -1.2150 -16.3323 0.6590 -5.1920 -14.4570 0.0000 0.0000 0.0000 12.9697 15.1532 -20.3881 -7.8313 -15.9938 51.9529 1.0628 -19.0736 -0.0108 -0.0002 0.0946 -0.2600 -3.7639 0.4386 26.3615 -0.4686 0.9834 6.5176 1.2557 1.1210 -7.3723 -9.0683 -0.1873 -14.3963 4.3616 2.0075 24.4510 3.3970 0.9716 10.0416 -0.0000 0.0000 0.0000 63.0216 -61.5227 -90.7543 19.7900 -30.3885 -5.4247 -0.0000 0.0000 -34.9519 19.7000 32.9300 11.0144 -7.1250 0.0000 -0.0000 -15.8060 63.8341 -7.3066 -0.0000 0.0000 0.0000 -17.0251 68.9614 -61.5757 -37.8311 46.7311 -16.8425 0.0000 -0.0000 -16.7227 -23.6034 -5.6830 2.4776 7.1250 -0.0000 -0.0000 2.6092 -36.1664 0.5671
-0.0358 22.1352 4.7202 179.4970 3.4370 -177.4110 0.0000 0.0000 0.0000 -18.9337 -5.1435 -43.9283 10.5945 17.7309 61.4574 0.8756 -1.9922 -17.1217 0.4801 -4.4434 -12.3275 0.0000 0.0000 0.0000 14.0856 16.7067 -14.0043 -5.2942 -13.7077 42.0789 1.0032 -19.9142 3.0086 -0.0012 -0.2225 0.6113 -3.5366 0.7168 25.6565 -0.8137 1.3035 6.2000 0.6558 1.2358 -7.3819 -7.5692 -0.1727 -13.2532 3.3415 1.7748 23.5109 2.7115 0.8946 9.5292 0.0000 -0.0000 0.0000 62.8251 -61.8967 -88.5562 20.1966 -30.8785 -5.6319 -0.0000 0.0000 -34.4057 20.4998 31.3259 11.0001 -7.1250 0.0000 -0.0000 -13.6107 62.4890 -5.8421 0.0000 -0.0000 0.0000 -17.7393 67.8581 -62.5164 -37.2964 46.3840 -16.4543 0.0000 -0.0000 -16.6090 -24.7954 -5.9580 2.7453 7.1250 -0.0000 -0.0000 1.6255 -36.5339 0.3385
0.1148 21.8649 4.7930 179.6060 2.5991 -176.9700 0.0000 0.0000 0.0000 -17.7038 -6.6480 -46.5142 11.7391 18.2782 65.1594 0.9900 -2.3498 -18.1630 0.6207 -5.0419 -14.0280 0.0000 0.0000 0.0000 15.0243 18.5202 -8.1182 -3.3382 -11.2234 33.0370 0.5145 -18.4146 7.6435 -0.0009 -0.1901 0.5223 -2.9764 0.6931 25.0118 -1.1652 1.3426 5.9593 -0.0496 1.2215 -7.3130 -7.3780 0.6993 -12.6337 4.0136 0.6888 23.1757 2.6524 -0.2435 9.3166 0.0000 0.0000 0.0000 61.8688 -62.5747 -86.1484 20.8555 -31.6593 -5.9739 -0.0000 0.0000 -33.8600 20.0797 29.1484 10.0956 -7.1250 0.0000 -0.0000 -12.5917 60.2400 -4.7253 0.0000 0.0000 0.0000 -19.6302 66.2646 -63.9785 -36.1130 45.5907 -15.6031 0.0000 -0.0000 -15.9503 -26.1847 -5.3593 2.6296 7.1250 -0.0000 -0.0000 0.4247 -35.9473 0.0945
0.2953 21.5739 4.9061 179.4320 1.6004 -176.7380 0.0000 0.0000 0.0000 -16.4243 -8.4507 -49.0200 12.9006 18.7460 68.8164 1.0409 -2.3409 -18.6417 0.8138 -5.7566 -16.0798 0.0000 0.0000 0.0000 16.4593 21.8527 -1.9558 -2.0308 -8.9300 25.5765 0.2632 -18.5482 10.5433 -0.0016 0.2606 -0.7161 -2.9240 0.7041 24.5754 -1.3905 1.3264 5.7820 -0.3124 1.1982 -7.2821 -7.1807 0.4455 -12.2343 4.3580 0.1552 23.1154 2.6738 -0.4445 9.2515 -0.0000 0.0000 0.0000 59.2457 -63.5562 -82.4718 21.9523 -32.9231 -6.5599 -0.0000 0.0000 -32.6480 20.2937 27.6944 9.7516 -7.1250 0.0000 -0.0000 -11.4912 58.8425 -3.9208 -0.0000 0.0000 0.0000 -20.6526 65.2964 -64.9451 -35.0438 44.8434 -14.8442 0.0000 -0.0000 -14.3024 -25.0906 -5.6479 2.6384 7.1250 -0.0000 -0.0000 1.3581 -36.2088 0.2936
0.4888 21.2454 5.0599 179.0840 0.8359 -176.6360 0.0000 0.0000 0.0000 -15.1210 -10.0539 -51.6263 14.0980 19.1435 72.5035 1.1211 -3.9679 -19.0860 0.5770 -4.8644 -13.5223 0.0000 0.0000 0.0000 17.7072 23.7048 2.4215 -1.3248 -7.2894 20.5757 -0.0284 -17.9962 12.9151 -0.0000 -0.0171 0.0471 -2.9625 0.7277 24.3760 -1.6705 1.2846 5.5337 -0.5840 1.1640 -7.4487 -6.7703 0.2435 -11.5890 4.2699 -0.2865 23.0670 2.5180 -0.6426 9.1414 -0.0000 -0.0000 0.0000 54.3916 -64.3266 -75.7154 23.4998 -34.6308 -7.4204 -0.0000 0.0000 -31.6221 21.3278 27.9657 10.3756 -7.1250 0.0000 -0.0000 -10.5135 59.3533 -3.7112 -0.0000 -0.0000 0.0000 -21.2147 64.5719 -65.4080 -34.1896 44.2247 -14.2452 0.0000 -0.0000 -12.8313 -24.3154 -5.0184 2.2634 7.1250 -0.0000 -0.0000 1.9697 -35.4775 0.4611
0.6907 20.8659 5.2175 178.8270 0.1573 -176.7000 0.0000 0.0000 0.0000 -13.8530 -11.0994 -54.4490 15.4019 19.4854 76.4445 1.2293 -4.6797 -19.9330 0.6389 -5.1137 -14.2332 0.0000 0.0000 0.0000 18.8462 23.0118 4.9960 -0.9719 -6.2763 17.5882 0.0464 -19.6257 13.4155 -0.0009 0.1937 -0.5322 -2.8954 0.6269 23.8561 -1.7823 1.1978 5.6401 -0.7006 1.1239 -7.0609 -7.1163 0.0720 -11.7846 4.6055 -0.5050 23.1016 2.6711 -0.7321 9.2042 -0.0000 -0.0000 0.0000 48.9534 -64.5121 -69.7104 24.8916 -36.0930 -8.2260 -0.0000 0.0000 -29.3694 20.9311 27.2197 9.9235 -7.1250 0.0000 -0.0000 -10.5397 58.5106 -3.5073 -0.0000 -0.0000 0.0000 -21.0942 64.3610 -65.4080 -34.7788 44.6535 -14.6577 0.0000 -0.0000 -10.1897 -21.1690 -6.2824 2.4266 7.1250 -0.0000 -0.0000 4.7064 -36.6778 0.9660
0.9207 20.4047 5.4201 178.3370 -0.7932 -176.7960 0.0000 0.0000 0.0000 -12.8911 -11.8803 -57.9301 16.7918 19.7514 80.5823 1.2640 -3.8100 -20.3364 0.7892 -5.6710 -15.8328 0.0000 0.0000 0.0000 19.3124 19.4578 5.6586 -0.8561 -5.9006 16.4963 0.6125 -18.1629 6.0936 -0.2775 3.3882 -9.3613 -2.3981 2.0017 23.5321 -1.7239 0.7320 5.5927 -0.6587 -0.1065 -6.9801 -7.5919 -0.2841 -11.6346 4.9378 -0.9995 23.0760 2.8111 -0.9710 9.2030 -0.0000 -0.0000 0.0000 42.7825 -64.6819 -62.8920 26.1925 -37.3981 -9.0043 -0.0000 0.0000 -27.6829 21.0644 26.4949 9.7496 -7.1250 0.0000 -0.0000 -10.0205 57.8081 -3.1625 -0.0000 -0.0000 0.0000 -19.8171 64.4439 -64.6312 -36.0968 45.5796 -15.5916 0.0000 -0.0000 -6.3215 -20.4614 -5.2712 1.9632 7.1250 -0.0000 -0.0000 5.1973 -35.5647 1.2090
1.1608 19.9051 5.6395 177.8000 -1.8784 -177.1940 0.0000 0.0000 0.0000 -11.8072 -12.5357 -61.1181 18.0970 19.9129 84.4281 1.3441 -4.9291 -20.8508 0.7993 -5.7062 -15.9344 0.0000 0.0000 0.0000 19.9210 15.9555 6.0235 -0.9314 -6.1479 17.2142 0.5643 -13.2234 -3.6322 -1.0658 6.5634 -18.4281 -2.4017 1.9228 23.3463 -1.8513 0.6329 5.6396 -0.7644 -0.1528 -6.8312 -7.4878 -0.6025 -11.8335 4.7449 -1.3712 22.9896 2.6854 -1.1397 9.2375 0.0000 0.0000 0.0000 36.5287 -64.4666 -55.9025 27.6767 -38.8169 -9.9204 -0.0000 0.0000 -24.4777 21.4711 25.3407 9.5558 -7.1250 0.0000 -0.0000 -9.0333 56.7220 -2.6101 0.0000 0.0000 0.0000 -17.4284 64.0742 -62.5354 -38.2326 46.9872 -17.1355 0.0000 0.0000 0.6088 -23.3973 -4.7662 2.0590 7.1250 -0.0000 -0.0000 2.7174 -35.1598 0.6574
1.4072 19.4176 5.9022 177.2330 -3.0975 -177.7940 0.0000 0.0000 0.0000 -10.7540 -13.0456 -63.9665 19.2084 19.9850 87.6850 1.3991 -5.8713 -21.2068 0.8782 -5.9742 -16.7096 0.0000 0.0000 0.0000 20.6027 14.2685 5.6993 -1.1426 -6.7880 19.0888 0.1693 -10.7565 -12.3704 -0.6347 5.0974 -14.1866 -3.1133 2.1458 23.3548 -1.2230 0.8179 5.7543 0.2728 -0.0522 -6.7326 -8.4748 -1.1367 -10.9720 4.7295 -1.8768 21.9127 2.7808 -1.4268 8.7544 0.0000 -0.0000 0.0000 29.5452 -64.8423 -49.8726 28.6657 -39.7219 -10.5464 -0.0000 0.0000 -19.4651 21.8133 23.1939 8.9580 -7.1250 0.0000 -0.0000 -7.7777 54.5862 -1.8401 0.0000 -0.0000 0.0000 -13.3269 62.7127 -56.6626 -40.9997 48.6511 -19.1864 0.0000 0.0000 6.1580 -26.0407 -4.2391 2.0685 7.1250 -0.0000 -0.0000 0.4992 -34.6955 0.1263
1.6121 19.0336 6.1775 176.7390 -3.7681 -178.6440 0.0000 0.0000 0.0000 -10.0803 -13.0146 -66.1996 20.0551 19.9999 90.1612 1.3565 -6.1729 -20.8539 0.9988 -6.3600 -17.8326 0.0000 0.0000 0.0000 20.5615 12.6561 3.9714 -1.4900 -7.7114 21.8410 -0.5168 -7.5994 -18.4325 -0.1967 2.8559 -7.8780 -4.3935 2.8601 23.6255 0.1661 1.5229 6.0197 2.3130 0.2863 -6.6714 -9.6228 -1.9018 -10.1529 3.7639 -2.5628 21.2299 2.5670 -1.9267 8.4392 -0.0000 0.0000 0.0000 19.0756 -65.5891 -41.8573 30.2930 -41.1432 -11.6019 -0.0000 0.0000 -15.5510 23.8218 21.1904 9.0674 -7.1250 0.0000 -0.0000 -5.0290 52.8771 -0.9767 -0.0000 0.0000 0.0000 -8.5596 60.5144 -48.9219 -46.2730 51.3771 -23.2291 0.0000 0.0000 7.1988 -27.3799 -4.8221 2.4929 7.1250 -0.0000 -0.0000 -0.5948 -35.4066 -0.1402
1.7917 18.7482 6.4163 177.4500 -3.4259 -178.6870 0.0000 0.0000 0.0000 -7.7428 -12.3431 -69.1418 20.8913 19.9809 92.6069 1.1849 -7.6718 -19.4563 0.4122 -4.1215 -11.4188 0.0000 0.0000 0.0000 21.8313 13.2588 1.5031 -1.9528 -8.7671 25.0695 -1.0743 -6.0373 -22.6403 -0.0476 1.4083 -3.8731 -5.0373 3.4099 22.6821 1.8613 2.2926 6.2249 4.3263 0.6545 -6.1114 -11.0687 -1.9479 -9.6495 3.1597 -2.3164 20.9324 2.6262 -1.9920 8.2544 0.0000 -0.0000 0.0000 3.6603 -65.4558 -29.9881 33.3259 -43.5790 -13.6462 -0.0000 0.0000 -13.2026 25.5820 20.8055 9.6505 -7.1250 0.0000 -0.0000 -3.1164 52.7976 -0.5984 0.0000 -0.0000 0.0000 -2.2655 58.5420 -39.3376 -53.0165 54.1420 -28.6015 0.0000 0.0000 7.7440 -30.5841 -5.4076 3.1880 7.1250 -0.0000 -0.0000 -3.2749 -36.2383 -0.7064
1.9567 18.6236 6.6296 176.3840 -3.9037 -178.9180 0.0000 0.0000 0.0000 -7.8805 -12.9616 -70.1944 21.0060 19.9757 92.9424 1.0778 -7.7396 -18.5623 0.6182 -5.0317 -13.9989 0.0000 0.0000 0.0000 21.4259 13.6294 -0.1544 -2.3578 -9.5746 27.6099 -1.3984 -6.1004 -25.2844 -0.0055 0.4777 -1.3126 -6.1315 3.5281 22.3548 2.0831 2.2649 6.1958 5.2105 0.6588 -6.0196 -10.9957 -1.9442 -9.3747 2.8970 -2.4370 21.7523 2.5140 -2.1381 8.4868 0.0000 0.0000 0.0000 -12.8638 -62.9302 -14.3111 37.8537 -46.7456 -16.8590 -0.0000 0.0000 -13.3374 27.8055 20.1460 10.2945 -7.1250 0.0000 -0.0000 -0.6654 52.5046 -0.1229 0.0000 0.0000 0.0000 8.0345 55.5317 -27.0596 -59.9542 56.2977 -34.3030 0.0000 0.0000 9.7845 -32.4493 -5.3030 3.3631 7.1250 -0.0000 -0.0000 -4.8471 -36.2208 -1.0493
2.1024 18.6089 6.8170 175.0390 -4.4514 -179.3880 0.0000 0.0000 0.0000 -8.7937 -13.6373 -69.8977 20.7275 19.9873 92.1275 0.9316 -7.5372 -17.2631 0.5397 -4.7071 -13.0751 0.0000 0.0000 0.0000 20.8612 14.2979 -0.1534 -2.4680 -9.7795 28.2656 -1.4831 -7.4417 -26.7582 -0.0003 -0.1085 0.2980 -6.1603 2.8844 22.7191 1.1436 1.3691 5.8099 4.4425 0.2729 -6.4862 -10.5319 -1.4555 -9.1968 3.5346 -2.1751 22.9795 2.6861 -2.0072 8.8406 0.0000 -0.0000 0.0000 -26.1807 -56.9739 0.3344 41.9172 -49.1656 -19.8779 -0.0000 0.0000 -12.8768 29.2666 19.2263 10.4559 -7.1250 0.0000 -0.0000 1.0218 51.7677 0.1703 0.0000 -0.0000 0.0000 21.4374 52.1380 -12.6780 -66.2372 57.7550 -39.5759 0.0000 0.0000 11.8851 -32.6895 -4.0551 2.5983 7.1250 -0.0000 -0.0000 -5.0119 -34.7605 -1.2640
2.1948 18.6480 6.9459 175.3410 -4.2074 -179.3720 0.0000 0.0000 0.0000 -8.1175 -13.2193 -69.7846 20.2543 19.9984 90.7435 0.8562 -7.0938 -16.5343 0.9478 -6.2002 -17.3665 0.0000 0.0000 0.0000 21.4641 14.6942 0.4044 -2.2115 -9.2934 26.7174 -1.3899 -7.8592 -26.3581 -0.0071 -0.5448 1.4969 -1.9845 1.2792 22.5931 -1.5774 0.1224 4.9981 -0.5640 -0.3188 -7.1387 -7.7584 -0.6311 -9.8011 4.6855 -1.9890 24.7722 2.6446 -1.6559 9.5176 0.0000 0.0000 0.0000 -31.8885 -48.5583 12.0995 44.0109 -50.2746 -21.4753 -0.0000 0.0000 -12.5177 31.7127 18.3104 10.9861 -7.1250 0.0000 -0.0000 3.6754 51.1996 0.5620 0.0000 0.0000 0.0000 37.4400 47.3561 1.8078 -70.3611 58.4913 -43.0784 0.0000 0.0000 12.4315 -35.1215 -2.6273 1.8467 7.1250 -0.0000 -0.0000 -6.9352 -33.1341 -2.0294
2.2664 18.7156 7.0570 174.9570 -2.8077 -179.7060 0.0000 0.0000 0.0000 -8.4826 -11.4680 -68.8988 19.7571 19.9986 89.2899 0.7933 -7.8314 -15.9953 0.7951 -5.6916 -15.8922 0.0000 0.0000 0.0000 21.2053 15.3435 1.5868 -1.9210 -8.6995 24.8599 -1.2656 -7.8036 -25.3861 -0.0070 -0.5422 1.4898 -1.7404 1.3658 22.2417 -1.8140 0.3579 4.4980 -1.0309 -0.1734 -7.4989 -7.6002 -0.3000 -10.3077 4.6041 -1.6565 25.8782 2.6324 -1.5564 9.9819 -0.0000 0.0000 0.0000 -40.2007 -39.6714 22.3488 44.4882 -50.5153 -21.8430 -0.0000 0.0000 -11.1881 31.2551 17.9585 10.5995 -7.1250 0.0000 -0.0000 3.2475 50.7157 0.4578 -0.0000 0.0000 0.0000 45.5463 40.7868 12.4292 -69.6381 58.3739 -42.4623 0.0000 0.0000 12.4161 -34.5289 -2.2414 1.5414 7.1250 -0.0000 -0.0000 -6.4283 -32.6535 -1.9545
