HIERARCHY
ROOT Hips
{
	OFFSET 0.00000 0.00000 0.00000
	CHANNELS 6 Xposition Yposition Zposition Zrotation Yrotation Xrotation 
	JOINT LHipJoint
	{
		OFFSET 0 0 0
		CHANNELS 3 Zrotation Yrotation Xrotation
		JOINT LeftUpLeg
		{
			OFFSET 1.36306 -1.79463 0.83929
			CHANNELS 3 Zrotation Yrotation Xrotation
			JOINT LeftLeg
			{
				OFFSET 2.44811 -6.72613 0.00000
				CHANNELS 3 Zrotation Yrotation Xrotation
				JOINT LeftFoot
				{
					OFFSET 2.56220 -7.03959 0.00000
					CHANNELS 3 Zrotation Yrotation Xrotation
					JOINT LeftToeBase
					{
						OFFSET 0.15764 -0.43311 2.32255
						CHANNELS 3 Zrotation Yrotation Xrotation
						End Site
						{
							OFFSET 0.00000 -0.00000 1.18966
						}
					}
				}
			}
		}
	}
	JOINT RHipJoint
	{
		OFFSET 0 0 0
		CHANNELS 3 Zrotation Yrotation Xrotation
		JOINT RightUpLeg
		{
			OFFSET -1.30552 -1.79463 0.83929
			CHANNELS 3 Zrotation Yrotation Xrotation
			JOINT RightLeg
			{
				OFFSET -2.54253 -6.98555 0.00000
				CHANNELS 3 Zrotation Yrotation Xrotation
				JOINT RightFoot
				{
					OFFSET -2.56826 -7.05623 0.00000
					CHANNELS 3 Zrotation Yrotation Xrotation
					JOINT RightToeBase
					{
						OFFSET -0.16473 -0.45259 2.36315
						CHANNELS 3 Zrotation Yrotation Xrotation
						End Site
						{
							OFFSET -0.00000 -0.00000 1.21082
						}
					}
				}
			}
		}
	}
	JOINT LowerBack
	{
		OFFSET 0 0 0
		CHANNELS 3 Zrotation Yrotation Xrotation
		JOINT Spine
		{
			OFFSET 0.02827 2.03559 -0.19338
			CHANNELS 3 Zrotation Yrotation Xrotation
			JOINT Spine1
			{
				OFFSET 0.05672 2.04885 -0.04275
				CHANNELS 3 Zrotation Yrotation Xrotation
				JOINT Neck
				{
					OFFSET 0 0 0
					CHANNELS 3 Zrotation Yrotation Xrotation
					JOINT Neck1
					{
						OFFSET -0.05417 1.74624 0.17202
						CHANNELS 3 Zrotation Yrotation Xrotation
						JOINT Head
						{
							OFFSET 0.10407 1.76136 -0.12397
							CHANNELS 3 Zrotation Yrotation Xrotation
							End Site
							{
								OFFSET 0.03720 1.77044 -0.06241
							}
						}
					}
				}
				JOINT LeftShoulder
				{
					OFFSET 0 0 0
					CHANNELS 3 Zrotation Yrotation Xrotation
					JOINT LeftArm
					{
						OFFSET 3.36241 1.20089 -0.31121
						CHANNELS 3 Zrotation Yrotation Xrotation
						JOINT LeftForeArm
						{
							OFFSET 4.98300 -0.00000 -0.00000
							CHANNELS 3 Zrotation Yrotation Xrotation
							JOINT LeftHand
							{
								OFFSET 3.48356 -0.00000 -0.00000
								CHANNELS 3 Zrotation Yrotation Xrotation
								JOINT LeftFingerBase
								{
									OFFSET 0 0 0
									CHANNELS 3 Zrotation Yrotation Xrotation
									JOINT LeftHandIndex1
									{
										OFFSET 0.71526 -0.00000 -0.00000
										CHANNELS 3 Zrotation Yrotation Xrotation
										End Site
										{
											OFFSET 0.57666 -0.00000 -0.00000
										}
									}
								}
								JOINT LThumb
								{
									OFFSET 0 0 0
									CHANNELS 3 Zrotation Yrotation Xrotation
									End Site
									{
										OFFSET 0.58547 -0.00000 0.58547
									}
								}
							}
						}
					}
				}
				JOINT RightShoulder
				{
					OFFSET 0 0 0
					CHANNELS 3 Zrotation Yrotation Xrotation
					JOINT RightArm
					{
						OFFSET -3.13660 1.37405 -0.40465
						CHANNELS 3 Zrotation Yrotation Xrotation
						JOINT RightForeArm
						{
							OFFSET -5.24190 -0.00000 -0.00000
							CHANNELS 3 Zrotation Yrotation Xrotation
							JOINT RightHand
							{
								OFFSET -3.44417 -0.00000 -0.00000
								CHANNELS 3 Zrotation Yrotation Xrotation
								JOINT RightFingerBase
								{
									OFFSET 0 0 0
									CHANNELS 3 Zrotation Yrotation Xrotation
									JOINT RightHandIndex1
									{
										OFFSET -0.62253 -0.00000 -0.00000
										CHANNELS 3 Zrotation Yrotation Xrotation
										End Site
										{
											OFFSET -0.50190 -0.00000 -0.00000
										}
									}
								}
								JOINT RThumb
								{
									OFFSET 0 0 0
									CHANNELS 3 Zrotation Yrotation Xrotation
									End Site
									{
										OFFSET -0.50956 -0.00000 0.50956
									}
								}
							}
						}
					}
				}
			}
		}
	}
}
MOTION
Frames: 26
Frame Time: 0.0333333

13.3271 31.7893 45.6724 0 0 0 0 0 0 -21 0 0 0 0 0 0 0 0 0 0 0 0 0 0 21 0 0 0 0 0 0 0 0 0 0 0 0 0 0 0 0 0 0 0 0 0 0 -16 0 0 21 0 0 11 0 0 0 -8 0 0 0 0 0 0 0 0 0 0 0 0 0 0 0 0 0 0 0 0 8 0 0 0 0 0 0 0 0 0 0 0 0 0 0 0 0 0
11.7316 18.3820 20.4118 -178.3980 -2.0100 174.3900 0.0000 0.0000 0.0000 -12.1306 3.4643 -0.5594 5.4462 13.8693 42.7164 0.3001 -0.4987 10.5396 1.3765 -7.4243 -20.9788 0.0000 0.0000 0.0000 26.5060 -3.0209 -12.9329 -4.5086 -12.8081 38.6543 0.1373 -6.5910 -3.1351 -0.8038 -5.7221 15.9802 2.9876 1.0098 13.5202 -0.2919 1.8010 -6.1752 -2.4640 0.4824 -14.4373 -5.2412 -5.9261 4.5635 11.9009 -7.8635 -8.9829 4.7161 -4.4217 -2.6987 -0.0000 0.0000 0.0000 85.5081 -38.0443 -92.6121 13.2015 -21.5817 -2.5269 -0.0000 -0.0000 4.5156 19.2292 -1.5866 -0.5533 -7.1250 0.0000 -0.0000 -5.6889 28.2827 2.3247 -0.0000 0.0000 0.0000 -71.2096 35.9788 -86.5559 -15.1631 24.3729 -3.2930 0.0000 0.0000 3.6537 -23.7697 -14.2416 6.1838 7.1250 -0.0000 -0.0000 3.4742 -45.4522 -0.0388
11.6753 18.3716 20.3762 -178.3260 -0.5857 174.3590 0.0000 0.0000 0.0000 -11.9311 1.5331 -0.0067 5.3936 13.8138 42.4966 0.3375 -3.3943 12.7563 1.7213 -8.2596 -23.5054 0.0000 0.0000 0.0000 26.3183 -3.1677 -12.8950 -4.5402 -12.8465 38.7967 0.0957 -5.5014 -2.5346 -1.0377 -6.4790 18.1807 3.1376 -0.0326 13.3573 1.5433 0.6354 -4.2442 -0.2245 0.1048 -12.1835 -9.4679 -5.1925 -2.7701 11.5135 -6.7635 -4.4697 4.9132 -3.4534 -0.1270 0.0000 -0.0000 0.0000 78.5328 -33.4346 -86.4248 13.4232 -21.9042 -2.6091 -0.0000 -0.0000 1.5437 21.8682 -2.4786 -0.9944 -7.1250 0.0000 -0.0000 -3.6247 27.3044 1.5610 0.0000 -0.0000 0.0000 -78.2828 33.9735 -91.7183 -15.3671 24.6550 -3.3776 0.0000 0.0000 2.2644 -24.6979 -13.9469 6.3253 7.1250 -0.0000 -0.0000 2.5626 -45.2527 -0.0160
11.6579 18.3550 20.3855 -179.3220 0.2655 174.3970 0.0000 0.0000 0.0000 -12.8657 0.3541 0.6038 5.2891 13.7022 42.0574 0.2284 -6.5862 13.7634 1.2914 -7.2004 -20.3106 0.0000 0.0000 0.0000 25.1526 -2.8840 -13.1965 -4.6754 -13.0087 39.4010 0.0744 -4.8571 -2.2894 -1.0898 -6.6345 18.6370 2.3467 -0.1266 14.4540 1.4152 0.5263 -4.4141 0.0983 0.1545 -13.0492 -9.9164 -5.0764 -2.6849 11.3111 -6.6604 -1.9580 4.8843 -3.3348 0.5894 -0.0000 -0.0000 0.0000 77.1384 -32.6490 -84.0449 13.5954 -22.1534 -2.6736 -0.0000 0.0000 -1.2504 23.3549 -4.2939 -1.8518 -7.1250 0.0000 -0.0000 -2.4769 25.3038 1.1816 -0.0000 -0.0000 0.0000 -78.9580 33.1826 -89.2964 -15.2029 24.4281 -3.3094 0.0000 -0.0000 -2.3769 -26.1949 -13.8202 6.7024 7.1250 -0.0000 -0.0000 1.1491 -45.3079 -0.0087
11.6617 18.3512 20.4092 -179.7240 0.5641 174.5060 0.0000 0.0000 0.0000 -13.1223 0.0781 0.4230 5.1766 13.5800 41.5804 0.1239 -8.7693 14.5812 1.6386 -8.0689 -22.9234 0.0000 0.0000 0.0000 24.5286 -3.6959 -14.0559 -4.7922 -13.1459 39.9170 0.0509 -3.9974 -1.5171 -0.9745 -6.2844 17.6119 1.7541 -0.3703 15.0450 1.4407 0.0828 -4.1637 0.5774 -0.0083 -13.1219 -9.3984 -5.0177 -2.5911 10.5819 -6.4263 -0.4515 4.5670 -3.0923 0.9504 0.0000 -0.0000 0.0000 76.7283 -30.9871 -85.6788 12.6264 -20.7374 -2.3193 -0.0000 -0.0000 3.2402 21.5280 -5.0792 -2.0002 -7.1250 0.0000 -0.0000 -3.8454 24.5226 1.9066 0.0000 -0.0000 0.0000 -80.1445 32.2436 -89.8132 -14.9925 24.1357 -3.2229 0.0000 -0.0000 -3.2691 -26.2636 -12.7678 6.2236 7.1250 -0.0000 -0.0000 0.9505 -44.1591 0.0197
11.6557 18.3421 20.4734 -179.0970 1.7266 174.7680 0.0000 0.0000 0.0000 -12.3506 0.9395 0.0832 5.1252 13.5234 41.3607 0.0800 -9.0229 14.2150 1.8022 -8.4412 -24.0625 0.0000 0.0000 0.0000 25.0774 -3.3116 -14.5932 -4.7675 -13.1171 39.8083 0.0358 -3.5588 -0.0350 -1.2470 -7.0802 19.9533 2.3609 -0.3307 15.5372 1.5964 0.3015 -4.0759 0.3507 0.0549 -13.3186 -8.9791 -4.8483 -2.6098 9.7869 -6.3550 1.7472 4.2326 -3.0668 1.5491 0.0000 -0.0000 0.0000 77.6330 -30.4629 -92.4516 11.8045 -19.5109 -2.0365 -0.0000 -0.0000 11.8173 19.2601 -6.1538 -2.1451 -7.1250 0.0000 -0.0000 -5.5178 23.4703 2.8766 0.0000 -0.0000 0.0000 -80.1232 31.5106 -88.7256 -15.2948 24.5551 -3.3475 0.0000 -0.0000 -5.9643 -27.3678 -12.1042 6.1949 7.1250 -0.0000 -0.0000 -0.1370 -43.5560 -0.0049
11.6645 18.3948 20.5697 -178.9840 2.0068 174.9360 0.0000 0.0000 0.0000 -12.3774 0.9467 -0.0646 5.1155 13.5127 41.3193 0.2302 -6.9210 14.1294 1.2002 -6.9508 -19.5698 0.0000 0.0000 0.0000 25.0537 -2.4287 -14.4272 -4.6200 -12.9427 39.1544 0.0342 -3.9579 0.9171 -1.2726 -7.1497 20.1596 2.6055 -0.3587 15.7767 1.4107 0.2764 -3.6613 0.0095 0.0133 -12.9808 -8.5767 -4.8052 -2.6379 9.5915 -6.3761 3.1540 4.0922 -3.0641 1.9507 0.0000 0.0000 0.0000 78.0808 -29.6949 -92.9195 11.8708 -19.6105 -2.0587 -0.0000 -0.0000 14.9640 18.1170 -6.6406 -2.1668 -7.1250 0.0000 -0.0000 -6.3507 23.0071 3.3835 0.0000 0.0000 0.0000 -79.5551 30.6034 -87.7719 -15.2504 24.4938 -3.3291 0.0000 -0.0000 -4.7437 -26.4920 -13.9261 6.8401 7.1250 -0.0000 -0.0000 0.8855 -45.4629 -0.0101
11.6931 18.4555 20.7003 -179.3350 2.2160 175.3600 0.0000 0.0000 0.0000 -13.1638 1.1134 -1.1402 5.1341 13.5333 41.3990 0.3236 -4.4897 13.3484 1.1186 -6.7187 -18.8848 0.0000 0.0000 0.0000 24.5832 -2.5807 -15.4130 -4.4795 -12.7725 38.5229 -0.0016 -4.2258 3.0220 -1.5881 -7.9495 22.5608 1.8807 -0.2295 16.2643 1.3305 0.2866 -3.3676 0.3285 0.0675 -12.9329 -8.6609 -4.8863 -2.8573 9.7243 -6.5048 3.8148 4.1294 -3.1131 2.2010 -0.0000 -0.0000 0.0000 78.2627 -29.2131 -92.8732 12.3937 -20.3924 -2.2376 -0.0000 -0.0000 13.9567 19.4739 -6.8825 -2.4264 -7.1250 0.0000 -0.0000 -5.3508 22.6933 2.8845 -0.0000 -0.0000 0.0000 -79.0506 29.8277 -87.8702 -15.6363 25.0250 -3.4907 0.0000 -0.0000 -4.1248 -26.8964 -15.4950 7.7174 7.1250 -0.0000 -0.0000 0.7245 -47.2468 -0.0402
11.7111 18.4952 20.8766 -179.0830 2.1459 175.8630 0.0000 0.0000 0.0000 -13.3607 0.7654 -1.8843 5.1553 13.5566 41.4896 0.3609 -2.4715 12.5258 1.2769 -7.1615 -20.1947 0.0000 0.0000 0.0000 24.7908 -2.1363 -16.3594 -4.3328 -12.5906 37.8547 -0.0422 -5.1770 4.8562 -2.3541 -9.5677 27.5879 1.9138 -0.3046 16.7993 1.2998 0.2027 -3.2650 0.3003 0.0237 -13.1349 -8.4462 -4.8474 -2.4229 9.8086 -6.5035 4.2302 4.1277 -3.1080 2.2480 0.0000 -0.0000 0.0000 78.7877 -28.8552 -94.1357 12.6080 -20.7101 -2.3128 -0.0000 -0.0000 15.7849 18.8890 -7.0504 -2.4049 -7.1250 0.0000 -0.0000 -5.7775 22.5440 3.1365 0.0000 -0.0000 0.0000 -78.8457 29.7140 -90.0843 -15.7825 25.2248 -3.5527 0.0000 -0.0000 -2.1505 -26.9474 -15.9035 7.9304 7.1250 -0.0000 -0.0000 0.7379 -47.7038 -0.0492
11.7397 18.5380 21.0791 -178.8000 2.0741 176.2750 0.0000 0.0000 0.0000 -13.3170 0.6146 -2.8842 5.1746 13.5778 41.5716 0.3517 -0.8546 11.5442 1.0788 -6.6019 -18.5412 0.0000 0.0000 0.0000 25.0706 -1.7427 -17.0659 -4.1289 -12.3300 36.9097 -0.0570 -6.7071 6.0032 -2.8684 -10.4790 30.5422 1.8121 -0.2940 17.2031 1.3972 0.2176 -2.9346 0.4601 0.0474 -12.9942 -8.6850 -5.0710 -2.6669 9.8828 -6.8144 4.8237 4.1639 -3.2515 2.5035 -0.0000 0.0000 0.0000 79.1678 -28.0243 -94.4411 12.3552 -20.3352 -2.2242 -0.0000 -0.0000 15.5402 19.5136 -6.2893 -2.2232 -7.1250 0.0000 -0.0000 -5.3287 23.3171 2.7960 -0.0000 0.0000 0.0000 -78.6869 29.0197 -90.6728 -16.0747 25.6218 -3.6782 0.0000 -0.0000 -1.8802 -27.2207 -15.3351 7.7468 7.1250 -0.0000 -0.0000 0.3903 -47.1180 -0.0204
11.7659 18.5620 21.3057 -179.1420 1.6182 176.6900 0.0000 0.0000 0.0000 -13.9652 0.1229 -3.4692 5.0425 13.4315 41.0060 0.3025 0.3080 10.2849 1.0401 -6.4863 -18.2021 0.0000 0.0000 0.0000 24.5216 -1.2287 -18.2236 -4.1022 -12.2952 36.7844 -0.0703 -7.8166 6.8683 -3.3637 -11.2617 33.1676 1.3088 -0.2483 17.4837 1.1151 0.1266 -2.7595 0.4583 0.0262 -12.9571 -8.4911 -5.0783 -2.3100 10.0340 -6.8528 4.8211 4.1862 -3.2672 2.4461 -0.0000 -0.0000 0.0000 80.3016 -27.5859 -94.9010 11.8886 -19.6374 -2.0647 -0.0000 -0.0000 15.4711 20.4793 -5.2832 -1.9695 -7.1250 0.0000 -0.0000 -4.6261 24.3439 2.3151 -0.0000 -0.0000 0.0000 -77.7966 28.5676 -89.3413 -16.4855 26.1745 -3.8576 0.0000 -0.0000 -3.4025 -28.7989 -15.0762 8.1374 7.1250 -0.0000 -0.0000 -1.1582 -47.0636 0.0590
11.7762 18.5560 21.5633 -178.9770 1.2548 177.0260 0.0000 0.0000 0.0000 -14.0421 -0.6005 -4.0009 4.9374 13.3130 40.5517 0.2650 1.2890 9.3562 1.3456 -7.3441 -20.7388 0.0000 0.0000 0.0000 24.5516 -1.5253 -19.8065 -4.0347 -12.2064 36.4662 -0.2077 -7.5393 9.0318 -2.8488 -10.4462 30.4342 1.3808 -0.1317 18.1795 1.0003 0.2994 -2.8573 0.2435 0.0922 -13.4827 -7.8416 -5.0855 -0.9829 9.4830 -6.9091 4.5473 3.9481 -3.3302 2.1100 -0.0000 0.0000 0.0000 81.6675 -27.6680 -95.6955 11.1203 -18.4724 -1.8139 -0.0000 -0.0000 16.0079 21.4650 -4.9719 -1.9518 -7.1250 0.0000 -0.0000 -3.8933 24.6397 1.9199 -0.0000 0.0000 0.0000 -77.2620 28.5245 -88.4212 -16.1605 25.7378 -3.7154 0.0000 -0.0000 -4.0290 -30.3508 -14.8396 8.5289 7.1250 -0.0000 -0.0000 -2.6783 -47.0299 0.1343
11.7973 18.5917 21.8428 -178.9330 0.8728 177.2750 0.0000 0.0000 0.0000 -14.0405 -0.8542 -4.8272 4.8442 13.2062 40.1453 0.2307 1.4204 8.6847 1.4228 -7.5430 -21.3345 0.0000 0.0000 0.0000 24.2252 0.2831 -20.1789 -3.9434 -12.0847 36.0321 0.0464 -11.6143 7.4618 -4.9949 -13.3781 40.8007 1.3805 -0.3884 18.4018 1.2098 0.0052 -1.9685 0.5524 -0.0160 -12.5879 -8.4241 -4.9857 -3.9729 9.2365 -6.6525 5.6657 3.8933 -3.1535 2.9229 0.0000 -0.0000 0.0000 81.6391 -26.0050 -95.4565 10.3052 -17.2156 -1.5641 -0.0000 -0.0000 15.3106 23.7093 -5.6810 -2.4892 -7.1250 0.0000 -0.0000 -2.2230 23.7798 1.1387 0.0000 -0.0000 0.0000 -78.5241 27.2379 -90.5540 -15.4910 24.8256 -3.4294 0.0000 -0.0000 -3.5186 -31.8799 -14.0799 8.6040 7.1250 -0.0000 -0.0000 -4.2084 -46.3913 0.1448
11.8159 18.6057 22.1327 -179.1180 0.6461 177.5850 0.0000 0.0000 0.0000 -14.2492 -1.2868 -5.9768 4.8083 13.1646 39.9879 0.2193 1.9814 8.3774 1.4916 -7.7153 -21.8526 0.0000 0.0000 0.0000 23.8359 0.5603 -21.5846 -3.8174 -11.9134 35.4262 -0.2384 -11.5695 11.1875 -3.5394 -11.5209 34.0576 1.2188 -0.6055 18.9577 1.3089 -0.2810 -1.6533 0.8381 -0.1240 -12.5494 -8.9527 -4.8636 -4.9486 9.0238 -6.4141 6.2286 3.9006 -3.0355 3.2406 0.0000 0.0000 0.0000 81.4598 -25.6215 -96.0636 9.8934 -16.5727 -1.4444 -0.0000 -0.0000 16.6161 24.8905 -6.0260 -2.7886 -7.1250 0.0000 -0.0000 -1.3547 23.3425 0.7072 0.0000 0.0000 0.0000 -80.0601 27.3394 -95.0591 -14.6200 23.6140 -3.0721 0.0000 -0.0000 -0.4725 -33.2146 -13.5248 8.7057 7.1250 -0.0000 -0.0000 -5.5150 -45.9467 0.1292
11.8401 18.6432 22.4274 -179.7660 0.2285 178.1040 0.0000 0.0000 0.0000 -14.7401 -1.2806 -7.4792 4.6762 13.0095 39.4042 0.2504 1.5243 9.0404 1.4315 -7.5651 -21.4008 0.0000 0.0000 0.0000 22.4468 2.0744 -22.7470 -3.8032 -11.8938 35.3573 -0.2026 -12.5049 11.2561 -3.8413 -11.9461 35.5417 0.5807 -0.7737 18.8979 1.4131 -0.6306 -1.3458 1.4120 -0.2344 -12.1513 -9.7794 -4.6077 -5.4575 9.1350 -5.9899 6.3116 4.0831 -2.8359 3.3389 0.0000 -0.0000 0.0000 80.7450 -25.2702 -96.1040 9.6996 -16.2683 -1.3896 -0.0000 -0.0000 17.3484 25.9571 -6.2538 -3.0355 -7.1250 0.0000 -0.0000 -0.5742 23.0309 0.3038 0.0000 -0.0000 0.0000 -81.4121 27.5265 -98.1612 -14.1762 22.9861 -2.8966 0.0000 0.0000 1.6798 -34.5457 -13.0314 8.8240 7.1250 -0.0000 -0.0000 -6.7992 -45.5640 0.0951
11.8613 18.6526 22.7177 -179.1570 0.1310 178.5660 0.0000 0.0000 0.0000 -13.7989 -1.7625 -8.7387 4.6247 12.9483 39.1752 0.2664 1.5439 9.3315 1.7077 -8.2287 -23.4108 0.0000 0.0000 0.0000 22.4441 3.6669 -23.6332 -3.7567 -11.8294 35.1312 -0.3490 -11.5481 12.4182 -2.9505 -10.6144 30.9902 1.4488 -0.9844 19.2923 1.6822 -0.6501 -1.4362 1.2311 -0.2817 -12.4925 -9.8487 -4.4520 -5.0996 8.4539 -5.7580 6.2540 3.9043 -2.7623 3.2219 0.0000 -0.0000 0.0000 79.3106 -25.2423 -91.1590 9.9599 -16.6769 -1.4634 -0.0000 -0.0000 13.4069 27.1892 -5.8050 -2.9742 -7.1250 0.0000 -0.0000 0.3524 23.4595 -0.1830 0.0000 -0.0000 0.0000 -81.8273 27.9776 -97.4478 -14.0747 22.8414 -2.8570 0.0000 0.0000 0.5941 -36.2553 -13.1930 9.5021 7.1250 -0.0000 -0.0000 -8.4454 -46.0151 0.2131
11.8689 18.6496 22.9850 -179.2740 0.4422 179.1660 0.0000 0.0000 0.0000 -13.7278 -2.0945 -10.0572 4.6100 12.9307 39.1094 0.2408 1.1590 8.9341 1.6005 -7.9791 -22.6505 0.0000 0.0000 0.0000 21.8859 3.3270 -25.0664 -3.7791 -11.8604 35.2401 -0.5584 -7.5937 13.5419 -1.7785 -8.3886 23.9008 1.6321 -0.9154 19.7193 1.8412 -0.4824 -1.9077 1.2751 -0.2127 -13.2889 -10.6098 -4.4375 -4.0451 8.4022 -5.7679 6.3114 4.0320 -2.8081 3.0868 -0.0000 -0.0000 0.0000 78.7537 -25.8280 -90.5287 9.3282 -15.6819 -1.2874 -0.0000 -0.0000 13.2695 28.4442 -6.3640 -3.4361 -7.1250 0.0000 -0.0000 1.2500 22.7512 -0.6695 -0.0000 -0.0000 0.0000 -82.6230 28.8387 -96.4738 -13.8283 22.4887 -2.7621 0.0000 -0.0000 -1.0505 -38.0722 -12.6025 9.6986 7.1250 -0.0000 -0.0000 -10.1787 -45.5838 0.1482
11.8880 18.6338 23.2040 -179.5010 0.9462 179.5670 0.0000 0.0000 0.0000 -13.9336 -2.5391 -10.7262 4.5515 12.8602 38.8474 0.2178 1.9605 8.3500 1.4487 -7.6085 -21.5311 0.0000 0.0000 0.0000 21.6531 2.1977 -26.6136 -3.8940 -12.0180 35.7958 -0.4972 -2.4197 12.7079 -0.4062 -4.0917 11.3349 1.5446 -0.8600 19.9470 1.8280 -0.4327 -2.3373 1.3116 -0.1898 -13.9243 -10.4632 -3.6206 -4.2552 8.1408 -4.6500 6.7800 3.9820 -2.2537 3.1437 -0.0000 -0.0000 0.0000 78.1908 -26.6066 -88.9965 8.7852 -14.8174 -1.1446 -0.0000 -0.0000 12.7156 29.7375 -6.8575 -3.9020 -7.1250 0.0000 -0.0000 2.1655 22.0964 -1.1927 -0.0000 -0.0000 0.0000 -83.1942 29.8752 -95.4373 -13.5827 22.1350 -2.6689 0.0000 -0.0000 -2.9072 -39.3710 -11.8372 9.5546 7.1250 -0.0000 -0.0000 -11.3723 -44.8422 -0.0449
11.9418 18.6437 23.3881 -178.7650 1.3432 179.5960 0.0000 0.0000 0.0000 -13.1084 -2.3471 -10.8456 4.4293 12.7108 38.2952 0.1844 2.1608 7.6489 1.8587 -8.5654 -24.4452 0.0000 0.0000 0.0000 22.4536 2.7275 -26.7876 -4.0588 -12.2383 36.5801 -0.1846 -2.3423 7.6422 -0.6987 -5.3430 14.8894 2.1024 -0.8941 20.2709 1.9899 -0.2915 -2.5471 1.1429 -0.1576 -14.3700 -10.0486 -3.3286 -3.9516 8.0240 -4.3031 7.3343 3.9006 -2.0732 3.2148 -0.0000 0.0000 0.0000 77.7177 -27.1717 -87.3801 8.5665 -14.4668 -1.0893 -0.0000 -0.0000 11.9825 30.6404 -7.1883 -4.2390 -7.1250 0.0000 -0.0000 2.7977 21.6442 -1.5703 -0.0000 0.0000 0.0000 -83.6976 30.8858 -95.7747 -13.3695 21.8263 -2.5891 0.0000 -0.0000 -3.8103 -41.1274 -10.6793 9.1915 7.1250 -0.0000 -0.0000 -12.9189 -43.6519 -0.4376
11.9954 18.6417 23.5121 -178.6170 2.4144 179.4080 0.0000 0.0000 0.0000 -13.2541 -2.6657 -9.9634 4.3035 12.5537 37.7201 0.0803 4.9074 5.6925 1.4927 -7.7182 -21.8613 0.0000 0.0000 0.0000 22.9917 2.7658 -27.0232 -4.1746 -12.3892 37.1231 -0.0644 -4.5716 5.1665 -0.2621 -3.2937 9.0975 1.9588 -0.6775 20.5873 1.8241 -0.0600 -2.6265 0.9694 -0.0544 -14.6513 -9.8322 -3.3913 -2.6299 8.4798 -4.5139 7.0178 4.0168 -2.1716 2.9253 -0.0000 -0.0000 0.0000 77.8312 -27.6428 -86.8553 8.2381 -13.9382 -1.0087 -0.0000 -0.0000 12.3564 31.3800 -7.6118 -4.6190 -7.1250 0.0000 -0.0000 3.2979 21.0896 -1.8934 -0.0000 -0.0000 0.0000 -83.1368 31.7748 -93.1319 -13.2670 21.6772 -2.5511 0.0000 -0.0000 -4.9934 -41.3530 -11.5602 10.0030 7.1250 -0.0000 -0.0000 -13.2475 -44.8044 -0.0651
12.0539 18.6239 23.5637 -177.9570 3.7463 179.6300 0.0000 0.0000 0.0000 -12.8078 -2.8078 -9.8619 4.3561 12.6198 37.9614 -0.0033 6.6832 4.5984 1.9947 -8.8549 -25.3426 0.0000 0.0000 0.0000 24.1610 3.0022 -27.2264 -4.1568 -12.3662 37.0402 0.0872 -8.1287 3.6674 -0.3381 -3.7366 10.3368 2.2373 -0.3308 20.1565 1.6675 0.4283 -2.5597 0.4689 0.1342 -14.3132 -7.8679 -3.0933 -4.0850 7.4968 -4.0788 7.5748 3.3908 -1.9096 3.2322 0.0000 0.0000 0.0000 78.3525 -27.9505 -88.4990 8.1454 -13.7882 -0.9865 -0.0000 -0.0000 14.4752 31.7025 -8.0642 -4.9522 -7.1250 0.0000 -0.0000 3.4900 20.5331 -2.0479 0.0000 0.0000 0.0000 -82.4536 31.9471 -91.6636 -13.3753 21.8346 -2.5912 0.0000 -0.0000 -7.5467 -42.8127 -10.9299 9.9628 7.1250 -0.0000 -0.0000 -14.5585 -44.2289 -0.2833
12.1213 18.6109 23.5587 -177.7790 4.6428 179.2990 0.0000 0.0000 0.0000 -12.8024 -3.2062 -8.9753 4.4406 12.7247 38.3466 -0.1297 8.7218 3.1653 1.4715 -7.6654 -21.7023 0.0000 0.0000 0.0000 25.0058 1.0566 -27.4152 -4.1133 -12.3096 36.8362 0.1027 -8.7353 3.8942 -0.1885 -2.7960 7.7114 2.0327 -0.4761 20.1424 1.6292 0.1767 -2.1150 0.6141 0.0423 -13.7827 -7.4494 -3.2568 -5.7271 7.0746 -4.2351 8.2568 3.1613 -1.9663 3.7048 -0.0000 0.0000 0.0000 77.7556 -27.4712 -89.1210 8.3357 -14.0955 -1.0323 -0.0000 -0.0000 16.7785 31.6263 -8.3285 -5.0975 -7.1250 0.0000 -0.0000 3.4117 20.2329 -2.0249 -0.0000 0.0000 0.0000 -83.0798 31.7957 -92.4620 -13.4325 21.9176 -2.6125 0.0000 -0.0000 -9.3341 -44.0066 -10.1693 9.6780 7.1250 -0.0000 -0.0000 -15.5634 -43.4247 -0.6211
12.1854 18.5774 23.4785 -177.4280 5.8663 179.2640 0.0000 0.0000 0.0000 -12.6830 -4.0440 -8.4868 4.6594 12.9897 39.3299 -0.2447 10.6731 2.6470 1.4924 -7.7174 -21.8589 0.0000 0.0000 0.0000 25.7308 0.5441 -27.1049 -3.9771 -12.1299 36.1929 0.1463 -10.1493 4.3655 -0.4454 -4.2821 11.8716 1.7455 -0.4751 19.9647 1.7701 0.1167 -2.8690 0.9706 0.0329 -14.5675 -7.6682 -2.6248 -3.9864 7.1642 -3.4487 8.2879 3.2878 -1.5963 3.3712 0.0000 0.0000 0.0000 76.6417 -28.7548 -87.6098 8.4913 -14.3461 -1.0706 -0.0000 -0.0000 17.4899 31.3854 -8.5426 -5.1780 -7.1250 0.0000 -0.0000 3.2207 20.0082 -1.9273 0.0000 0.0000 0.0000 -83.0491 33.4506 -89.6736 -13.6558 22.2406 -2.6965 0.0000 -0.0000 -10.9737 -43.6963 -11.9699 11.2090 7.1250 -0.0000 -0.0000 -15.5966 -45.7227 0.2852
12.2504 18.5409 23.3314 -177.2610 7.1261 178.6940 0.0000 0.0000 0.0000 -12.5316 -4.5175 -7.7803 5.0294 13.4168 40.9494 -0.2603 11.4719 3.3956 1.8509 -8.5483 -24.3924 0.0000 0.0000 0.0000 26.4259 -1.0395 -26.3356 -3.9218 -12.0556 35.9289 -0.0313 -7.7791 6.0988 -0.5952 -4.9390 13.7345 1.5585 -0.0443 20.0726 1.6263 0.6207 -2.9680 0.7549 0.2647 -14.7504 -7.6260 -2.6608 -4.3742 7.3238 -3.4969 8.7179 3.3247 -1.5995 3.5702 0.0000 0.0000 0.0000 76.8707 -28.9162 -87.7995 8.5794 -14.4876 -1.0925 -0.0000 -0.0000 17.9082 30.9242 -8.8371 -5.2582 -7.1250 0.0000 -0.0000 2.8664 19.7139 -1.7336 0.0000 0.0000 0.0000 -82.4172 33.8399 -88.5485 -13.8697 22.5481 -2.7779 0.0000 -0.0000 -11.8673 -44.0756 -12.4721 11.8107 7.1250 -0.0000 -0.0000 -16.0672 -46.4429 0.5871
12.3090 18.5342 23.1534 -176.8310 8.0847 178.3620 0.0000 0.0000 0.0000 -11.8295 -5.9232 -8.4676 5.8761 14.3072 44.4823 -0.1249 11.1241 5.7546 1.9734 -8.8105 -25.2045 0.0000 0.0000 0.0000 27.4944 -2.0487 -24.8913 -3.8074 -11.8996 35.3776 -0.1920 -4.0621 7.8663 -0.7675 -5.5944 15.6120 1.7824 0.0344 19.8066 1.4854 0.7486 -2.6401 0.4217 0.3002 -14.1981 -6.8659 -2.9249 -6.0959 6.6934 -3.8026 9.5432 2.9702 -1.7265 4.1050 0.0000 -0.0000 0.0000 76.7862 -28.3556 -88.8569 9.0819 -15.2909 -1.2216 -0.0000 -0.0000 19.6536 30.1002 -9.0677 -5.2200 -7.1250 0.0000 -0.0000 2.2611 19.5320 -1.3761 0.0000 -0.0000 0.0000 -82.9356 33.4078 -92.1455 -13.5152 22.0374 -2.6435 0.0000 -0.0000 -9.4508 -43.4483 -12.1462 11.2718 7.1250 -0.0000 -0.0000 -15.3827 -45.9069 0.3526
12.3778 18.5408 22.9148 -175.6280 8.7886 177.9450 0.0000 0.0000 0.0000 -9.6871 -7.6100 -11.1326 7.6257 15.8369 51.2031 0.3605 8.9361 11.5697 1.0074 -6.3864 -17.9097 0.0000 0.0000 0.0000 29.1741 -0.7600 -21.6169 -3.4717 -11.4221 33.7171 -0.2411 -3.4900 8.7297 -1.7307 -8.2810 23.5708 1.8939 -0.2125 20.4515 2.5045 0.6816 -3.6657 1.5626 0.3304 -15.8338 -8.8266 -2.3641 -4.0920 6.9187 -2.9916 9.6450 3.4279 -1.4037 3.7781 0.0000 -0.0000 0.0000 74.5781 -29.6725 -86.5004 9.0821 -15.2911 -1.2217 -0.0000 -0.0000 19.6763 29.5598 -9.4223 -5.3046 -7.1250 0.0000 -0.0000 1.8488 19.1818 -1.1393 0.0000 -0.0000 0.0000 -84.9320 35.6674 -95.0805 -13.3896 21.8553 -2.5965 0.0000 -0.0000 -6.4780 -41.8055 -13.2206 11.5588 7.1250 -0.0000 -0.0000 -13.9118 -46.9833 0.6938
