HIERARCHY
ROOT Hips
{
	OFFSET 0.00000 0.00000 0.00000
	CHANNELS 6 Xposition Yposition Zposition Zrotation Yrotation Xrotation 
	JOINT LHipJoint
	{
		OFFSET 0 0 0
		CHANNELS 3 Zrotation Yrotation Xrotation
		JOINT LeftUpLeg
		{
			OFFSET 1.39187 -1.60231 0.69152
			CHANNELS 3 Zrotation Yrotation Xrotation
			JOINT LeftLeg
			{
				OFFSET 2.43314 -6.68499 0.00000
				CHANNELS 3 Zrotation Yrotation Xrotation
				JOINT LeftFoot
				{
					OFFSET 2.32059 -6.37578 0.00000
					CHANNELS 3 Zrotation Yrotation Xrotation
					JOINT LeftToeBase
					{
						OFFSET 0.23021 -0.63250 1.71305
						CHANNELS 3 Zrotation Yrotation Xrotation
						End Site
						{
							OFFSET 0.00000 -0.00000 0.91647
						}
					}
				}
			}
		}
	}
	JOINT RHipJoint
	{
		OFFSET 0 0 0
		CHANNELS 3 Zrotation Yrotation Xrotation
		JOINT RightUpLeg
		{
			OFFSET -1.19407 -1.60231 0.69152
			CHANNELS 3 Zrotation Yrotation Xrotation
			JOINT RightLeg
			{
				OFFSET -2.44411 -6.71513 0.00000
				CHANNELS 3 Zrotation Yrotation Xrotation
				JOINT RightFoot
				{
					OFFSET -2.31924 -6.37207 0.00000
					CHANNELS 3 Zrotation Yrotation Xrotation
					JOINT RightToeBase
					{
						OFFSET -0.19473 -0.53502 1.87724
						CHANNELS 3 Zrotation Yrotation Xrotation
						End Site
						{
							OFFSET -0.00000 -0.00000 0.98293
						}
					}
				}
			}
		}
	}
	JOINT LowerBack
	{
		OFFSET 0 0 0
		CHANNELS 3 Zrotation Yrotation Xrotation
		JOINT Spine
		{
			OFFSET -0.01120 1.87307 0.09613
			CHANNELS 3 Zrotation Yrotation Xrotation
			JOINT Spine1
			{
				OFFSET 0.01099 1.87818 0.04834
				CHANNELS 3 Zrotation Yrotation Xrotation
				JOINT Neck
				{
					OFFSET 0 0 0
					CHANNELS 3 Zrotation Yrotation Xrotation
					JOINT Neck1
					{
						OFFSET 0.01702 1.40324 -0.12579
						CHANNELS 3 Zrotation Yrotation Xrotation
						JOINT Head
						{
							OFFSET -0.04239 1.38587 -0.01614
							CHANNELS 3 Zrotation Yrotation Xrotation
							End Site
							{
								OFFSET -0.02510 1.47031 -0.00154
							}
						}
					}
				}
				JOINT LeftShoulder
				{
					OFFSET 0 0 0
					CHANNELS 3 Zrotation Yrotation Xrotation
					JOINT LeftArm
					{
						OFFSET 2.95699 0.62343 0.11653
						CHANNELS 3 Zrotation Yrotation Xrotation
						JOINT LeftForeArm
						{
							OFFSET 4.68382 -0.00000 -0.00000
							CHANNELS 3 Zrotation Yrotation Xrotation
							JOINT LeftHand
							{
								OFFSET 2.98124 -0.00000 -0.00000
								CHANNELS 3 Zrotation Yrotation Xrotation
								JOINT LeftFingerBase
								{
									OFFSET 0 0 0
									CHANNELS 3 Zrotation Yrotation Xrotation
									JOINT LeftHandIndex1
									{
										OFFSET 0.70759 -0.00000 0.00000
										CHANNELS 3 Zrotation Yrotation Xrotation
										End Site
										{
											OFFSET 0.57048 -0.00000 0.00000
										}
									}
								}
								JOINT LThumb
								{
									OFFSET 0 0 0
									CHANNELS 3 Zrotation Yrotation Xrotation
									End Site
									{
										OFFSET 0.57919 -0.00000 0.57919
									}
								}
							}
						}
					}
				}
				JOINT RightShoulder
				{
					OFFSET 0 0 0
					CHANNELS 3 Zrotation Yrotation Xrotation
					JOINT RightArm
					{
						OFFSET -2.99027 0.88714 -0.02793
						CHANNELS 3 Zrotation Yrotation Xrotation
						JOINT RightForeArm
						{
							OFFSET -4.75876 -0.00000 -0.00000
							CHANNELS 3 Zrotation Yrotation Xrotation
							JOINT RightHand
							{
								OFFSET -2.93293 -0.00000 -0.00000
								CHANNELS 3 Zrotation Yrotation Xrotation
								JOINT RightFingerBase
								{
									OFFSET 0 0 0
									CHANNELS 3 Zrotation Yrotation Xrotation
									JOINT RightHandIndex1
									{
										OFFSET -0.83175 -0.00000 0.00000
										CHANNELS 3 Zrotation Yrotation Xrotation
										End Site
										{
											OFFSET -0.67058 -0.00000 0.00000
										}
									}
								}
								JOINT RThumb
								{
									OFFSET 0 0 0
									CHANNELS 3 Zrotation Yrotation Xrotation
									End Site
									{
										OFFSET -0.68082 -0.00000 0.68082
									}
								}
							}
						}
					}
				}
			}
		}
	}
}
MOTION
Frames: 53
Frame Time: 0.0333333

-8.2273 27.3098 0.3568 0 0 0 0 0 0 -21 0 0 0 0 0 0 0 0 0 0 0 0 0 0 21 0 0 0 0 0 0 0 0 0 0 0 0 0 0 0 0 0 0 0 0 0 0 -16 0 0 21 0 0 11 0 0 0 -8 0 0 0 0 0 0 0 0 0 0 0 0 0 0 0 0 0 0 0 0 8 0 0 0 0 0 0 0 0 0 0 0 0 0 0 0 0 0
1.3983 18.7130 1.0781 735.7280 130.2620 765.9250 0.0000 0.0000 0.0000 0.9936 -19.6541 -120.4741 37.0258 10.6532 148.8811 2.6970 -4.4061 -30.0755 0.2106 2.9543 8.1515 0.0000 0.0000 0.0000 26.3540 -18.1152 -86.9012 -37.1005 -10.5305 149.2876 -0.2808 19.4715 -15.9810 -0.8643 5.9281 -16.5760 -3.4398 5.6433 17.0747 -0.1484 7.2760 5.8433 0.3011 3.7462 -3.6416 -8.5560 -8.6207 -1.2800 14.4913 -7.2279 -30.9364 6.7617 -2.7363 -8.3038 0.0000 0.0000 0.0000 -103.7376 -48.1152 26.4573 9.8877 -16.5638 -1.4428 -0.0000 -0.0000 11.9912 27.4598 48.9457 21.3992 -7.1250 0.0000 -0.0000 -39.0083 80.2974 -32.4810 0.0000 0.0000 0.0000 102.6866 66.1294 78.1935 -7.7628 13.1676 -0.8973 0.0000 0.0000 46.6346 -16.8417 19.7917 -5.8523 7.1250 -0.0000 -0.0000 7.4178 -9.5120 6.1431
1.1715 18.7227 1.1780 735.6290 127.3410 765.9270 0.0000 0.0000 0.0000 0.4964 -19.6090 -120.9828 36.8239 10.9749 147.8048 2.8410 -3.8114 -31.0150 0.1669 2.6316 7.2546 0.0000 0.0000 0.0000 27.1386 -18.8716 -89.1384 -37.2624 -10.2576 150.1851 -1.0740 14.4760 -19.7576 -0.8590 5.9103 -16.5243 -3.7257 5.7279 17.8621 -0.2085 7.3030 5.9528 0.3154 3.7589 -3.9615 -9.8449 -8.3125 0.0615 15.3644 -6.6893 -32.3209 7.4561 -2.4205 -8.9901 0.0000 0.0000 0.0000 -103.8584 -49.0955 23.3786 9.7938 -16.4163 -1.4161 -0.0000 -0.0000 12.3845 26.0701 49.1962 20.3215 -7.1250 0.0000 -0.0000 -41.6177 79.8419 -34.3951 0.0000 0.0000 0.0000 104.6995 66.7965 78.0657 -8.4742 14.3185 -1.0663 0.0000 0.0000 47.5372 -15.0540 19.3300 -5.0875 7.1250 -0.0000 -0.0000 8.5542 -10.1908 6.9861
0.9648 18.7584 1.2777 734.9600 124.7880 765.6510 0.0000 0.0000 0.0000 0.4306 -19.5270 -121.5372 36.6234 11.2810 146.7663 3.0297 -3.9265 -32.0534 0.1931 2.8300 7.8059 0.0000 0.0000 0.0000 27.2573 -18.7498 -91.8205 -37.3575 -10.0924 150.7234 -1.4432 12.5428 -21.9434 -0.6008 4.9619 -13.8000 -4.9963 5.8755 18.0376 0.4675 7.3468 6.4935 1.7244 3.7749 -3.7085 -10.1318 -7.9621 1.0064 14.2572 -6.4690 -33.8655 7.2686 -2.1251 -9.8369 0.0000 -0.0000 0.0000 -105.7724 -50.6457 20.2079 9.7758 -16.3882 -1.4110 -0.0000 -0.0000 12.6384 25.6867 49.4762 20.0830 -7.1250 0.0000 -0.0000 -43.3029 79.8368 -35.8480 0.0000 -0.0000 0.0000 104.4791 68.6078 80.1651 -9.1295 15.3666 -1.2342 0.0000 0.0000 45.4971 -13.8156 19.2888 -4.6441 7.1250 -0.0000 -0.0000 9.3541 -10.3663 7.6233
0.7798 18.8163 1.3664 734.5230 122.4990 765.9800 0.0000 0.0000 0.0000 1.0584 -19.3605 -122.5444 36.2608 11.8050 144.9544 3.1157 -3.3331 -32.6443 0.0206 0.9261 2.5456 0.0000 0.0000 0.0000 27.1544 -17.3094 -94.5465 -37.3698 -10.0709 150.7932 -1.5780 9.5562 -22.5371 -0.4474 4.2915 -11.8982 -5.5411 5.7795 18.0829 0.6860 7.1666 6.8827 2.3148 3.6778 -3.3872 -9.7544 -7.5681 2.3365 13.2123 -6.0538 -36.1471 7.0449 -1.7449 -11.1412 0.0000 0.0000 0.0000 -105.5833 -52.1298 17.2682 9.9563 -16.6712 -1.4624 -0.0000 -0.0000 12.1836 22.9145 48.5985 17.5925 -7.1250 0.0000 -0.0000 -42.1437 78.1459 -33.5304 0.0000 0.0000 0.0000 102.9050 70.3969 85.6389 -10.4890 17.5009 -1.6189 0.0000 0.0000 38.2742 -12.5511 18.8755 -4.1195 7.1250 -0.0000 -0.0000 10.1649 -10.9092 8.1908
0.6257 18.8734 1.4550 734.6250 120.3100 766.5210 0.0000 0.0000 0.0000 1.5794 -17.9559 -122.7373 36.0277 12.1234 143.8301 3.4055 -4.6486 -33.9461 0.0165 0.8305 2.2827 0.0000 0.0000 0.0000 27.2120 -14.4209 -96.0424 -37.3581 -10.0915 150.7263 -1.5202 6.7616 -22.0851 -0.2966 3.5018 -9.6790 -5.6899 5.5266 18.7544 0.3218 6.7249 6.7224 2.0454 3.4647 -3.8399 -9.8082 -7.0261 3.1892 13.0044 -5.3367 -37.1197 7.0651 -1.3482 -11.8367 -0.0000 -0.0000 0.0000 -103.0198 -53.0641 12.9428 9.8803 -16.5521 -1.4407 -0.0000 -0.0000 11.9161 21.6162 48.3731 16.4991 -7.1250 0.0000 -0.0000 -42.5478 77.4741 -33.3350 -0.0000 -0.0000 0.0000 106.7630 70.2017 87.7126 -11.2310 18.6414 -1.8491 0.0000 0.0000 37.6732 -12.0498 20.1714 -4.2099 7.1250 -0.0000 -0.0000 10.5090 -9.6640 8.7481
0.4842 18.9752 1.5247 734.3680 118.4150 767.1970 0.0000 0.0000 0.0000 2.1681 -17.4847 -123.3059 35.6682 12.5893 142.1500 3.4438 -4.2199 -34.2226 0.0069 -0.5367 -1.4749 0.0000 0.0000 0.0000 26.7709 -10.4277 -97.9552 -37.2522 -10.2751 150.1278 -1.6194 4.2796 -23.0593 -0.2598 3.2796 -9.0580 -5.9468 5.0283 18.9030 -0.0625 5.9750 6.5649 1.9396 3.0966 -4.0057 -8.8300 -6.5113 3.6513 12.1360 -4.6708 -37.9256 6.5969 -1.0398 -12.4734 0.0000 -0.0000 0.0000 -100.9509 -54.6198 3.2091 9.5441 -16.0234 -1.3464 -0.0000 -0.0000 15.5401 15.9387 46.3385 11.6732 -7.1250 0.0000 -0.0000 -41.7638 73.9567 -29.8420 0.0000 -0.0000 0.0000 109.1915 70.0523 92.6944 -12.4870 20.5310 -2.2702 0.0000 0.0000 31.9382 -12.9232 18.3705 -4.1362 7.1250 -0.0000 -0.0000 9.9157 -11.3792 7.8864
0.3661 19.1395 1.5836 733.6780 116.5480 767.1230 0.0000 0.0000 0.0000 2.4902 -17.5626 -122.8518 35.2124 13.1405 140.1034 3.5121 -3.9277 -34.6320 0.0073 -0.5503 -1.5122 0.0000 0.0000 0.0000 25.2858 -7.5413 -98.9152 -37.0425 -10.6259 148.9716 -1.5479 3.5093 -22.6487 -0.2077 2.9341 -8.0953 -6.3532 4.6201 19.3804 -0.3861 5.3295 6.6374 1.9455 2.7855 -4.1201 -9.0373 -5.8759 3.0685 12.0954 -3.6249 -38.0778 6.5235 -0.4908 -12.5664 0.0000 -0.0000 0.0000 -99.5706 -56.6854 -6.8064 9.1453 -15.3918 -1.2384 -0.0000 -0.0000 18.7857 14.0889 45.2871 10.1126 -7.1250 0.0000 -0.0000 -40.9462 72.5708 -28.0701 0.0000 -0.0000 0.0000 111.8720 69.6734 94.4015 -13.3352 21.7764 -2.5763 0.0000 0.0000 29.6452 -12.1039 17.9037 -3.7719 7.1250 -0.0000 -0.0000 10.4461 -11.9232 8.2034
0.2678 19.3102 1.6332 733.3090 114.9230 767.4010 0.0000 0.0000 0.0000 2.9107 -17.6256 -122.4340 34.7672 13.6413 138.1810 3.5445 -2.9496 -34.9992 0.0787 -1.8093 -4.9790 0.0000 0.0000 0.0000 23.7986 -4.9076 -99.2077 -36.8012 -11.0102 147.6859 -1.5799 4.5688 -22.7238 -0.1975 2.8615 -7.8935 -5.8253 4.0629 19.8254 -1.2778 4.6015 6.3861 0.8389 2.4438 -4.4521 -7.7201 -5.3360 2.6683 11.3900 -2.7911 -37.9056 5.9084 -0.2186 -12.5981 0.0000 -0.0000 0.0000 -95.2723 -57.6590 -13.9052 8.7143 -14.7040 -1.1265 -0.0000 -0.0000 20.4930 11.9754 43.9114 8.3686 -7.1250 0.0000 -0.0000 -40.0049 70.8690 -25.9647 0.0000 -0.0000 0.0000 114.5505 68.5261 95.2462 -14.0464 22.8011 -2.8461 0.0000 0.0000 27.1904 -12.4578 17.1974 -3.7372 7.1250 -0.0000 -0.0000 10.2099 -12.5984 7.8660
0.1914 19.5431 1.6622 733.2610 113.3270 767.9390 0.0000 0.0000 0.0000 3.1563 -17.3515 -121.2908 34.1555 14.2759 135.6456 3.5767 -3.2982 -35.0900 0.0770 -1.7897 -4.9247 0.0000 0.0000 0.0000 21.9584 -2.0330 -99.1435 -36.4116 -11.5915 145.6982 -1.6881 4.3304 -23.5563 -0.2961 3.4988 -9.6706 -6.3892 3.9489 19.6795 -1.0904 4.3395 6.2715 1.4215 2.3086 -4.5343 -7.4828 -4.7705 2.7749 10.2794 -2.3806 -37.5996 5.3777 0.0065 -12.5909 0.0000 -0.0000 0.0000 -93.2937 -57.7037 -20.2064 8.4098 -14.2149 -1.0505 -0.0000 -0.0000 19.2476 13.4609 43.3730 9.3347 -7.1250 0.0000 -0.0000 -37.3420 70.9823 -24.1707 0.0000 -0.0000 0.0000 112.5025 67.7356 94.5796 -15.0249 24.1808 -3.2361 0.0000 0.0000 23.3122 -13.0513 15.9299 -3.6405 7.1250 -0.0000 -0.0000 9.8124 -13.8196 7.2944
0.1320 19.8032 1.6860 733.2130 111.8540 768.5630 0.0000 0.0000 0.0000 3.1221 -17.3021 -120.1092 33.5390 14.8607 133.1948 3.7143 -3.6778 -35.7122 0.0079 -0.5743 -1.5781 0.0000 0.0000 0.0000 20.1726 0.7102 -99.0507 -35.9791 -12.1882 143.5990 -1.6034 4.6168 -22.8935 -0.1129 2.1665 -5.9659 -6.6852 3.6924 19.3067 -1.1204 3.9877 6.4040 1.6683 2.1276 -4.1853 -6.7769 -4.3030 2.1879 8.9960 -1.9638 -37.4325 4.6745 0.2468 -12.5050 0.0000 -0.0000 0.0000 -92.0699 -58.6163 -28.3008 7.7991 -13.2267 -0.9056 -0.0000 -0.0000 24.6742 19.3058 44.1805 13.7197 -7.1250 0.0000 -0.0000 -32.6554 73.6511 -22.7510 0.0000 -0.0000 0.0000 112.0576 66.6938 92.8606 -16.0428 25.5787 -3.6644 0.0000 0.0000 21.2855 -12.7595 14.8531 -3.3222 7.1250 -0.0000 -0.0000 10.0115 -14.9260 7.2077
0.0781 20.0818 1.6886 733.2140 110.5660 769.5790 0.0000 0.0000 0.0000 3.3383 -17.5945 -119.2525 32.7626 15.5286 130.2333 3.4582 -1.6682 -34.8535 0.1210 -2.2427 -6.1769 0.0000 0.0000 0.0000 18.3101 3.2976 -98.7909 -35.4159 -12.8996 141.0062 -1.6751 4.2680 -23.4715 -0.2457 3.1899 -8.8079 -6.8085 3.3604 18.7553 -1.2068 3.5293 6.1382 1.7734 1.8953 -4.1502 -6.7327 -3.6574 1.5024 8.4528 -1.2486 -36.3789 4.3305 0.5587 -12.0031 0.0000 -0.0000 0.0000 -91.3539 -57.7622 -27.5312 7.7574 -13.1589 -0.8961 -0.0000 -0.0000 27.1668 26.3690 45.4890 19.4692 -7.1250 0.0000 -0.0000 -27.2451 77.3774 -20.9081 0.0000 -0.0000 0.0000 112.2847 64.8941 89.3483 -16.7111 26.4754 -3.9577 0.0000 0.0000 20.5114 -11.3612 14.5831 -2.8962 7.1250 -0.0000 -0.0000 10.9588 -15.2991 7.8255
0.0557 20.4427 1.6948 733.0090 109.4950 769.4550 0.0000 0.0000 0.0000 3.4274 -17.8798 -116.4921 31.8883 16.2008 127.0360 3.4353 -1.9991 -34.6524 0.0890 -1.9242 -5.2962 0.0000 0.0000 0.0000 16.9943 5.2355 -96.5223 -34.6253 -13.7937 137.5826 -1.7757 3.9349 -24.2495 -0.3524 3.8142 -10.5545 -7.0212 3.1885 19.1863 -1.2454 3.2367 6.1750 1.8998 1.7586 -4.3168 -6.4542 -3.1223 1.0984 7.9565 -0.6374 -35.6684 4.0033 0.8093 -11.6992 0.0000 -0.0000 0.0000 -91.0411 -56.9373 -25.8661 7.5655 -12.8461 -0.8529 -0.0000 -0.0000 30.9250 26.6170 44.0585 19.2127 -7.1250 0.0000 -0.0000 -22.9988 76.3070 -17.0809 0.0000 -0.0000 0.0000 111.0445 63.3356 87.3375 -17.6063 27.6501 -4.3650 0.0000 0.0000 14.0805 -13.1914 11.9555 -2.7798 7.1250 -0.0000 -0.0000 9.7567 -17.8142 6.3977
0.0290 20.7750 1.6861 733.9250 108.2920 771.2470 0.0000 0.0000 0.0000 3.3213 -17.8613 -114.8679 31.0317 16.7872 124.0197 3.4272 -0.6140 -34.9733 0.1002 -2.0413 -5.6198 0.0000 0.0000 0.0000 15.5810 8.3496 -95.4558 -33.7492 -14.6670 134.0199 -1.8185 2.1024 -24.9313 -0.5509 4.7546 -13.2100 -7.1472 3.0935 18.7336 -1.3534 3.0814 5.9330 1.9051 1.6763 -4.3290 -6.0292 -2.3678 0.9919 7.2648 0.2511 -35.0822 3.5658 1.1937 -11.5328 0.0000 -0.0000 0.0000 -90.5633 -56.3393 -26.2280 7.1874 -12.2273 -0.7708 -0.0000 -0.0000 35.7046 25.2562 41.6519 17.4080 -7.1250 0.0000 -0.0000 -19.7429 73.7110 -13.5469 0.0000 -0.0000 0.0000 110.4974 62.1711 83.1902 -17.8826 28.0066 -4.4940 0.0000 0.0000 14.1000 -11.9413 12.0770 -2.5336 7.1250 -0.0000 -0.0000 10.6206 -17.7675 6.9947
0.0012 21.1582 1.6623 734.6100 107.2110 772.6380 0.0000 0.0000 0.0000 3.0669 -18.1932 -112.8376 29.8347 17.5018 119.9605 3.2264 0.4475 -34.2304 0.0704 -1.7121 -4.7106 0.0000 0.0000 0.0000 14.2755 10.6559 -93.9825 -32.7297 -15.5553 130.1108 -1.7591 0.9019 -24.8288 -0.7617 5.5737 -15.5522 -6.9798 2.8267 18.6154 -1.5339 2.7400 5.7615 1.6979 1.5098 -4.4088 -5.9834 -1.7565 0.5487 6.6710 0.9455 -34.5107 3.2527 1.5478 -11.2780 0.0000 0.0000 0.0000 -89.8743 -55.7598 -22.4707 7.1434 -12.1549 -0.7615 -0.0000 -0.0000 34.2414 23.7173 41.0418 16.0911 -7.1250 0.0000 -0.0000 -20.7306 72.6230 -13.7572 0.0000 0.0000 0.0000 110.7791 60.8814 79.5391 -18.0739 28.2517 -4.5842 0.0000 0.0000 16.1672 -10.9882 11.3896 -2.1959 7.1250 -0.0000 -0.0000 11.3057 -18.5070 7.2752
-0.0000 21.5448 1.6558 735.0660 106.4970 774.1070 0.0000 0.0000 0.0000 2.8606 -18.3670 -110.9860 28.5009 18.1708 115.6078 3.0456 1.4869 -33.5984 0.0611 -1.5946 -4.3867 0.0000 0.0000 0.0000 13.5237 12.5473 -92.8529 -31.5323 -16.4527 125.7698 -1.7012 -0.0593 -24.7105 -0.8829 5.9899 -16.7551 -7.1646 2.8227 17.8117 -1.4036 2.7416 5.5870 1.9686 1.4958 -4.1886 -5.9992 -1.6281 0.5910 6.2283 0.9628 -34.4601 3.0880 1.5913 -11.2711 -0.0000 0.0000 0.0000 -90.9087 -55.6739 -20.6508 7.0317 -11.9715 -0.7382 -0.0000 -0.0000 34.6967 22.6693 40.5560 15.1935 -7.1250 0.0000 -0.0000 -21.2775 71.8293 -13.7650 -0.0000 0.0000 0.0000 108.4480 59.5219 76.6266 -18.4421 28.7195 -4.7598 0.0000 0.0000 13.2855 -14.3675 9.8902 -2.5192 7.1250 -0.0000 -0.0000 8.9805 -19.8385 5.4668
0.0045 21.9694 1.6378 735.0360 105.7770 775.2260 0.0000 0.0000 0.0000 2.2284 -18.7762 -108.8050 26.9594 18.7968 110.7483 2.9998 2.4366 -33.6925 0.1169 -2.2046 -6.0713 0.0000 0.0000 0.0000 12.9373 13.9826 -91.8111 -30.1611 -17.3183 121.0514 -1.6269 -1.4767 -24.6800 -1.2362 7.0505 -19.8651 -7.1532 2.5429 17.0376 -1.6504 2.3899 5.2563 1.7975 1.3178 -4.0939 -6.0453 -1.0604 0.2809 5.8392 1.6558 -33.9690 2.8785 1.9402 -11.0698 -0.0000 -0.0000 0.0000 -91.0049 -56.0963 -22.9615 6.8887 -11.7360 -0.7088 -0.0000 -0.0000 37.0211 20.1775 39.8043 13.2381 -7.1250 0.0000 -0.0000 -23.2071 70.3302 -14.2949 -0.0000 -0.0000 0.0000 107.4566 57.4644 72.9484 -18.8296 29.2065 -4.9474 0.0000 0.0000 12.4268 -14.8599 10.4556 -2.7567 7.1250 -0.0000 -0.0000 8.6190 -19.2352 5.3590
0.0015 22.4409 1.6085 733.4240 105.3480 774.3380 0.0000 0.0000 0.0000 1.3159 -19.6094 -105.7787 25.1689 19.3470 105.2727 2.8470 3.0521 -33.0870 0.0445 -1.3613 -3.7436 0.0000 0.0000 0.0000 12.9377 14.1742 -89.4177 -28.5213 -18.1615 115.6734 -1.5854 -3.2114 -25.1248 -1.5573 7.8756 -22.3369 -7.1414 2.1583 16.8724 -1.7620 1.8853 5.1091 1.7803 1.0728 -4.1173 -5.4257 -1.0314 -0.0189 5.1503 1.5234 -33.7074 2.5213 1.8587 -10.8953 -0.0000 -0.0000 0.0000 -91.0130 -56.3397 -23.2957 6.6122 -11.2792 -0.6537 -0.0000 -0.0000 36.7633 19.0341 39.4665 12.3685 -7.1250 0.0000 -0.0000 -24.0774 69.6624 -14.4980 -0.0000 -0.0000 0.0000 105.5736 55.4314 69.9931 -19.7221 30.3061 -5.3904 0.0000 0.0000 9.8103 -15.6779 8.6972 -2.4302 7.1250 -0.0000 -0.0000 8.0754 -20.9901 4.6929
0.0207 22.8952 1.5790 735.1120 104.6540 776.7750 0.0000 0.0000 0.0000 0.9993 -19.5343 -102.9066 23.2916 19.7382 99.6645 2.7580 3.7986 -32.8962 0.1187 -2.2212 -6.1175 0.0000 0.0000 0.0000 13.0766 15.4633 -87.1845 -26.6821 -18.8939 109.8901 -1.4279 -4.6372 -24.6622 -1.7772 8.3858 -23.8922 -7.5829 2.2248 15.7185 -1.5484 1.9941 5.0609 2.2665 1.1011 -3.5815 -5.9377 -0.8534 0.7081 5.4920 1.7551 -33.9322 2.7263 1.9658 -11.1468 -0.0000 -0.0000 0.0000 -92.0559 -56.3891 -23.1091 6.6196 -11.2915 -0.6551 -0.0000 -0.0000 38.4059 16.9897 36.1046 10.2061 -7.1250 0.0000 -0.0000 -22.0731 66.0443 -11.4523 -0.0000 -0.0000 0.0000 103.4496 52.7946 65.5974 -20.6332 31.3976 -5.8577 0.0000 0.0000 8.3628 -17.5618 8.7852 -2.7673 7.1250 -0.0000 -0.0000 6.7191 -20.8004 3.9218
0.0376 23.4415 1.5441 734.9330 103.8220 776.8460 0.0000 0.0000 0.0000 -0.2681 -19.7258 -98.3566 20.8760 19.9816 92.5620 2.7635 3.5717 -32.8315 0.0551 -1.5146 -4.1660 0.0000 0.0000 0.0000 12.6848 16.2963 -84.0897 -24.5213 -19.5027 103.3254 -1.2408 -5.2336 -23.5257 -1.8868 8.6261 -24.6326 -7.7634 2.0446 15.8040 -1.8614 1.6888 4.8278 2.0882 0.9638 -3.8412 -4.8853 -0.6515 -0.7129 4.5945 1.8049 -32.1944 2.1921 1.8973 -10.1876 0.0000 0.0000 0.0000 -91.9607 -56.0141 -24.1028 6.5860 -11.2360 -0.6486 -0.0000 -0.0000 40.6703 16.7277 34.2852 9.6090 -7.1250 0.0000 -0.0000 -20.4389 64.3078 -9.7533 0.0000 0.0000 0.0000 102.5803 49.6052 62.2093 -21.3067 32.1846 -6.2125 0.0000 0.0000 7.6867 -18.4159 8.3700 -2.7748 7.1250 -0.0000 -0.0000 6.1075 -21.1858 3.5071
0.0600 23.9621 1.4927 735.1580 103.4220 777.7230 0.0000 0.0000 0.0000 -1.2265 -20.2094 -94.4579 18.3696 19.9361 85.2280 2.5727 4.4695 -32.1334 0.0143 -0.7717 -2.1209 0.0000 0.0000 0.0000 12.2689 17.1404 -82.1837 -22.4403 -19.8566 97.1513 -1.0320 -4.4382 -21.2781 -1.6385 8.0686 -22.9226 -7.5954 1.8405 15.1429 -1.9223 1.4730 4.5792 1.9841 0.8514 -3.7286 -6.4001 -0.3509 0.4805 6.0822 2.4268 -32.5027 2.9555 2.1769 -10.5943 -0.0000 0.0000 0.0000 -92.0169 -55.3398 -20.5363 6.5302 -11.1435 -0.6377 -0.0000 -0.0000 38.7922 16.7010 32.7776 9.2261 -7.1250 0.0000 -0.0000 -19.0616 62.8988 -8.4443 -0.0000 0.0000 0.0000 101.4632 46.8811 59.3740 -21.5582 32.4741 -6.3470 0.0000 0.0000 6.3008 -20.5336 7.5879 -2.8315 7.1250 -0.0000 -0.0000 4.5734 -21.8932 2.5462
0.1034 24.4526 1.4377 738.3730 102.7520 781.5060 0.0000 0.0000 0.0000 -1.5396 -20.1790 -90.8572 15.9886 19.6097 78.1978 2.3144 4.9267 -30.8172 0.0064 0.5153 1.4159 0.0000 0.0000 0.0000 12.3031 18.4141 -79.6979 -20.1915 -19.9991 90.5600 -0.8372 -4.0666 -19.2210 -1.4577 7.6310 -21.5987 -7.4808 1.7782 14.2631 -2.0216 1.4379 4.2326 1.8375 0.8259 -3.6169 -5.3759 0.1778 0.0434 4.9663 2.8314 -31.1130 2.3255 2.2896 -9.9907 0.0000 -0.0000 0.0000 -91.6601 -54.3778 -19.7516 6.5499 -11.1761 -0.6415 -0.0000 -0.0000 39.9916 15.3604 30.6062 7.9618 -7.1250 0.0000 -0.0000 -18.7435 60.5237 -7.2429 0.0000 -0.0000 0.0000 100.9984 43.6598 57.4021 -21.6584 32.5889 -6.4009 0.0000 0.0000 4.7649 -23.0016 7.1615 -3.0294 7.1250 -0.0000 -0.0000 2.7677 -22.2102 1.5178
0.1415 24.9395 1.4020 740.6170 102.4180 783.9970 0.0000 0.0000 0.0000 -1.7654 -20.3280 -86.8403 13.6787 19.0137 71.2206 1.9675 5.4728 -28.9141 0.0118 0.7009 1.9262 0.0000 0.0000 0.0000 12.4506 19.7548 -75.9347 -17.7420 -19.8773 83.3851 -0.6631 -4.9717 -17.9886 -1.5667 7.8984 -22.4058 -7.2293 1.7158 14.4258 -2.1342 1.2966 3.5591 1.5881 0.7785 -4.4041 -5.8351 0.5444 -0.5293 5.5905 3.2999 -29.2298 2.5862 2.4200 -9.2322 0.0000 0.0000 0.0000 -91.4372 -53.1014 -20.8034 6.4151 -10.9527 -0.6157 -0.0000 -0.0000 44.0455 14.2003 28.3548 6.8528 -7.1250 0.0000 -0.0000 -18.3636 58.1280 -6.0309 0.0000 0.0000 0.0000 100.7122 40.0872 55.1331 -21.5397 32.4529 -6.3371 0.0000 0.0000 3.9601 -23.8174 6.6536 -2.9279 7.1250 -0.0000 -0.0000 2.1599 -22.7147 1.1591
0.1738 25.3505 1.3669 742.9100 102.2080 786.3710 0.0000 0.0000 0.0000 -1.7802 -20.5008 -83.1519 11.7130 18.2667 65.0763 1.7158 5.6049 -27.2944 0.0565 1.5336 4.2183 0.0000 0.0000 0.0000 12.7516 20.7041 -72.5738 -15.5025 -19.5080 76.7457 -0.6143 -4.6528 -17.2294 -1.1019 6.6701 -18.7415 -7.1273 1.6839 12.9500 -2.0336 1.4369 3.9448 1.6553 0.8059 -3.2050 -5.4445 1.1958 0.6246 5.0514 3.9592 -28.8867 2.2662 2.6710 -9.3532 0.0000 0.0000 0.0000 -91.5631 -52.8557 -19.3571 6.3881 -10.9079 -0.6105 -0.0000 -0.0000 46.6234 13.3539 26.9104 6.1323 -7.1250 0.0000 -0.0000 -18.3126 56.5764 -5.3210 0.0000 0.0000 0.0000 100.5223 38.5371 53.5658 -20.7422 31.5262 -5.9146 0.0000 0.0000 2.1783 -25.6595 6.9355 -3.3200 7.1250 -0.0000 -0.0000 0.8169 -22.2943 0.4460
0.2150 25.7683 1.3285 744.3820 102.1380 787.7410 0.0000 0.0000 0.0000 -2.1595 -20.6746 -79.2770 9.8631 17.3322 59.0299 1.3892 6.3520 -25.3695 0.1000 2.0395 5.6149 0.0000 0.0000 0.0000 13.4859 21.0742 -69.1063 -13.4611 -18.9424 70.5518 -0.4819 -4.8860 -15.8155 -0.8679 5.9400 -16.6104 -6.7643 1.4883 12.5935 -1.9812 1.2209 3.6205 1.5448 0.7003 -3.3324 -5.7025 1.4783 0.2577 5.1747 4.0563 -26.3346 2.3492 2.6187 -8.3967 0.0000 -0.0000 0.0000 -90.8095 -51.8913 -21.8400 6.0725 -10.3830 -0.5522 -0.0000 -0.0000 52.5717 11.5718 24.7837 4.9059 -7.1250 0.0000 -0.0000 -18.8616 54.2084 -4.3875 0.0000 -0.0000 0.0000 100.8160 35.6955 51.7331 -20.1386 30.8090 -5.6022 0.0000 0.0000 2.6437 -26.3403 6.8665 -3.3875 7.1250 -0.0000 -0.0000 0.3160 -22.3267 0.1723
0.2373 26.0632 1.2968 746.9020 101.8250 790.6650 0.0000 0.0000 0.0000 -2.0652 -20.7800 -76.6021 8.2967 16.3332 53.6243 1.0477 7.1107 -23.1452 0.1324 2.3457 6.4621 0.0000 0.0000 0.0000 13.8093 21.6302 -67.5792 -12.0904 -18.4286 66.2752 -0.2977 -4.8227 -13.2210 -0.4714 4.4037 -12.2153 -6.3779 1.4599 11.2002 -1.9862 1.3140 3.4120 1.3378 0.7253 -2.7914 -5.5495 1.8330 -0.5008 4.5299 4.1358 -23.3886 2.1131 2.5960 -7.2602 0.0000 0.0000 0.0000 -90.9307 -51.7882 -26.7108 5.7430 -9.8329 -0.4944 -0.0000 -0.0000 61.4141 10.4274 23.3669 4.1746 -7.1250 0.0000 -0.0000 -19.2220 52.6606 -3.7350 0.0000 0.0000 0.0000 100.7098 33.8692 50.1239 -19.4330 29.9531 -5.2453 0.0000 0.0000 2.3404 -26.3789 6.3421 -3.1358 7.1250 -0.0000 -0.0000 0.2669 -22.9076 0.1419
0.2854 26.3230 1.2770 747.3880 101.3730 790.8930 0.0000 0.0000 0.0000 -2.5804 -21.1567 -73.3191 6.9942 15.3270 48.8523 0.7527 8.1114 -21.2764 0.1757 2.7001 7.4448 0.0000 0.0000 0.0000 14.4104 21.3216 -66.1181 -10.9932 -17.9318 62.7595 -0.2211 -5.3853 -12.4854 -0.3398 3.7461 -10.3633 -6.4832 1.3601 10.1312 -2.0199 1.2522 3.3753 1.3923 0.6784 -2.2397 -5.4706 2.4718 -0.8150 3.8026 4.5818 -20.2282 1.8536 2.7456 -6.1936 0.0000 0.0000 0.0000 -90.4823 -51.0050 -27.3726 5.6600 -9.6940 -0.4803 -0.0000 -0.0000 63.9667 9.0989 22.9081 3.5673 -7.1250 0.0000 -0.0000 -20.2601 52.0016 -3.6151 0.0000 0.0000 0.0000 100.7219 31.5413 48.6531 -19.3870 29.8967 -5.2223 0.0000 0.0000 2.4518 -26.6196 6.5270 -3.2607 7.1250 -0.0000 -0.0000 0.0973 -22.6867 0.0523
0.3385 26.5350 1.2613 748.5500 100.8820 791.3850 0.0000 0.0000 0.0000 -3.2918 -21.2811 -69.9728 6.0281 14.4555 45.0944 0.5999 8.8141 -20.3943 0.3296 3.6898 10.2054 0.0000 0.0000 0.0000 15.1923 20.9067 -64.6372 -9.9396 -17.3758 59.2864 -0.2117 -6.0046 -12.9207 -0.3015 3.5304 -9.7590 -6.6075 1.3890 9.3852 -2.0184 1.3278 3.2642 1.4687 0.7060 -1.9530 -5.1376 3.0854 -1.1780 2.6848 4.9617 -16.5593 1.4607 2.8579 -4.9716 -0.0000 -0.0000 0.0000 -90.2140 -50.2440 -31.7205 5.3982 -9.2548 -0.4372 -0.0000 -0.0000 69.8668 9.0568 22.2372 3.4521 -7.1250 0.0000 -0.0000 -19.9621 51.3639 -3.2380 -0.0000 -0.0000 0.0000 100.6121 28.7272 47.2088 -19.6562 30.2259 -5.3572 0.0000 0.0000 3.1575 -27.2841 7.1203 -3.6581 7.1250 -0.0000 -0.0000 -0.3619 -21.9791 -0.2001
0.3951 26.7266 1.2410 747.6100 100.1240 789.5560 0.0000 0.0000 0.0000 -4.7509 -21.4839 -66.4723 5.1574 13.5588 41.4981 0.3633 10.1145 -19.1788 0.2347 3.1182 8.6079 0.0000 0.0000 0.0000 15.5525 20.2037 -63.4398 -8.7957 -16.6745 55.3810 -0.1786 -6.5202 -12.8974 -0.3287 3.6848 -10.1915 -6.8588 1.2327 8.9027 -2.2813 1.1333 3.1614 1.3658 0.6084 -1.7774 -4.3783 3.7902 -2.1344 1.4164 5.5561 -11.9705 1.0680 3.0608 -3.6947 -0.0000 -0.0000 0.0000 -89.4243 -49.5785 -39.1668 5.1111 -8.7718 -0.3923 -0.0000 -0.0000 78.3412 10.7950 22.4568 4.1657 -7.1250 0.0000 -0.0000 -18.4133 51.8590 -3.1999 -0.0000 -0.0000 0.0000 100.6520 26.3560 47.2971 -19.9329 30.5614 -5.4972 0.0000 0.0000 2.3411 -28.3526 8.1887 -4.3952 7.1250 -0.0000 -0.0000 -1.0751 -20.6939 -0.6259
0.4598 26.8608 1.2224 747.9230 99.8680 788.7450 0.0000 0.0000 0.0000 -5.7844 -21.2571 -63.2707 4.5499 12.8582 38.8401 0.1613 10.8466 -17.6435 0.1786 2.7225 7.5071 0.0000 0.0000 0.0000 16.5437 19.4544 -62.1276 -7.4197 -15.6754 50.4444 -0.1773 -6.4613 -12.8139 -0.3666 3.8892 -10.7651 -6.9268 1.0139 8.2377 -2.0962 0.9111 3.3037 1.6309 0.4790 -1.2487 -3.9626 4.5465 -2.5741 0.3129 6.3497 -8.6828 0.6710 3.3799 -2.4490 -0.0000 -0.0000 0.0000 -88.7100 -48.5899 -40.7603 5.0048 -8.5925 -0.3762 -0.0000 -0.0000 80.1570 13.3129 23.3181 5.3511 -7.1250 0.0000 -0.0000 -16.3905 53.1209 -3.3457 -0.0000 -0.0000 0.0000 100.2850 24.5639 47.6517 -21.0153 31.8462 -6.0580 0.0000 0.0000 1.2109 -25.6845 7.1807 -3.4403 7.1250 -0.0000 -0.0000 0.8078 -22.0216 0.4460
0.5205 26.9235 1.2051 748.2800 99.6652 788.4070 0.0000 0.0000 0.0000 -6.4330 -21.0836 -61.3214 4.2489 12.4844 37.4679 0.3048 10.7368 -19.2096 0.5959 4.9420 13.7432 0.0000 0.0000 0.0000 17.4907 18.7940 -61.7421 -6.0549 -14.4814 45.2018 -0.1665 -6.2912 -12.4515 -0.5466 4.7366 -13.1587 -6.6298 0.7495 7.6544 -2.1978 0.6107 3.0565 1.3935 0.3304 -1.1575 -4.4827 5.0247 -4.1282 1.0662 7.0016 -4.4714 1.0883 3.6135 -0.8967 -0.0000 -0.0000 0.0000 -87.7322 -47.8802 -41.2445 4.8440 -8.3211 -0.3526 -0.0000 -0.0000 80.7814 15.1583 24.4276 6.3924 -7.1250 0.0000 -0.0000 -15.1084 54.5395 -3.6029 -0.0000 -0.0000 0.0000 100.3261 22.2414 48.6104 -21.5976 32.5193 -6.3682 0.0000 0.0000 2.4166 -26.2420 8.5656 -4.1993 7.1250 -0.0000 -0.0000 0.4648 -20.4472 0.2731
0.6071 26.9649 1.2096 749.2980 99.1619 788.7720 0.0000 0.0000 0.0000 -7.2112 -20.5893 -59.6031 4.0493 12.2258 36.5354 0.2518 10.9862 -18.8940 0.4072 4.0968 11.3491 0.0000 0.0000 0.0000 17.9431 18.6977 -61.4823 -4.7462 -13.0921 39.7142 -0.1645 -5.9157 -12.0262 -0.4262 4.1897 -11.6109 -6.9300 0.7173 6.7317 -2.3307 0.6065 2.8060 1.4317 0.3213 -0.9058 -3.2258 5.4954 -3.9978 -0.0866 7.5097 -2.5268 0.5578 3.8083 -0.2363 -0.0000 0.0000 0.0000 -87.0098 -46.5571 -41.1649 4.8963 -8.4095 -0.3602 -0.0000 -0.0000 80.9542 16.7766 24.4456 7.1113 -7.1250 0.0000 -0.0000 -13.4840 54.8681 -3.3129 -0.0000 0.0000 0.0000 100.0445 20.0575 49.5399 -22.9023 33.9818 -7.0836 0.0000 0.0000 2.3609 -25.0074 8.3872 -3.8924 7.1250 -0.0000 -0.0000 1.3459 -20.7404 0.7823
0.6912 27.0136 1.2058 746.5050 98.9246 785.0690 0.0000 0.0000 0.0000 -8.6410 -20.1617 -57.4568 3.8064 11.8982 35.3728 0.3162 10.4748 -19.0455 0.3869 3.9941 11.0602 0.0000 0.0000 0.0000 18.3475 17.9880 -60.8455 -3.5448 -11.5287 34.0844 -0.1124 -5.6518 -10.7605 -0.6478 5.1486 -14.3329 -7.2161 0.6333 6.1250 -2.2947 0.5158 2.5952 1.6393 0.2719 -0.7818 -2.7843 5.6326 -3.9443 -0.0223 7.6562 -0.8558 0.5421 3.8462 0.2764 0.0000 -0.0000 0.0000 -87.1401 -45.4653 -40.3415 4.9376 -8.4791 -0.3662 -0.0000 -0.0000 80.7733 18.0496 24.5134 7.7002 -7.1250 0.0000 -0.0000 -12.2182 55.1846 -3.0892 0.0000 -0.0000 0.0000 99.4369 17.7169 49.6261 -24.2975 35.4773 -7.8785 0.0000 0.0000 2.8520 -24.8210 9.3254 -4.2861 7.1250 -0.0000 -0.0000 1.5189 -19.7262 0.9174
0.7860 27.0486 1.2017 739.6980 98.8830 777.2400 0.0000 0.0000 0.0000 -10.8925 -19.5151 -55.2238 3.5585 11.5485 34.1529 0.4315 9.1035 -18.8944 0.3795 3.9562 10.9535 0.0000 0.0000 0.0000 17.6736 17.4835 -59.9950 -2.5830 -9.9872 28.9353 0.0097 -6.2477 -8.6516 -0.7890 5.6703 -15.8306 -7.5287 0.2031 5.7938 -2.3196 -0.0373 2.5413 1.8247 -0.0070 -0.6058 -2.0967 5.9871 -4.4680 -0.5592 8.1151 0.8851 0.3387 4.0398 0.9455 -0.0000 -0.0000 0.0000 -86.8286 -44.3278 -37.2368 5.1594 -8.8532 -0.3997 -0.0000 -0.0000 77.3803 18.4134 23.3817 7.5263 -7.1250 0.0000 -0.0000 -11.3359 54.1207 -2.5664 -0.0000 -0.0000 0.0000 99.0140 16.3328 50.3699 -25.1011 36.3072 -8.3497 0.0000 0.0000 3.4140 -24.8553 10.1513 -4.6675 7.1250 -0.0000 -0.0000 1.5327 -18.8193 0.9567
0.8827 27.0668 1.2030 734.3660 99.4785 771.0790 0.0000 0.0000 0.0000 -12.5956 -18.7025 -53.5934 3.4062 11.3253 33.3850 0.5831 7.3301 -18.9236 0.3046 3.5486 9.8099 0.0000 0.0000 0.0000 17.0548 17.2842 -59.2039 -1.8579 -8.5636 24.4396 0.1652 -7.9520 -6.5407 -0.7801 5.6388 -15.7400 -7.4092 -0.0688 5.0721 -2.1364 -0.3314 2.4764 1.9631 -0.1670 -0.2456 -1.7489 5.9745 -4.5956 -0.5377 8.0861 1.6599 0.3131 4.0154 1.2256 -0.0000 -0.0000 0.0000 -87.3659 -43.3108 -30.7505 5.4893 -9.4077 -0.4520 -0.0000 -0.0000 71.5375 18.2417 23.0448 7.3516 -7.1250 0.0000 -0.0000 -11.3653 53.7494 -2.4696 -0.0000 -0.0000 0.0000 98.4051 15.4041 49.9296 -25.8864 37.0963 -8.8190 0.0000 0.0000 3.8983 -24.9030 9.2248 -4.2563 7.1250 -0.0000 -0.0000 1.4559 -19.8297 0.8759
0.9931 27.0681 1.2119 729.0670 100.2030 764.7520 0.0000 0.0000 0.0000 -14.2621 -17.9162 -51.8802 3.3246 11.2029 32.9672 0.7334 5.5931 -19.1607 0.3585 3.8464 10.6450 0.0000 0.0000 0.0000 14.9275 18.2268 -57.6061 -1.3028 -7.2308 20.4011 0.4564 -11.8728 -4.1324 -0.9339 6.1557 -17.2368 -7.3716 -0.2478 4.5365 -2.0747 -0.5348 2.2737 2.0132 -0.2704 -0.1389 -1.1137 5.7779 -4.5534 -0.5033 7.7917 2.5571 0.2347 3.8633 1.5310 0.0000 0.0000 0.0000 -88.0112 -41.9944 -24.3094 5.8463 -10.0055 -0.5122 -0.0000 -0.0000 65.9164 18.2034 21.8577 6.9801 -7.1250 0.0000 -0.0000 -10.9196 52.5456 -2.0476 0.0000 0.0000 0.0000 98.3740 14.6790 48.4809 -25.6993 36.9103 -8.7065 0.0000 0.0000 4.8760 -22.7522 9.9826 -4.1580 7.1250 -0.0000 -0.0000 3.0185 -19.1821 1.8617
1.1198 27.0715 1.2144 722.4020 101.2880 756.8590 0.0000 0.0000 0.0000 -16.1376 -17.5824 -49.5928 3.2290 11.0568 32.4718 0.8467 4.0746 -19.3196 0.3444 3.7708 10.4327 0.0000 0.0000 0.0000 9.5786 21.1879 -55.1179 -0.9310 -6.1464 17.2098 1.2549 -19.5760 -4.2750 -0.2958 3.4975 -9.6669 -7.5300 -0.5059 4.3117 -1.9210 -0.8618 2.2688 2.2711 -0.4407 0.0165 0.6980 5.5501 -3.5764 -1.9533 7.4202 1.7987 -0.5541 3.6774 1.2547 -0.0000 -0.0000 0.0000 -89.2610 -40.8155 -16.3874 6.4533 -11.0160 -0.6229 -0.0000 -0.0000 58.5706 17.5773 22.2573 6.8420 -7.1250 0.0000 -0.0000 -11.7022 52.8365 -2.2815 -0.0000 -0.0000 0.0000 98.0499 14.8505 47.1450 -25.5285 36.7393 -8.6041 0.0000 0.0000 4.1312 -20.8981 9.5984 -3.6429 7.1250 -0.0000 -0.0000 4.3300 -19.7344 2.6210
1.2668 27.0669 1.2227 717.7630 102.1310 751.2450 0.0000 0.0000 0.0000 -17.7621 -16.9987 -47.6965 3.1843 10.9876 32.2382 0.9642 2.8275 -19.7725 0.2831 3.4219 9.4556 0.0000 0.0000 0.0000 5.9894 23.0829 -53.2384 -0.7045 -5.3646 14.9516 1.8264 -24.0645 -1.8467 -0.3926 4.0234 -11.1424 -7.9049 -0.4327 3.4172 -1.7246 -0.6820 2.4163 2.6651 -0.3833 0.6626 -0.0394 4.8898 -4.6995 -0.8302 6.5560 2.4104 -0.0704 3.2530 1.5637 0.0000 0.0000 0.0000 -91.1952 -40.3268 -11.3286 6.8989 -11.7527 -0.7109 -0.0000 -0.0000 54.5076 16.9522 21.4999 6.3744 -7.1250 0.0000 -0.0000 -12.0151 51.9672 -2.0860 0.0000 0.0000 0.0000 97.4282 14.6587 44.5370 -25.1240 36.3305 -8.3633 0.0000 0.0000 5.3163 -19.7068 9.5715 -3.4084 7.1250 -0.0000 -0.0000 5.1804 -19.8458 3.1267
1.4323 27.0470 1.2242 714.6620 103.3280 747.3830 0.0000 0.0000 0.0000 -18.8153 -16.8590 -45.9453 3.1599 10.9496 32.1100 1.0823 1.7860 -20.3730 0.2394 3.1490 8.6938 0.0000 0.0000 0.0000 5.7316 22.2467 -51.9445 -0.6181 -5.0316 13.9988 1.9248 -24.5421 -2.3217 -0.2384 3.1426 -8.6759 -7.8020 -0.6723 2.6986 -1.7088 -0.9653 1.9693 2.6251 -0.5165 0.6283 0.9158 4.5561 -3.8047 -0.8666 6.0588 1.8196 -0.2832 3.0189 1.2501 0.0000 0.0000 0.0000 -92.0466 -38.7515 -8.8714 7.2028 -12.2525 -0.7741 -0.0000 -0.0000 51.5823 16.8498 19.9739 5.9066 -7.1250 0.0000 -0.0000 -11.5391 50.4180 -1.5589 0.0000 0.0000 0.0000 97.3754 14.8402 42.5297 -23.5732 34.7097 -7.4622 0.0000 0.0000 5.8647 -19.7520 10.3879 -3.7045 7.1250 -0.0000 -0.0000 5.1575 -18.9825 3.2124
1.5338 26.9419 1.2342 722.2230 102.1440 758.7990 0.0000 0.0000 0.0000 -15.7663 -17.4755 -50.5377 3.2086 11.0253 32.3652 1.0048 3.1948 -20.3419 0.2159 2.9916 8.2553 0.0000 0.0000 0.0000 3.8006 25.2647 -56.7753 -0.6042 -4.9755 13.8387 1.8775 -24.7389 -0.6994 -0.1537 2.5259 -6.9615 -6.6265 -0.0352 -2.8847 -1.3321 0.2371 0.1615 2.3510 0.0765 1.7679 1.5405 4.3157 -3.2346 -1.8265 5.7304 0.9550 -0.7111 2.8494 0.9307 0.0000 0.0000 0.0000 -93.5609 -36.7812 -3.2075 8.0128 -13.5735 -0.9551 -0.0000 -0.0000 45.0089 15.4058 20.7949 5.5874 -7.1250 0.0000 -0.0000 -13.2432 51.0049 -1.9890 0.0000 0.0000 0.0000 96.5312 14.4389 39.6551 -22.4796 33.5148 -6.8488 0.0000 0.0000 5.5439 -18.7932 11.5644 -3.9026 7.1250 -0.0000 -0.0000 5.8492 -17.8212 3.7983
1.8624 27.0988 1.2104 707.6560 108.1800 736.6460 0.0000 0.0000 0.0000 -21.6897 -17.9209 -37.1537 2.5914 10.0023 28.9842 1.1396 0.3446 -20.3113 0.1515 2.5078 6.9112 0.0000 0.0000 0.0000 6.0054 18.4295 -48.1171 -0.9868 -6.3229 17.7241 2.1804 -26.0820 -2.1662 -0.2526 3.2340 -8.9309 -7.6748 -1.5541 3.8331 -1.2237 -2.2476 1.9118 3.1113 -1.1374 0.0803 1.4670 3.4084 -3.0002 -1.7022 4.5191 0.0007 -0.6966 2.2509 0.5685 0.0000 0.0000 0.0000 -94.7614 -34.8669 -1.6981 8.4511 -14.2814 -1.0606 -0.0000 -0.0000 42.8740 14.1999 20.3243 5.0227 -7.1250 0.0000 -0.0000 -14.2162 50.3459 -1.9067 0.0000 0.0000 0.0000 95.9508 13.6026 37.3725 -21.7606 32.7054 -6.4560 0.0000 0.0000 4.5962 -18.3991 9.9162 -3.2785 7.1250 -0.0000 -0.0000 6.1145 -19.5716 3.7341
2.0792 27.1335 1.2027 707.0870 108.7150 735.3430 0.0000 0.0000 0.0000 -22.1318 -17.7446 -34.6072 2.3806 9.6174 27.7465 1.1759 0.3747 -20.6417 0.1668 2.6314 7.2541 0.0000 0.0000 0.0000 5.8254 18.7382 -47.0799 -1.1273 -6.7439 18.9587 2.3458 -27.3286 -1.0655 -0.2041 2.9091 -8.0258 -8.0392 -1.4492 2.2867 -0.7789 -1.9902 1.8634 3.7222 -1.0522 0.8983 0.8803 2.3807 -2.5133 -1.6488 3.1659 -1.6440 -0.6199 1.5873 -0.0469 -0.0000 0.0000 0.0000 -96.4583 -33.5728 -1.2091 8.7184 -14.7105 -1.1275 -0.0000 -0.0000 41.2940 12.8158 21.0165 4.6641 -7.1250 0.0000 -0.0000 -15.8231 50.8035 -2.3124 -0.0000 0.0000 0.0000 94.7245 14.1753 34.6906 -20.1279 30.7962 -5.5967 0.0000 0.0000 4.0805 -17.4123 8.4112 -2.6266 7.1250 -0.0000 -0.0000 6.8319 -21.1969 3.9269
2.2869 27.1494 1.1981 708.6960 108.6010 736.7290 0.0000 0.0000 0.0000 -21.4680 -17.5908 -33.3999 2.3045 9.4734 27.2876 1.1925 1.0319 -21.0341 0.1455 2.4583 6.7741 0.0000 0.0000 0.0000 6.1551 19.8922 -46.1932 -1.1443 -6.7927 19.1027 2.3957 -28.1855 0.5918 -0.0727 1.7397 -4.7867 -7.3662 -1.2535 1.1048 -0.5390 -1.6943 0.8682 3.5792 -0.8716 0.4768 0.4986 1.4818 -1.0513 -1.2309 1.9744 -2.8929 -0.4610 1.0025 -0.6880 0.0000 -0.0000 0.0000 -97.1907 -31.2054 -4.3639 8.6074 -14.5326 -1.0995 -0.0000 -0.0000 42.0586 12.5066 19.6130 4.2582 -7.1250 0.0000 -0.0000 -15.5406 49.3887 -1.7191 0.0000 -0.0000 0.0000 94.0046 13.1762 31.7066 -18.7525 29.1100 -4.9099 0.0000 0.0000 4.5711 -19.1047 8.7601 -3.0196 7.1250 -0.0000 -0.0000 5.6090 -20.7378 3.2750
2.4984 27.1605 1.1991 711.3610 108.1210 739.9110 0.0000 0.0000 0.0000 -20.3768 -16.9208 -33.8165 2.3760 9.6090 27.7195 1.2588 1.1786 -21.6587 0.1267 2.2948 6.3211 0.0000 0.0000 0.0000 6.4407 21.6557 -46.0762 -1.1317 -6.7566 18.9962 2.3446 -28.6212 2.2921 -0.0279 1.0791 -2.9666 -6.6301 -0.9810 -1.1981 -0.2929 -1.1967 -0.0135 3.3909 -0.6155 0.7892 0.6395 0.4522 -0.0713 -0.9348 0.6075 -3.8044 -0.3986 0.3193 -1.1476 0.0000 -0.0000 0.0000 -97.7249 -29.5439 -7.6735 8.5496 -14.4397 -1.0851 -0.0000 -0.0000 43.9201 10.6914 19.4616 3.5993 -7.1250 0.0000 -0.0000 -17.1783 48.9739 -1.7301 0.0000 -0.0000 0.0000 93.3131 12.4043 29.1943 -17.5954 27.6360 -4.3599 0.0000 0.0000 5.6749 -19.1786 8.4103 -2.9122 7.1250 -0.0000 -0.0000 5.5563 -21.1008 3.1982
2.7439 27.1941 1.2197 713.0370 107.9730 740.5240 0.0000 0.0000 0.0000 -20.1039 -15.3539 -33.0003 2.6034 10.0235 29.0530 1.2636 0.6824 -21.5075 0.0681 1.6841 4.6335 0.0000 0.0000 0.0000 7.4133 22.8655 -43.8630 -1.1670 -6.8576 19.2943 2.5749 -29.5380 1.6236 -0.0018 0.2772 -0.7617 -6.7630 -0.5948 -2.2959 0.0012 -0.6038 -0.1092 3.7747 -0.3349 1.2474 -0.7171 -0.7527 1.0490 1.2453 -0.9276 -5.3377 0.5266 -0.4592 -1.8262 0.0000 -0.0000 0.0000 -98.6048 -28.1489 -11.2684 8.4982 -14.3572 -1.0723 -0.0000 -0.0000 46.0568 10.5804 20.0736 3.6683 -7.1250 0.0000 -0.0000 -17.5361 49.5457 -2.0211 0.0000 -0.0000 0.0000 92.2971 11.6581 26.6013 -17.0170 26.8802 -4.0950 0.0000 0.0000 6.4405 -18.8314 8.2248 -2.7931 7.1250 -0.0000 -0.0000 5.8082 -21.3150 3.3164
2.9607 27.2236 1.2499 714.0820 108.9330 740.9340 0.0000 0.0000 0.0000 -19.3074 -15.2187 -32.7443 2.9353 10.5896 30.9080 1.2239 -0.1152 -20.8881 0.0027 0.3370 0.9261 0.0000 0.0000 0.0000 8.3610 23.0721 -42.4063 -1.2174 -6.9988 19.7118 2.8599 -30.5126 0.5482 -0.0022 -0.3029 0.8321 -6.3780 -0.8229 -2.4487 0.2420 -0.9339 -0.9050 3.8000 -0.4554 0.5468 -1.1262 -1.4841 2.1941 2.2565 -1.8643 -6.0927 0.9549 -0.9479 -2.2581 0.0000 0.0000 0.0000 -98.5338 -25.4838 -12.7635 8.8542 -14.9278 -1.1623 -0.0000 -0.0000 46.1109 10.6878 20.1524 3.7202 -7.1250 0.0000 -0.0000 -17.4690 49.6376 -2.0534 0.0000 0.0000 0.0000 91.3924 9.4948 26.0827 -16.8804 26.6998 -4.0334 0.0000 0.0000 7.2834 -18.7788 8.5088 -2.8801 7.1250 -0.0000 -0.0000 5.8446 -21.0203 3.3765
3.1731 27.2469 1.2808 714.6370 109.2480 740.5390 0.0000 0.0000 0.0000 -18.8157 -14.3528 -32.4410 3.3318 11.2137 33.0041 1.1888 -1.5473 -20.1579 0.0032 -0.3626 -0.9964 0.0000 0.0000 0.0000 9.1583 23.7390 -40.5393 -1.2720 -7.1481 20.1549 3.1802 -31.5509 -0.6661 -0.0133 -0.7444 2.0457 -6.6566 -0.9179 -3.6143 0.5121 -0.9602 -0.5564 4.2190 -0.5130 1.5730 -1.7013 -1.9782 2.7749 3.2652 -2.4542 -7.4119 1.4252 -1.2563 -2.7794 -0.0000 0.0000 0.0000 -98.2218 -23.6367 -9.9715 9.5816 -16.0825 -1.3567 -0.0000 -0.0000 42.7406 10.9597 18.6132 3.5369 -7.1250 0.0000 -0.0000 -16.5931 48.1938 -1.3418 -0.0000 0.0000 0.0000 90.2280 9.1704 26.1486 -16.6555 26.4014 -3.9329 0.0000 0.0000 7.3617 -17.9095 8.5138 -2.7392 7.1250 -0.0000 -0.0000 6.4717 -21.0635 3.7368
3.3765 27.2494 1.3281 715.5970 110.0230 740.5670 0.0000 0.0000 0.0000 -17.9410 -13.7335 -32.7433 3.9366 12.0756 35.9999 1.0832 -3.1630 -18.8700 0.0430 -1.3378 -3.6788 0.0000 0.0000 0.0000 10.2699 24.1667 -38.9999 -1.3828 -7.4408 21.0279 3.5405 -32.5822 -2.2893 -0.0367 -1.2367 3.4003 -6.3026 -1.0111 -3.7577 0.5170 -1.0931 -0.8064 4.0176 -0.5646 1.4046 -2.0789 -2.6651 2.7990 4.2370 -3.3301 -7.3332 1.8336 -1.7130 -2.7155 0.0000 -0.0000 0.0000 -97.3326 -20.8398 -7.6346 10.5094 -17.5325 -1.6251 -0.0000 -0.0000 40.2544 10.7762 17.5502 3.2847 -7.1250 0.0000 -0.0000 -16.3635 47.1398 -0.8869 0.0000 -0.0000 0.0000 89.6280 7.4635 26.5611 -16.9466 26.7873 -4.0632 0.0000 0.0000 7.1350 -17.1127 9.0313 -2.7669 7.1250 -0.0000 -0.0000 7.0388 -20.5700 4.1479
3.5511 27.2646 1.4011 713.5200 109.7090 737.4490 0.0000 0.0000 0.0000 -18.4149 -12.4169 -33.3647 4.6347 12.9603 39.2199 0.8532 -5.1215 -16.4838 0.0776 -1.7967 -4.9440 0.0000 0.0000 0.0000 10.2270 25.1044 -36.9180 -1.3945 -7.4708 21.1178 3.9915 -33.8318 -4.2870 -0.1462 -2.4642 6.7905 -7.3660 -0.7131 -3.3595 0.0601 -0.6774 -0.9117 4.1673 -0.3403 1.0301 -2.3576 -3.1044 3.6224 5.1622 -3.8555 -7.9211 2.2423 -2.0060 -3.0328 0.0000 0.0000 0.0000 -96.2108 -17.9381 -2.9395 11.7897 -19.4885 -2.0316 -0.0000 -0.0000 34.9856 9.6229 17.9552 2.9920 -7.1250 0.0000 -0.0000 -17.5683 47.3767 -1.0616 0.0000 0.0000 0.0000 89.4151 6.0425 26.4537 -17.2906 27.2393 -4.2195 0.0000 0.0000 6.7188 -17.3395 8.5959 -2.6718 7.1250 -0.0000 -0.0000 6.8816 -21.0089 3.9853
3.7307 27.3017 1.4565 713.2960 109.6610 737.2790 0.0000 0.0000 0.0000 -17.7131 -12.0392 -35.5264 5.5416 13.9689 43.1129 0.5474 -7.2517 -13.3651 0.0794 -1.8176 -5.0019 0.0000 0.0000 0.0000 11.4807 23.9161 -36.2413 -1.3448 -7.3418 20.7321 3.6564 -32.3905 -4.8689 -0.1628 -2.5994 7.1654 -7.1977 -0.5476 -4.1961 -0.4748 -0.3839 -1.3142 3.5280 -0.1754 1.0414 -2.6060 -3.5946 3.7604 6.0291 -4.4554 -8.0421 2.6042 -2.3274 -3.0545 0.0000 -0.0000 0.0000 -94.3754 -14.6452 1.7567 13.5252 -22.0518 -2.6472 -0.0000 -0.0000 28.3548 8.5241 19.2521 2.8292 -7.1250 0.0000 -0.0000 -19.0961 48.4625 -1.6880 0.0000 -0.0000 0.0000 89.6783 4.2162 26.5441 -17.9310 28.0687 -4.5167 0.0000 0.0000 5.4954 -18.3143 8.8785 -2.9244 7.1250 -0.0000 -0.0000 6.1773 -20.6604 3.6213
3.9291 27.3505 1.4912 714.3430 109.0420 737.7870 0.0000 0.0000 0.0000 -16.6500 -11.5392 -36.7332 6.3940 14.7996 46.5433 0.2161 -8.6476 -9.5824 0.0151 -0.7923 -2.1774 0.0000 0.0000 0.0000 14.1978 21.2747 -34.7907 -1.2340 -7.0446 19.8476 2.8662 -28.9067 -5.1747 -0.1682 -2.6421 7.2838 -6.9609 -0.3595 -5.5025 -0.6341 -0.0163 -1.0316 3.2502 -0.0303 2.0243 -3.5830 -3.7557 4.2241 7.1285 -4.5972 -9.1204 3.2167 -2.4115 -3.4707 0.0000 0.0000 0.0000 -93.2638 -12.9374 1.5424 14.4467 -23.3697 -3.0030 -0.0000 -0.0000 25.9031 7.4467 18.6703 2.3960 -7.1250 0.0000 -0.0000 -19.8371 47.7628 -1.4045 0.0000 0.0000 0.0000 89.7249 3.4005 26.6254 -18.4551 28.7359 -4.7660 0.0000 0.0000 5.0724 -18.3360 8.7791 -2.8957 7.1250 -0.0000 -0.0000 6.1622 -20.7629 3.5981
4.0813 27.3754 1.5285 714.0470 107.9400 737.1550 0.0000 0.0000 0.0000 -16.1868 -10.9835 -37.9486 7.0220 15.3504 48.9574 -0.0600 -9.8115 -5.8017 0.0019 -0.2828 -0.7769 0.0000 0.0000 0.0000 15.6223 19.8506 -33.4808 -1.0963 -6.6536 18.6931 2.3577 -26.4453 -4.7927 -0.1347 -2.3654 6.5167 -6.8259 -0.1029 -6.1407 -1.1858 0.3980 -1.0104 2.6363 0.1723 2.3649 -4.6642 -3.6296 4.5004 8.7841 -4.2881 -10.1955 3.6111 -2.3160 -3.4561 -0.0000 0.0000 0.0000 -91.2817 -10.6049 2.8268 15.4401 -24.7556 -3.4081 -0.0000 -0.0000 22.3380 6.5121 19.6515 2.1984 -7.1250 0.0000 -0.0000 -21.1132 48.5529 -1.9298 -0.0000 0.0000 0.0000 90.1656 2.5587 27.1405 -18.9054 29.3009 -4.9845 0.0000 0.0000 4.3743 -18.2476 8.9869 -2.9483 7.1250 -0.0000 -0.0000 6.2246 -20.5511 3.6648
4.2179 27.3994 1.5685 712.5850 106.8910 735.2660 0.0000 0.0000 0.0000 -15.9093 -10.8756 -38.8027 7.7097 15.9016 51.5103 -0.2356 -10.5534 -2.7133 0.0014 -0.2442 -0.6710 0.0000 0.0000 0.0000 16.2542 19.1213 -32.2355 -1.0300 -6.4554 18.1118 2.0734 -24.8317 -5.0711 -0.1167 -2.2021 6.0646 -7.0471 0.0106 -6.3446 -1.7556 0.6094 -1.1196 2.1876 0.2880 2.3504 -5.2203 -3.6587 4.7589 9.6282 -4.2701 -10.5316 3.9746 -2.3301 -3.5650 0.0000 0.0000 0.0000 -89.7632 -7.8105 2.5295 16.4591 -26.1391 -3.8460 -0.0000 -0.0000 19.8887 6.2221 20.4834 2.1849 -7.1250 0.0000 -0.0000 -21.7607 49.2852 -2.4023 0.0000 0.0000 0.0000 90.4083 1.5892 28.7938 -19.0125 29.4342 -5.0370 0.0000 0.0000 4.1624 -17.3280 8.9898 -2.7911 7.1250 -0.0000 -0.0000 6.8848 -20.6010 4.0510
