HIERARCHY
ROOT Hips
{
	OFFSET 0.00000 0.00000 0.00000
	CHANNELS 6 Xposition Yposition Zposition Zrotation Yrotation Xrotation 
	JOINT LHipJoint
	{
		OFFSET 0 0 0
		CHANNELS 3 Zrotation Yrotation Xrotation
		JOINT LeftUpLeg
		{
			OFFSET 1.57338 -1.94743 0.52196
			CHANNELS 3 Zrotation Yrotation Xrotation
			JOINT LeftLeg
			{
				OFFSET 2.60333 -7.15259 0.00000
				CHANNELS 3 Zrotation Yrotation Xrotation
				JOINT LeftFoot
				{
					OFFSET 2.77855 -7.63400 0.00000
					CHANNELS 3 Zrotation Yrotation Xrotation
					JOINT LeftToeBase
					{
						OFFSET 0.19847 -0.54529 2.28466
						CHANNELS 3 Zrotation Yrotation Xrotation
						End Site
						{
							OFFSET 0.00000 -0.00000 1.17993
						}
					}
				}
			}
		}
	}
	JOINT RHipJoint
	{
		OFFSET 0 0 0
		CHANNELS 3 Zrotation Yrotation Xrotation
		JOINT RightUpLeg
		{
			OFFSET -1.61527 -1.94743 0.52196
			CHANNELS 3 Zrotation Yrotation Xrotation
			JOINT RightLeg
			{
				OFFSET -2.53829 -6.97390 0.00000
				CHANNELS 3 Zrotation Yrotation Xrotation
				JOINT RightFoot
				{
					OFFSET -2.80762 -7.71387 0.00000
					CHANNELS 3 Zrotation Yrotation Xrotation
					JOINT RightToeBase
					{
						OFFSET -0.30536 -0.83898 2.28801
						CHANNELS 3 Zrotation Yrotation Xrotation
						End Site
						{
							OFFSET -0.00000 -0.00000 1.21323
						}
					}
				}
			}
		}
	}
	JOINT LowerBack
	{
		OFFSET 0 0 0
		CHANNELS 3 Zrotation Yrotation Xrotation
		JOINT Spine
		{
			OFFSET -0.04381 1.99497 -0.19778
			CHANNELS 3 Zrotation Yrotation Xrotation
			JOINT Spine1
			{
				OFFSET -0.01959 2.01295 -0.04372
				CHANNELS 3 Zrotation Yrotation Xrotation
				JOINT Neck
				{
					OFFSET 0 0 0
					CHANNELS 3 Zrotation Yrotation Xrotation
					JOINT Neck1
					{
						OFFSET -0.05459 1.76913 0.09708
						CHANNELS 3 Zrotation Yrotation Xrotation
						JOINT Head
						{
							OFFSET 0.09461 1.77368 -0.11172
							CHANNELS 3 Zrotation Yrotation Xrotation
							End Site
							{
								OFFSET 0.03812 1.78157 -0.04834
							}
						}
					}
				}
				JOINT LeftShoulder
				{
					OFFSET 0 0 0
					CHANNELS 3 Zrotation Yrotation Xrotation
					JOINT LeftArm
					{
						OFFSET 3.50922 1.24034 -0.28866
						CHANNELS 3 Zrotation Yrotation Xrotation
						JOINT LeftForeArm
						{
							OFFSET 5.40188 -0.00000 0.00000
							CHANNELS 3 Zrotation Yrotation Xrotation
							JOINT LeftHand
							{
								OFFSET 3.68559 -0.00000 0.00000
								CHANNELS 3 Zrotation Yrotation Xrotation
								JOINT LeftFingerBase
								{
									OFFSET 0 0 0
									CHANNELS 3 Zrotation Yrotation Xrotation
									JOINT LeftHandIndex1
									{
										OFFSET 0.61753 -0.00000 0.00000
										CHANNELS 3 Zrotation Yrotation Xrotation
										End Site
										{
											OFFSET 0.49787 -0.00000 0.00000
										}
									}
								}
								JOINT LThumb
								{
									OFFSET 0 0 0
									CHANNELS 3 Zrotation Yrotation Xrotation
									End Site
									{
										OFFSET 0.50547 -0.00000 0.50547
									}
								}
							}
						}
					}
				}
				JOINT RightShoulder
				{
					OFFSET 0 0 0
					CHANNELS 3 Zrotation Yrotation Xrotation
					JOINT RightArm
					{
						OFFSET -2.95373 1.39649 -0.27346
						CHANNELS 3 Zrotation Yrotation Xrotation
						JOINT RightForeArm
						{
							OFFSET -6.10670 -0.00000 -0.00000
							CHANNELS 3 Zrotation Yrotation Xrotation
							JOINT RightHand
							{
								OFFSET -3.63052 -0.00000 0.00000
								CHANNELS 3 Zrotation Yrotation Xrotation
								JOINT RightFingerBase
								{
									OFFSET 0 0 0
									CHANNELS 3 Zrotation Yrotation Xrotation
									JOINT RightHandIndex1
									{
										OFFSET -0.58385 -0.00000 0.00000
										CHANNELS 3 Zrotation Yrotation Xrotation
										End Site
										{
											OFFSET -0.47071 -0.00000 0.00000
										}
									}
								}
								JOINT RThumb
								{
									OFFSET 0 0 0
									CHANNELS 3 Zrotation Yrotation Xrotation
									End Site
									{
										OFFSET -0.47790 -0.00000 0.47790
									}
								}
							}
						}
					}
				}
			}
		}
	}
}
MOTION
Frames: 31
Frame Time: 0.0333333

7.6355 18.7436 8.0529 0 0 0 0 0 0 -21 0 0 0 0 0 0 0 0 0 0 0 0 0 0 21 0 0 0 0 0 0 0 0 0 0 0 0 0 0 0 0 0 0 0 0 0 0 -16 0 0 21 0 0 11 0 0 0 -8 0 0 0 0 0 0 0 0 0 0 0 0 0 0 0 0 0 0 0 0 8 0 0 0 0 0 0 0 0 0 0 0 0 0 0 0 0 0
4.7555 18.7931 4.9133 177.5180 -47.5402 -178.8710 0.0000 0.0000 0.0000 -10.2790 -1.0144 -51.7327 23.5265 19.6992 100.3608 0.3174 -5.5096 -10.1607 0.5438 -4.7245 -13.1245 0.0000 0.0000 0.0000 26.0257 23.4634 -0.2364 -1.5934 -7.9622 22.5992 -0.3286 3.5537 -10.1908 -0.2850 -3.4331 9.4869 0.8964 -0.0726 11.1017 0.5422 -0.1064 2.3726 0.0775 -0.1179 -3.7463 -7.1372 -5.4979 -9.5534 9.9218 -9.3938 21.0475 3.4949 -4.3244 8.9490 0.0000 -0.0000 0.0000 -79.7778 -11.4044 23.5789 22.8720 -33.9485 -7.0667 -0.0000 0.0000 -19.9498 21.0209 23.6029 8.7472 -7.1250 0.0000 -0.0000 -8.7588 54.8506 -2.1313 0.0000 -0.0000 0.0000 58.5549 32.5174 -11.1900 -96.1403 59.8571 -65.3151 0.0000 0.0000 12.4201 -35.0882 -8.5280 5.9474 7.1250 -0.0000 -0.0000 -7.2259 -40.2615 -0.8492
4.6822 18.8245 4.8665 176.6970 -45.0364 -178.5100 0.0000 0.0000 0.0000 -11.2903 -1.4281 -56.4440 24.3753 19.5347 102.8885 0.3574 -7.7256 -11.1770 0.5383 -4.7011 -13.0579 0.0000 0.0000 0.0000 25.6379 24.1200 0.7718 -1.5339 -7.8190 22.1657 -0.2777 4.3974 -9.4113 -0.3566 -3.8364 10.6169 0.7720 0.2871 11.5456 0.3876 0.3359 2.5429 -0.0763 0.0945 -3.8106 -6.9216 -5.1499 -9.3284 9.8829 -8.8973 20.6997 3.5090 -4.0901 8.7272 0.0000 -0.0000 0.0000 -78.8143 -13.6167 25.2403 24.1720 -35.3456 -7.8058 -0.0000 0.0000 -21.2127 21.3568 23.7066 8.9346 -7.1250 0.0000 -0.0000 -8.4526 55.0240 -2.0917 0.0000 -0.0000 0.0000 60.0837 33.7000 -9.1192 -97.0202 59.8130 -66.0758 0.0000 0.0000 14.9329 -36.1730 -7.6426 5.5540 7.1250 -0.0000 -0.0000 -8.1431 -39.2930 -1.1541
4.5920 18.8731 4.8155 176.2290 -42.6522 -178.3400 0.0000 0.0000 0.0000 -12.2418 -1.7692 -60.5622 24.9009 19.4141 104.4648 0.3432 -10.5579 -11.9476 0.0850 -1.8811 -5.1771 0.0000 0.0000 0.0000 25.3588 24.5733 1.5652 -1.4908 -7.7135 21.8471 -0.2198 4.9371 -8.5090 -0.7391 -5.4922 15.3178 0.7618 0.5571 11.6991 0.4427 0.6761 2.7502 -0.0628 0.2559 -3.6771 -6.7808 -4.7689 -9.5753 9.4729 -8.2726 20.7851 3.4145 -3.8109 8.7174 0.0000 -0.0000 0.0000 -77.8287 -16.1637 27.0049 25.4654 -36.6759 -8.5663 -0.0000 0.0000 -22.7945 22.7764 26.1653 10.4895 -7.1250 0.0000 -0.0000 -8.0098 57.8517 -2.5303 0.0000 -0.0000 0.0000 61.3599 34.8395 -7.0682 -97.6306 59.7788 -66.6034 0.0000 0.0000 16.1430 -36.3286 -8.7573 6.3880 7.1250 -0.0000 -0.0000 -8.3428 -40.6647 -0.8990
4.5064 18.9211 4.7519 175.5620 -40.8533 -178.2060 0.0000 0.0000 0.0000 -14.0323 -2.2050 -64.0650 24.9570 19.4004 104.6339 0.4509 -11.4382 -13.4480 0.3048 -3.5497 -9.8130 0.0000 0.0000 0.0000 25.1210 24.7607 2.6590 -1.4310 -7.5638 21.3968 -0.1988 4.8139 -8.1129 -0.7961 -5.6952 15.9025 0.3173 0.5345 11.9135 0.5081 0.5720 2.9993 0.2710 0.1982 -3.5411 -6.3510 -4.3621 -9.6773 8.7760 -7.5746 20.6487 3.1829 -3.5061 8.5807 -0.0000 0.0000 0.0000 -76.6333 -18.8276 27.1643 26.1179 -37.3249 -8.9591 -0.0000 0.0000 -23.5755 22.9718 24.7676 10.0699 -7.1250 0.0000 -0.0000 -7.1862 56.4518 -2.0251 -0.0000 0.0000 0.0000 62.3798 35.9160 -4.7345 -97.7123 59.7741 -66.6740 0.0000 0.0000 16.3911 -36.4380 -9.3114 6.8120 7.1250 -0.0000 -0.0000 -8.4703 -41.3503 -0.7687
4.4186 18.9481 4.7179 175.0450 -38.9119 -178.1610 0.0000 0.0000 0.0000 -15.4252 -2.9292 -66.8669 24.8443 19.4278 104.2947 0.3181 -14.0247 -13.2588 0.2715 -3.3516 -9.2592 0.0000 0.0000 0.0000 24.6625 24.6229 3.0237 -1.4427 -7.5933 21.4854 -0.1536 5.6641 -7.4899 -0.6865 -5.2973 14.7585 0.5919 0.5677 12.4243 0.2899 0.6186 3.1808 -0.1203 0.2090 -3.6255 -5.8808 -4.0638 -9.8697 8.3652 -7.0942 20.4292 3.0143 -3.2721 8.4690 -0.0000 0.0000 0.0000 -74.8143 -21.6214 27.9665 27.2293 -38.3970 -9.6412 -0.0000 0.0000 -25.4889 19.0188 22.9599 7.6581 -7.1250 0.0000 -0.0000 -10.5446 53.8094 -2.3036 -0.0000 0.0000 0.0000 63.6104 37.1057 -2.6315 -96.6541 59.8320 -65.7594 0.0000 0.0000 17.4725 -35.9618 -10.2573 7.3615 7.1250 -0.0000 -0.0000 -8.0793 -42.4409 -0.5138
4.3211 18.9895 4.6645 174.5890 -36.9476 -178.1560 0.0000 0.0000 0.0000 -16.9299 -3.4520 -68.9865 24.4018 19.5290 102.9679 0.2003 -15.9781 -13.2041 0.4414 -4.2628 -11.8172 0.0000 0.0000 0.0000 24.1582 24.4919 3.5493 -1.4171 -7.5285 21.2909 -0.0820 6.6554 -6.4923 -0.6802 -5.2735 14.6902 0.4974 0.6319 12.9225 0.2726 0.6806 3.1959 -0.0982 0.2335 -3.8827 -6.2437 -3.6936 -9.8706 8.6880 -6.5863 20.4078 3.2418 -3.0347 8.4426 -0.0000 0.0000 0.0000 -73.1970 -24.1742 28.2710 28.2114 -39.3101 -10.2573 -0.0000 0.0000 -25.8096 20.7345 24.1595 8.8071 -7.1250 0.0000 -0.0000 -9.2876 55.3631 -2.3777 -0.0000 0.0000 0.0000 64.1140 37.7278 -0.6148 -95.2758 59.8946 -64.5674 0.0000 0.0000 17.4119 -38.6476 -11.7314 9.2348 7.1250 -0.0000 -0.0000 -10.6721 -44.6021 -0.1061
4.2265 19.0308 4.6215 173.5420 -35.1904 -177.7650 0.0000 0.0000 0.0000 -18.9383 -4.1421 -70.0638 23.6753 19.6730 100.8025 0.0088 -17.8469 -12.6296 0.4788 -4.4376 -12.3113 0.0000 0.0000 0.0000 23.0038 24.4837 3.7467 -1.4421 -7.5918 21.4810 -0.0117 7.7154 -5.6560 -0.6960 -5.3331 14.8611 0.0716 0.6588 13.4150 -0.0729 0.6222 3.3156 -0.2122 0.1977 -4.0276 -6.1436 -3.5464 -10.0261 8.7664 -6.3730 20.1629 3.2708 -2.9137 8.3705 -0.0000 0.0000 0.0000 -70.9686 -27.1659 28.8960 29.4850 -40.4479 -11.0740 -0.0000 0.0000 -27.2287 23.1277 25.4509 10.4005 -7.1250 0.0000 -0.0000 -7.3084 57.1928 -2.1908 -0.0000 0.0000 0.0000 64.7847 38.2407 1.1774 -95.7868 59.8731 -65.0094 0.0000 0.0000 17.4728 -38.0577 -11.2789 8.7058 7.1250 -0.0000 -0.0000 -10.0808 -43.9596 -0.2616
4.1288 19.0654 4.5652 173.8120 -33.5913 -178.2610 0.0000 0.0000 0.0000 -19.4448 -4.3791 -70.3968 22.9567 19.7891 98.6742 -0.0909 -18.3430 -12.0602 0.2852 -3.4348 -9.4916 0.0000 0.0000 0.0000 23.1993 24.3962 4.3414 -1.4195 -7.5347 21.3093 0.0521 8.1981 -4.6104 -0.7432 -5.5072 15.3609 0.2579 0.6123 13.6341 0.1670 0.5723 3.5055 -0.0586 0.1615 -3.9482 -6.2187 -3.4450 -9.7965 8.3892 -6.1094 19.9013 3.1862 -2.8334 8.2087 0.0000 -0.0000 0.0000 -69.1777 -30.1864 28.7979 30.5708 -41.3777 -11.7852 -0.0000 0.0000 -27.7672 23.3023 25.9922 10.6894 -7.1250 0.0000 -0.0000 -7.3582 57.7906 -2.3121 0.0000 -0.0000 0.0000 64.8457 38.4159 2.7301 -96.6363 59.8329 -65.7440 0.0000 0.0000 17.9196 -35.7665 -10.8602 7.7290 7.1250 -0.0000 -0.0000 -7.9202 -43.1431 -0.3654
4.0207 19.0891 4.4974 173.5570 -31.9845 -178.1900 0.0000 0.0000 0.0000 -20.3715 -4.6377 -69.8847 22.1433 19.8895 96.2777 -0.0565 -17.5875 -11.8233 0.0691 -1.6962 -4.6669 0.0000 0.0000 0.0000 22.8342 24.4519 4.5518 -1.4447 -7.5983 21.5005 0.1027 8.9301 -4.0933 -0.5972 -4.9471 13.7578 0.2354 0.5045 13.6016 0.0432 0.4169 3.4995 -0.1490 0.0832 -3.9364 -6.2262 -3.1723 -9.8776 8.3807 -5.7607 20.1154 3.2223 -2.6748 8.2655 0.0000 0.0000 0.0000 -66.9522 -33.0823 28.2471 31.1329 -41.8449 -12.1584 -0.0000 0.0000 -27.6338 24.6508 25.9208 11.3431 -7.1250 0.0000 -0.0000 -5.8492 58.0202 -1.8678 0.0000 0.0000 0.0000 65.3478 38.2928 3.7628 -96.7085 59.8293 -65.8064 0.0000 0.0000 18.0757 -33.3190 -8.8923 5.8020 7.1250 -0.0000 -0.0000 -5.6601 -40.5212 -0.6274
3.9129 19.0879 4.4094 173.9760 -30.3976 -178.7460 0.0000 0.0000 0.0000 -20.4144 -4.4828 -68.6495 21.3782 19.9544 94.0327 -0.1646 -17.1882 -10.4187 0.0604 -1.5856 -4.3618 0.0000 0.0000 0.0000 23.2455 24.4776 5.4601 -1.4215 -7.5398 21.3249 0.1610 9.5280 -3.3033 -0.6856 -5.2939 14.7488 0.4730 0.4561 13.6633 0.2104 0.3778 3.5936 -0.1015 0.0561 -3.8705 -6.1477 -2.9604 -9.9651 7.9834 -5.4262 20.3940 3.1115 -2.5500 8.3341 0.0000 -0.0000 0.0000 -64.9547 -36.0198 27.4031 31.8849 -42.4552 -12.6630 -0.0000 0.0000 -26.6923 19.8266 25.2820 8.7537 -7.1250 0.0000 -0.0000 -10.7414 56.3164 -3.0052 0.0000 -0.0000 0.0000 65.4136 38.0740 5.1215 -94.8077 59.9125 -64.1624 0.0000 0.0000 18.3856 -32.3053 -9.6187 6.0310 7.1250 -0.0000 -0.0000 -4.7533 -41.2715 -0.4382
3.7974 19.1112 4.3326 174.1040 -28.9704 -178.7290 0.0000 0.0000 0.0000 -20.5826 -4.8369 -67.2029 20.7124 19.9878 92.0832 -0.3298 -16.3006 -7.7054 0.2532 3.2377 8.9412 0.0000 0.0000 0.0000 22.9479 24.2643 5.5909 -1.3823 -7.4394 21.0239 0.2585 10.5668 -2.0909 -0.6777 -5.2640 14.6630 0.5334 0.3355 13.4593 0.2898 0.2269 3.5969 -0.0272 -0.0192 -3.7568 -6.0827 -2.7713 -10.2075 7.7000 -5.0654 20.2630 3.0401 -2.3887 8.2975 0.0000 -0.0000 0.0000 -63.0370 -38.6168 27.1133 33.5824 -43.7730 -13.8234 -0.0000 0.0000 -28.3352 17.3543 23.9923 7.2417 -7.1250 0.0000 -0.0000 -12.6829 54.5298 -3.0059 0.0000 -0.0000 0.0000 65.1514 37.7895 7.6723 -93.0630 59.9645 -62.6523 0.0000 0.0000 16.1686 -33.8274 -10.8393 7.1826 7.1250 -0.0000 -0.0000 -6.1304 -42.8766 -0.3225
3.6959 19.1173 4.2566 174.3880 -27.4360 -178.6190 0.0000 0.0000 0.0000 -20.6293 -4.8413 -66.4794 20.7404 19.9869 92.1652 0.1219 -14.6060 -11.5922 0.2053 2.9174 8.0488 0.0000 0.0000 0.0000 22.8692 24.6538 5.3782 -1.4132 -7.5187 21.2613 0.3514 11.6629 -1.2748 -0.5868 -4.9048 13.6372 0.3250 0.2747 13.2502 0.4136 0.1191 3.6159 0.2375 -0.0729 -3.6249 -5.7530 -2.5771 -10.4351 7.5050 -4.7038 19.6602 2.9508 -2.1913 8.0986 0.0000 0.0000 0.0000 -60.9696 -41.3628 25.9175 35.2241 -44.9715 -14.9715 -0.0000 0.0000 -28.9614 17.1532 24.1282 7.1912 -7.1250 0.0000 -0.0000 -12.9503 54.6263 -3.1016 0.0000 0.0000 0.0000 64.9234 38.0173 9.5989 -93.4559 59.9548 -62.9924 0.0000 0.0000 15.1445 -34.3475 -9.9163 6.7119 7.1250 -0.0000 -0.0000 -6.5974 -41.8434 -0.5162
3.5969 19.1288 4.1930 174.8640 -26.4945 -178.7330 0.0000 0.0000 0.0000 -20.4486 -5.1536 -66.3176 21.0805 19.9720 93.1607 0.3670 -13.1401 -13.3129 0.2157 2.9900 8.2509 0.0000 0.0000 0.0000 22.9794 24.5670 5.4061 -1.4103 -7.5112 21.2390 0.4347 12.5398 -0.5018 -0.4253 -4.1853 11.5987 0.5641 0.0415 13.5974 0.4633 -0.1616 3.5822 0.2017 -0.2170 -3.8483 -5.7458 -2.4615 -10.7552 7.8693 -4.5138 19.0443 3.0848 -2.0479 7.9470 0.0000 0.0000 0.0000 -58.8173 -44.1186 24.6898 37.0999 -46.2547 -16.3122 -0.0000 0.0000 -29.7966 16.5082 24.1844 6.9227 -7.1250 0.0000 -0.0000 -13.6296 54.5581 -3.2459 0.0000 0.0000 0.0000 65.0660 38.2598 10.2439 -94.6521 59.9181 -64.0277 0.0000 0.0000 14.1977 -32.0858 -8.1043 5.0509 7.1250 -0.0000 -0.0000 -4.5668 -39.4810 -0.6227
3.5125 19.1505 4.1327 175.1410 -25.5643 -178.6730 0.0000 0.0000 0.0000 -20.3211 -5.3596 -66.5920 21.2442 19.9628 93.6399 0.4660 -11.8755 -13.7652 0.3922 4.0210 11.1359 0.0000 0.0000 0.0000 22.8938 24.8373 5.2505 -1.4200 -7.5359 21.3130 0.5098 13.1470 0.6018 -0.4601 -4.3511 12.0666 0.2437 -0.0459 13.8148 0.5247 -0.3358 3.6799 0.4773 -0.3091 -3.8626 -5.6162 -2.4105 -11.1538 8.0417 -4.3939 18.4701 3.1258 -1.9440 7.8226 -0.0000 0.0000 0.0000 -56.5553 -47.4309 23.2014 38.2811 -47.0179 -17.1709 -0.0000 0.0000 -31.1027 14.9360 23.3867 6.0441 -7.1250 0.0000 -0.0000 -14.8232 53.4799 -3.1454 -0.0000 0.0000 0.0000 65.2227 38.4921 10.8069 -95.0114 59.9049 -64.3386 0.0000 0.0000 12.2634 -31.5931 -6.2633 3.8387 7.1250 -0.0000 -0.0000 -4.1348 -37.2935 -0.7858
3.4272 19.1875 4.0690 175.1770 -24.4120 -178.7420 0.0000 0.0000 0.0000 -20.2471 -5.0594 -66.5798 21.4483 19.9496 94.2380 0.5214 -10.5076 -13.8510 0.2769 3.3848 9.3519 0.0000 0.0000 0.0000 22.7283 25.3100 5.6820 -1.3964 -7.4757 21.1327 0.5464 13.2259 2.0930 -0.6756 -5.2557 14.6393 -0.2502 0.1100 14.3990 0.4269 -0.2209 3.7036 0.6389 -0.2564 -4.1550 -5.7975 -2.4664 -11.3961 8.6974 -4.5324 18.1937 3.3568 -1.9576 7.8052 -0.0000 -0.0000 0.0000 -55.1597 -51.0873 22.2755 38.9363 -47.4269 -17.6518 -0.0000 0.0000 -32.4876 15.2764 23.1899 6.1387 -7.1250 0.0000 -0.0000 -14.3937 53.3486 -3.0045 -0.0000 -0.0000 0.0000 65.9902 37.8062 11.2672 -96.2353 59.8526 -65.3972 0.0000 0.0000 11.1833 -31.6127 -5.7720 3.5422 7.1250 -0.0000 -0.0000 -4.1472 -36.7215 -0.8463
3.3259 19.2341 3.9935 175.3500 -23.2119 -178.5400 0.0000 0.0000 0.0000 -19.7889 -4.5602 -66.6019 21.5520 19.9421 94.5420 0.5021 -10.6910 -13.7111 0.1297 2.3214 6.3947 0.0000 0.0000 0.0000 22.4830 25.4664 5.4891 -1.3807 -7.4352 21.0114 0.6608 14.3182 3.5465 -0.5794 -4.8742 13.5501 -0.4156 0.1363 14.4701 0.2381 -0.2197 3.6535 0.5349 -0.2543 -4.2468 -5.8957 -2.4695 -11.7067 8.7637 -4.5253 18.3058 3.3958 -1.9459 7.9016 0.0000 -0.0000 0.0000 -53.5218 -54.2669 20.8213 39.5221 -47.7842 -18.0845 -0.0000 0.0000 -34.3202 15.2646 23.5745 6.2289 -7.1250 0.0000 -0.0000 -14.5856 53.7242 -3.1812 0.0000 -0.0000 0.0000 66.7928 37.2706 12.1035 -97.2445 59.8008 -66.2697 0.0000 0.0000 9.7971 -31.6595 -4.7761 2.9391 7.1250 -0.0000 -0.0000 -4.1724 -35.5605 -0.9698
3.2354 19.2922 3.9235 174.8590 -22.0866 -178.1000 0.0000 0.0000 0.0000 -20.0154 -4.1375 -66.2154 21.4312 19.9508 94.1880 0.4943 -11.6758 -13.9725 0.0307 1.1317 3.1114 0.0000 0.0000 0.0000 21.8466 26.5369 5.6383 -1.3893 -7.4575 21.0782 0.7089 14.7454 4.4901 -0.4663 -4.3800 12.1484 -1.3225 0.2210 14.7848 -0.0200 -0.2712 3.6551 0.7885 -0.2773 -4.4140 -5.9536 -2.3806 -12.0369 8.4025 -4.2333 18.0472 3.3121 -1.8215 7.8463 -0.0000 -0.0000 0.0000 -51.7932 -57.0912 18.9956 40.3128 -48.2541 -18.6723 -0.0000 0.0000 -36.7159 15.6235 23.9888 6.4863 -7.1250 0.0000 -0.0000 -14.4255 54.1977 -3.3134 -0.0000 -0.0000 0.0000 67.3689 36.9304 12.6979 -98.1354 59.7484 -67.0395 0.0000 0.0000 8.8308 -31.4703 -4.1365 2.5281 7.1250 -0.0000 -0.0000 -4.0025 -34.8045 -1.0040
3.1291 19.3436 3.8586 174.2790 -20.8868 -177.5330 0.0000 0.0000 0.0000 -20.8145 -3.3925 -65.4790 21.2081 19.9650 93.5343 0.5890 -12.4941 -15.1701 0.0347 1.2025 3.3062 0.0000 0.0000 0.0000 21.0250 27.9388 5.6969 -1.4292 -7.5593 21.3834 0.6817 14.4419 5.6618 -0.4983 -4.5254 12.5597 -1.7559 0.1823 15.1229 -0.5922 -0.4424 3.6311 0.4665 -0.3640 -4.6210 -5.7907 -2.1203 -12.3179 7.9823 -3.7181 17.5838 3.1939 -1.5811 7.6936 0.0000 0.0000 0.0000 -49.4889 -59.2946 16.7375 41.7632 -49.0805 -19.7615 -0.0000 0.0000 -39.2288 14.2981 24.1487 5.9524 -7.1250 0.0000 -0.0000 -15.8280 54.1058 -3.6117 0.0000 0.0000 0.0000 68.3255 36.9365 13.3796 -98.5694 59.7207 -67.4144 0.0000 0.0000 7.9269 -31.4942 -2.3904 1.4637 7.1250 -0.0000 -0.0000 -3.9768 -32.7648 -1.1944
2.9971 19.3991 3.7971 174.2890 -19.5606 -177.1380 0.0000 0.0000 0.0000 -21.7922 -1.9031 -65.1072 20.9608 19.9779 92.8102 0.7966 -12.4612 -16.9875 0.0545 1.5059 4.1419 0.0000 0.0000 0.0000 20.5910 29.1739 5.5391 -1.4696 -7.6607 21.6883 0.6659 14.3492 6.8973 -0.5374 -4.6970 13.0463 -1.5068 0.1229 15.0131 -0.8844 -0.5239 3.8615 0.0326 -0.4232 -4.3219 -5.8046 -1.8750 -12.7394 7.4628 -3.1592 17.1232 3.0776 -1.3332 7.5686 0.0000 -0.0000 0.0000 -46.7295 -61.2850 13.8133 43.4113 -49.9660 -21.0152 -0.0000 0.0000 -42.3547 13.0635 24.4828 5.4927 -7.1250 0.0000 -0.0000 -17.2260 54.1985 -3.9844 0.0000 -0.0000 0.0000 68.9005 36.8096 14.2826 -100.5089 59.5786 -69.0881 0.0000 0.0000 7.4466 -32.2749 -2.2846 1.4422 7.1250 -0.0000 -0.0000 -4.6058 -32.6578 -1.3962
2.8586 19.4653 3.7435 174.4030 -18.4116 -176.7340 0.0000 0.0000 0.0000 -22.8696 -0.5075 -65.1898 20.7504 19.9865 92.1946 1.0164 -11.6335 -18.5858 0.0387 1.2704 3.4932 0.0000 0.0000 0.0000 20.0022 29.8790 5.2325 -1.4457 -7.6010 21.5084 0.6661 14.6210 8.8241 -0.4827 -4.4554 12.3616 -1.1518 -0.0069 15.2884 -1.0703 -0.6935 4.0911 -0.3302 -0.5271 -4.2326 -5.6824 -1.6728 -13.5261 6.7723 -2.6254 16.5758 2.8791 -1.0915 7.4819 -0.0000 0.0000 0.0000 -43.8358 -62.9009 10.9400 45.4335 -50.9791 -22.5751 -0.0000 0.0000 -44.2859 12.9292 24.8734 5.5153 -7.1250 0.0000 -0.0000 -17.5676 54.5482 -4.2190 -0.0000 0.0000 0.0000 69.1687 36.6859 15.0933 -102.7610 59.3757 -71.0282 0.0000 0.0000 6.9552 -32.6900 -2.0662 1.3254 7.1250 -0.0000 -0.0000 -4.9321 -32.4082 -1.5255
2.7074 19.5242 3.6902 174.5720 -17.7430 -176.3910 0.0000 0.0000 0.0000 -23.4573 0.0339 -65.2380 20.6816 19.9889 91.9932 1.0787 -11.2521 -19.0048 0.0599 1.5798 4.3456 0.0000 0.0000 0.0000 19.5507 30.6055 5.1104 -1.4290 -7.5587 21.3816 0.5897 14.3630 10.7197 -0.4904 -4.4900 12.4593 -0.6832 -0.3007 15.7848 -1.1249 -1.0405 4.1410 -0.5818 -0.7091 -4.4548 -5.5559 -1.3018 -13.7066 6.2541 -1.9579 15.9695 2.7512 -0.7918 7.2655 -0.0000 0.0000 0.0000 -41.9633 -64.3429 8.4851 47.7045 -52.0266 -24.3526 -0.0000 0.0000 -46.2264 10.9873 25.9567 4.8572 -7.1250 0.0000 -0.0000 -20.1124 55.2040 -5.1929 -0.0000 0.0000 0.0000 69.3365 36.0443 15.8312 -105.4526 59.0782 -73.3409 0.0000 0.0000 6.5867 -33.0494 -1.8355 1.1938 7.1250 -0.0000 -0.0000 -5.2107 -32.1409 -1.6459
2.5686 19.5797 3.6475 174.5610 -17.4541 -176.0970 0.0000 0.0000 0.0000 -23.7029 0.0514 -65.0890 20.6348 19.9903 91.8563 0.9719 -11.8620 -18.2787 0.0844 1.8736 5.1566 0.0000 0.0000 0.0000 19.1205 31.3010 4.8678 -1.4655 -7.6506 21.6577 0.4834 13.8544 12.1286 -0.5689 -4.8307 13.4263 -0.5087 -0.6096 16.6742 -1.1817 -1.4656 4.1838 -0.6421 -0.9312 -4.8953 -5.4978 -1.0976 -14.1133 6.1912 -1.6455 15.9591 2.7542 -0.6331 7.3127 -0.0000 -0.0000 0.0000 -40.1355 -65.7123 6.4991 50.4105 -53.1597 -26.5023 -0.0000 0.0000 -47.5944 9.4714 26.8311 4.3063 -7.1250 0.0000 -0.0000 -22.1573 55.7216 -6.0427 -0.0000 -0.0000 0.0000 69.4578 35.3920 16.2397 -107.9903 58.7411 -75.5142 0.0000 0.0000 6.4898 -33.5256 -1.5719 1.0412 7.1250 -0.0000 -0.0000 -5.5790 -31.8338 -1.8046
2.4061 19.6646 3.5703 174.0810 -16.8819 -176.0210 0.0000 0.0000 0.0000 -24.7576 0.6790 -64.2453 20.4030 19.9961 91.1782 0.9783 -11.8983 -18.3392 0.0314 1.1435 3.1438 0.0000 0.0000 0.0000 18.4819 31.4275 5.3430 -1.4522 -7.6173 21.5576 0.3487 13.0980 13.3179 -0.6530 -5.1690 14.3911 -0.8211 -0.7650 17.6464 -1.3775 -1.7801 4.1163 -0.5847 -1.0914 -5.4891 -5.5111 -0.9695 -13.7324 6.3366 -1.5391 16.0614 2.8149 -0.5844 7.2727 -0.0000 0.0000 0.0000 -40.0601 -66.6790 6.2515 53.6847 -54.3776 -29.1438 -0.0000 0.0000 -48.0763 9.1696 28.6716 4.4286 -7.1250 0.0000 -0.0000 -23.7159 57.3457 -7.4527 -0.0000 0.0000 0.0000 69.7511 34.6634 17.0079 -109.8519 58.4572 -77.1032 0.0000 0.0000 6.1112 -33.8522 -2.3697 1.5886 7.1250 -0.0000 -0.0000 -5.8882 -32.7933 -1.7687
2.2439 19.7329 3.4889 173.5750 -15.6528 -174.7640 0.0000 0.0000 0.0000 -26.1798 1.5438 -64.8704 20.1423 19.9995 90.4161 1.0837 -11.3579 -19.0645 0.0024 0.3178 0.8731 0.0000 0.0000 0.0000 17.2936 33.1392 4.3962 -1.5626 -7.8885 22.3759 0.2620 12.1456 13.1110 -0.6036 -4.9730 13.8317 -1.5886 -0.7017 17.2562 -1.4527 -1.8044 3.8524 -0.2303 -1.0801 -5.5429 -5.7306 -0.9015 -13.6230 6.3870 -1.4443 16.3345 2.8804 -0.5569 7.3373 0.0000 0.0000 0.0000 -40.5735 -67.4599 5.6262 56.8044 -55.3965 -31.6961 -0.0000 0.0000 -50.6227 11.8856 32.7210 6.4906 -7.1250 0.0000 -0.0000 -24.2222 61.6285 -10.1308 0.0000 0.0000 0.0000 69.9214 33.4993 17.6651 -111.5610 58.1685 -78.5575 0.0000 0.0000 6.0373 -34.5866 -1.8536 1.2777 7.1250 -0.0000 -0.0000 -6.4491 -32.1871 -2.0338
2.0873 19.8055 3.3889 173.3530 -15.5207 -174.0320 0.0000 0.0000 0.0000 -27.4429 1.7986 -64.3791 19.6740 19.9975 89.0467 1.3156 -10.8113 -20.7521 0.0015 0.2500 0.6868 0.0000 0.0000 0.0000 17.0418 34.1266 4.6064 -1.5841 -7.9400 22.5321 0.0729 10.1749 13.2516 -0.4554 -4.3293 12.0049 -1.8782 -0.9725 17.3951 -1.4769 -2.2125 3.7152 0.0018 -1.2690 -5.7527 -5.7343 -0.7576 -13.9531 6.2352 -1.2480 16.9465 2.8599 -0.4807 7.5816 -0.0000 0.0000 0.0000 -42.4309 -67.7180 5.3940 61.2364 -56.6305 -35.3718 -0.0000 0.0000 -58.5330 15.0521 36.3450 9.0555 -7.1250 0.0000 -0.0000 -24.5424 65.7056 -12.6082 -0.0000 0.0000 0.0000 69.4492 32.6938 17.9470 -112.3879 58.0187 -79.2595 0.0000 0.0000 5.8017 -35.4617 -1.5777 1.1235 7.1250 -0.0000 -0.0000 -7.1315 -31.8649 -2.3075
1.9072 19.9312 3.3144 173.4200 -14.8660 -173.6380 0.0000 0.0000 0.0000 -28.7444 2.5044 -63.1940 18.8807 19.9699 86.7257 1.5992 -10.0590 -22.7204 0.0069 -0.5367 -1.4748 0.0000 0.0000 0.0000 16.3175 34.0904 3.7153 -1.5635 -7.8906 22.3823 -0.2642 8.3541 16.1041 -0.4056 -4.0885 11.3259 -2.1782 -1.3609 18.0178 -1.2349 -2.7938 3.6591 0.5795 -1.5450 -6.1151 -6.2808 -0.4645 -13.6660 6.0087 -0.6781 16.7305 2.9307 -0.2651 7.4236 -0.0000 -0.0000 0.0000 -43.8424 -66.3959 4.7200 69.0630 -58.2771 -41.9729 -0.0000 0.0000 -58.1909 21.8444 41.8213 14.9655 -7.1250 0.0000 -0.0000 -24.5774 72.6452 -16.4006 -0.0000 -0.0000 0.0000 68.5397 32.1806 19.0560 -112.5767 57.9836 -79.4196 0.0000 0.0000 5.4506 -36.3061 -0.7668 0.5633 7.1250 -0.0000 -0.0000 -7.7344 -30.8781 -2.6905
1.7472 20.0864 3.2434 173.4270 -13.6472 -172.8200 0.0000 0.0000 0.0000 -29.5453 2.7702 -62.2305 18.0917 19.9125 84.4126 1.6961 -11.3046 -23.4985 0.0465 1.3918 3.8276 0.0000 0.0000 0.0000 14.8656 34.8735 1.3189 -1.6685 -8.1384 23.1351 -0.9022 5.3453 20.6466 -0.5227 -4.6333 12.8655 -3.0268 -1.4208 18.4399 -1.1739 -3.0650 3.6355 1.2035 -1.6656 -6.3156 -6.3760 -0.2860 -13.8132 5.7317 -0.3048 16.3087 2.8884 -0.1018 7.2880 0.0000 -0.0000 0.0000 -45.3414 -65.0779 5.7786 77.7573 -59.4260 -49.4180 -0.0000 0.0000 -51.7460 26.5800 44.9799 19.4766 -7.1250 0.0000 -0.0000 -25.4829 77.0541 -19.3575 0.0000 -0.0000 0.0000 67.9850 31.6529 19.7916 -112.6158 57.9763 -79.4528 0.0000 0.0000 4.8501 -37.4320 -0.6994 0.5354 7.1250 -0.0000 -0.0000 -8.6179 -30.7950 -3.0211
1.6132 20.2720 3.1823 173.6750 -12.5721 -172.2310 0.0000 0.0000 0.0000 -30.0226 2.8912 -61.3250 17.2477 19.8174 81.9293 1.8175 -10.4601 -24.2346 0.0159 0.8131 2.2346 0.0000 0.0000 0.0000 13.7922 35.6630 -1.3560 -1.8298 -8.5022 24.2501 -1.7910 2.8182 26.4256 -0.8269 -5.8017 16.2102 -3.8045 -1.3816 19.0598 -1.2323 -3.2262 3.6080 1.6465 -1.7322 -6.6346 -6.7295 -0.3580 -13.5999 6.2364 -0.4231 16.0138 3.0961 -0.1351 7.1626 0.0000 -0.0000 0.0000 -48.5443 -63.9391 8.3193 85.8682 -59.9354 -56.4225 -0.0000 0.0000 -48.4905 29.9084 47.3425 22.9297 -7.1250 0.0000 -0.0000 -28.6933 80.2781 -23.6798 0.0000 -0.0000 0.0000 67.6824 30.4357 20.2790 -112.2399 58.0460 -79.1339 0.0000 0.0000 4.1602 -37.3930 0.0176 -0.0135 7.1250 -0.0000 -0.0000 -8.5111 -29.9024 -3.1665
1.4881 20.4747 3.1186 174.5360 -11.5418 -171.7840 0.0000 0.0000 0.0000 -29.8143 3.3127 -60.6229 16.4708 19.6987 79.6314 1.9027 -10.1666 -24.7769 0.0422 1.3257 3.6455 0.0000 0.0000 0.0000 13.4397 35.5000 -4.7752 -2.1372 -9.1462 26.2537 -2.6245 0.9988 31.0438 -0.6990 -5.3444 14.8934 -3.9703 -1.3333 19.5896 -1.2777 -3.2313 3.4251 1.7214 -1.7153 -7.1107 -6.7492 -0.4598 -13.5072 6.7050 -0.7147 16.4969 3.2310 -0.2539 7.3233 -0.0000 0.0000 0.0000 -52.4922 -62.7697 11.6227 92.6706 -59.9730 -62.3126 -0.0000 0.0000 -46.2473 31.8822 48.2384 24.8901 -7.1250 0.0000 -0.0000 -29.8654 81.8009 -25.5291 -0.0000 0.0000 0.0000 68.0496 28.8202 21.0505 -110.7290 58.3125 -77.8501 0.0000 0.0000 3.9848 -39.3844 0.4423 -0.3631 7.1250 -0.0000 -0.0000 -10.0092 -29.3380 -3.8750
1.3658 20.6740 3.0613 174.7820 -10.5392 -171.5380 0.0000 0.0000 0.0000 -30.5757 3.9102 -59.3325 15.4930 19.5058 76.7172 1.9969 -8.5430 -25.3586 0.0137 0.7558 2.0772 0.0000 0.0000 0.0000 12.9799 33.6851 -8.6339 -2.8129 -10.3858 30.2352 -2.6537 -1.9408 30.3414 -0.5775 -4.8662 13.5272 -4.7551 -1.2978 20.1155 -1.3400 -3.4114 3.3895 2.1683 -1.7856 -7.3826 -6.8730 -0.4325 -13.6211 6.3373 -0.6326 17.1582 3.1482 -0.2709 7.5531 0.0000 0.0000 0.0000 -56.7791 -61.2090 14.6867 98.3046 -59.7378 -67.1856 -0.0000 0.0000 -43.6154 32.0358 48.5894 25.1406 -7.1250 0.0000 -0.0000 -31.4983 82.1144 -27.1351 0.0000 0.0000 0.0000 67.9192 29.2787 21.7789 -106.5409 58.9405 -74.2738 0.0000 0.0000 3.7088 -40.6678 0.8769 -0.7533 7.1250 -0.0000 -0.0000 -10.9370 -28.7496 -4.4017
